AUTHORISATION ID / PERMIT ID,PRIMARY INDUSTRY ACTIVITY DESCRIPTION,OPERATOR NAME,SITE ADDRESS,SITE POSTCODE,EASTING,NORTHING,EA AREA NAME,ROUTE NAME,SUBSTANCE NAME,REPORTING THRESHOLD (kg),QUANTITY RELEASED (kg),REGULATED INDUSTRY SECTOR,REGULATED INDUSTRY SUB SECTOR,PNEC (Âµg/L),Latitude,Longitude,REGION
BR5035IT,"COATING, PRINTING AND TEXTILES; PRE-TREATING BY WASHING ETC >10T/DAY",Calder Textiles Limited,Anchor House Thornhill Road Dewsbury West Yorkshire,WF12 9QE,424000,420500,Yorkshire,Wastewater,Cypermethrin,0.005,0.008,Paper and textiles,Textiles,1.3e-05,53.68041544900611,-1.638128447226507,Yorkshire and The Humber
BJ7433IQ,"PAPER, PULP AND BOARD; PRODUCING PAPER/BOARD >20T/D",Smurfit Kappa UK Limited,Snodland Paper Mill Chp Mill Street Snodland Kent,ME6 5AX,570780,161600,"Kent, South London and East Sussex",Controlled Waters,Cypermethrin,0.005,0.04628,Paper and textiles,Paper & Pulp,1.3e-05,51.32785729236587,0.44983752235459606,South East
WRA7409,,Yorkshire Water Services Limited,HUDDERSFIELD STW,HD2 1FG,417124,419244,Yorkshire,Controlled Waters,Cypermethrin,0.005,0.05,Water Industry,Water Industry,1.3e-05,53.6693954953469,-1.742295056114122,Yorkshire and The Humber
BR4977IH,"COATING, PRINTING AND TEXTILES; PRE-TREATING BY WASHING ETC >10T/DAY",Bulmer & Lumb Group Ltd,Buttershaw Textiles Royds Hall Lane Bradford West Yorkshire,BD6 2NE,414340,429240,Yorkshire,Wastewater,Cypermethrin,0.005,0.0731,Paper and textiles,Textiles,1.3e-05,53.75932288343611,-1.7839727532399492,Yorkshire and The Humber
BP3530RC,"COATING, PRINTING AND TEXTILES; PRE-TREATING BY WASHING ETC >10T/DAY",Harrison Gardner Dyers and Winders Limited,Royds Hall Lane Site Royds Hall Lane Buttershaw Bradford West Yorkshire,BD6 2NE,414300,429150,Yorkshire,Wastewater,Cypermethrin,0.005,0.088,Paper and textiles,Textiles,1.3e-05,53.75851505830772,-1.7845835965070347,Yorkshire and The Humber
WRA6925,,Yorkshire Water Services Limited,BRADFORD ESHOLT STW,BD10 0PB,419030,439081,Yorkshire,Controlled Waters,Cypermethrin,0.005,0.09,Water Industry,Water Industry,1.3e-05,53.84762301892852,-1.7122320086876062,Yorkshire and The Humber
016983122,,UNITED UTILITIES WATER PLC,WARRINGTON NORTH,,358110,386960,Greater Manchester Merseyside and Cheshire,Controlled Waters,Fluoranthene,0.1,0.1,Water Industry,Water Industry,,53.37782195383272,-2.6311554534335007,North West
CNTD.0044,,THAMES WATER UTILITIES LTD,ESHER STW,KT10 8AU,513500,166000,"Kent, South London and East Sussex",Controlled Waters,Fluoranthene,0.1,0.1,Water Industry,Water Industry,,51.38171143148741,-0.37045925744865815,South East
S/07/56066/R,,SEVERN TRENT WATER LTD,Worcester STW,WR2 4ZP,253530,384361,West Midlands,Controlled Waters,Fluoranthene,0.1,0.1,Water Industry,Water Industry,,53.33582156898925,-4.201181535249242,
CNTW.0531,,Anglian Water,TILBURY STW,,565670,175350,East Anglia,Controlled Waters,Fluoranthene,0.1,0.1,Water Industry,Water Industry,,51.4528958108943,0.38297313813412337,East of England
010005,,Wessex Water,BATH (SALTFORD) STW,BS31 3ER,368900,168800,Wessex,Controlled Waters,Fluoranthene,0.1,0.1,Water Industry,Water Industry,,51.41735547857703,-2.448613053184618,South West
AW2TSE9961-2,,Anglian Water,Chelmsford(Brookend) STW,,584000,208200,East Anglia,Controlled Waters,Fluoranthene,0.1,0.1,Water Industry,Water Industry,,51.74228838586037,0.6637086916015041,East of England
BS3549IM,"COATING, PRINTING AND TEXTILES; PRE-TREATING BY WASHING ETC >10T/DAY",PREMIER HANK DYERS LTD,Woodhead Road Dyers Bottoms Mills Woodhead Road Holme West Yorkshire,HD9 2PU,413180,407500,Yorkshire,Wastewater,Cypermethrin,0.005,0.104,Paper and textiles,Textiles,1.3e-05,53.563951805420984,-1.8024817961547601,Yorkshire and The Humber
A.787/S/CH/97,,Southern Water,Ford (Bognor/Littlehampton) STW,BN18 0HY,499490,103030,Solent and South Downs,Controlled Waters,Fluoranthene,0.1,0.11,Water Industry,Water Industry,,50.81827977333457,-0.5890396595351772,South East
A1106/S/P/99,,Southern Water,Langley Point STW - Eastbourne,BN21 1SA,564120,100950,Solent and South Downs,Controlled Waters,Fluoranthene,0.1,0.11,Water Industry,Water Industry,,50.78489824292885,0.3268494282698041,South East
016940144,,UNITED UTILITIES WATER PLC,ECCLES,,374960,397150,Greater Manchester Merseyside and Cheshire,Controlled Waters,Fluoranthene,0.1,0.11,Water Industry,Water Industry,,53.47048388729303,-2.3786875230934386,North West
CNTD.0024,,THAMES WATER UTILITIES LTD,CAMBERLEY STW,GU15 3DE,485800,159500,Thames,Controlled Waters,Fluoranthene,0.1,0.11,Water Industry,Water Industry,,51.32813662985067,-0.7699431370528544,South East
CTCR.0875,,THAMES WATER UTILITIES LTD,BASINGSTOKE STW,RG24 8LL,468000,155200,Thames,Controlled Waters,Fluoranthene,0.1,0.11,Water Industry,Water Industry,,51.29188112525349,-1.0261909051605638,South East
A1107/S/CH/99,,Southern Water,East Worthing STW,BN11 2SA,516930,103610,Solent and South Downs,Controlled Waters,Fluoranthene,0.1,0.11,Water Industry,Water Industry,,50.82023809902321,-0.3413847912627039,South East
25/04/1797,,NORTHUMBRIAN WATER LTD,Stressholme STW,UNKNOWN,428900,510400,North East,Controlled Waters,Fluoranthene,0.1,0.11,Water Industry,Water Industry,,54.48812311522736,-1.555398971427035,North East
AW1NF2460,,Anglian Water,Bedford STW,,508500,249600,East Anglia,Controlled Waters,Fluoranthene,0.1,0.12,Water Industry,Water Industry,,52.134058637941244,-0.41620486681391833,East of England
S/20/25430/R,,SEVERN TRENT WATER LTD,Cheltenham STW,GL51 0TH,389930,224860,West Midlands,Controlled Waters,Fluoranthene,0.1,0.12,Water Industry,Water Industry,,51.92216852088476,-2.147834358765615,South West
S/13/25443/R,,SEVERN TRENT WATER LTD,Warwick STW,CV34 6QW,427770,262900,West Midlands,Controlled Waters,Fluoranthene,0.1,0.12,Water Industry,Water Industry,,52.263566941302074,-1.594524975099739,West Midlands
300454,,SOUTH WEST WATER LTD,Plymouth Central STW,PL4 OPX,249800,53930,"Devon, Cornwall and the Isles of Scilly",Controlled Waters,Fluoranthene,0.1,0.12,Water Industry,Water Industry,,50.36605365411117,-4.1132599121048035,South West
A857/S/P/98,,Southern Water,Bexhill & Hastings STW,TN32 8AY,577300,109200,Solent and South Downs,Controlled Waters,Fluoranthene,0.1,0.12,Water Industry,Water Industry,,50.85513773720249,0.5176207779836519,South East
A720/K/97,,Southern Water,Motney Hill STW,ME8 7UA,582950,168380,"Kent, South London and East Sussex",Controlled Waters,Fluoranthene,0.1,0.12,Water Industry,Water Industry,,51.38497550557988,0.6278084434090928,South East
T/08/09076/R,,SEVERN TRENT WATER LTD,Ray Hall Sand Filters STW,B43 6JE,402900,293700,West Midlands,Controlled Waters,Fluoranthene,0.1,0.12,Water Industry,Water Industry,,52.54114944865429,-1.9586717376025498,West Midlands
A1112/K/00,,Southern Water,"Broomfield Bank WTW, Folkestone Road, Church Hougham, Dover, Kent",CT15 7AB,628500,140100,"Kent, South London and East Sussex",Controlled Waters,Fluoranthene,0.1,0.13,Water Industry,Water Industry,,51.114608629871924,1.2633435941591,South East
AWNNF13399,,Anglian Water,Broadholme STW,,494150,268750,Lincolnshire and Northamptonshire,Controlled Waters,Fluoranthene,0.1,0.13,Water Industry,Water Industry,,52.30880249617189,-0.6204684010696924,East Midlands
A726/IOW/97,,Southern Water,Sandown STW (Ventnor/Bembridge),PO36 8DE,460270,85220,Solent and South Downs,Controlled Waters,Fluoranthene,0.1,0.13,Water Industry,Water Industry,,50.663541553013175,-1.1486148651904486,South East
001229,,SOUTH WEST WATER LTD,EXETER STW (Countess Wear),EX2 7AA,294800,89000,"Devon, Cornwall and the Isles of Scilly",Controlled Waters,Fluoranthene,0.1,0.13,Water Industry,Water Industry,,50.69110641761321,-3.4907104289958726,South West
COPA/5586,,Southern Water,Millbrook STW,SO15 0HH,438850,112600,Solent and South Downs,Controlled Waters,Fluoranthene,0.1,0.13,Water Industry,Water Industry,,50.91156573195226,-1.4487767063232817,South East
T/24/35514/R,,SEVERN TRENT WATER LTD,Claymills Chp Plant Meadow Lane Clay Mills Nr Burton Staffordshire,DE13 0DB,426270,325780,West Midlands,Controlled Waters,Fluoranthene,0.1,0.13,Water Industry,Water Industry,,52.82890968304119,-1.6115476620963551,West Midlands
ASCNF1033,,Anglian Water,Cambridge STW,,548350,261540,East Anglia,Controlled Waters,Fluoranthene,0.1,0.14,Water Industry,Water Industry,,52.23207645870105,0.1708411736842626,East of England
043091,,Wessex Water,POOLE STW,BH17 7BX,400700,93580,Wessex,Controlled Waters,Fluoranthene,0.1,0.14,Water Industry,Water Industry,,50.74182787954079,-1.991444522226778,South West
040415,,Wessex Water,BOURNEMOUTH (Holdenhurst) STW,BH7 7ES,413300,95230,Wessex,Controlled Waters,Fluoranthene,0.1,0.14,Water Industry,Water Industry,,50.75651622422837,-1.8128154360805653,South West
CNTD.0084,,THAMES WATER UTILITIES LTD,LUTON STW,LU1 5TS,512300,217800,Hertfordshire and North London,Controlled Waters,Fluoranthene,0.1,0.14,Water Industry,Water Industry,,51.84751209537345,-0.37111353457588714,East of England
AW3TS519,,Anglian Water,Pyewipe (Grimsby) STW,,528280,413140,Lincolnshire and Northamptonshire,Controlled Waters,Fluoranthene,0.1,0.14,Water Industry,Water Industry,,53.599134825406814,-0.06300357585157099,
200976,,SOUTH WEST WATER LTD,Brokenbury STW (TORBAY),TQ5 0LL,289750,56310,"Devon, Cornwall and the Isles of Scilly",Controlled Waters,Fluoranthene,0.1,0.15,Water Industry,Water Industry,,50.39629958802472,-3.5524947785411247,South West
S/06/55227/R,,SEVERN TRENT WATER LTD,Barnhurst STW,WV95HN,390000,301650,West Midlands,Controlled Waters,Fluoranthene,0.1,0.15,Water Industry,Water Industry,,52.61253137355055,-2.149118878174962,West Midlands
CNTD.0017,,THAMES WATER UTILITIES LTD,SWINDON STW,SN2 2DP,412700,185800,Thames,Controlled Waters,Fluoranthene,0.1,0.16,Water Industry,Water Industry,,51.57092949123404,-1.8181517865047485,South West
017160005,,UNITED UTILITIES WATER PLC,BURNLEY,,382550,435270,Cumbria and Lancashire,Controlled Waters,Fluoranthene,0.1,0.16,Water Industry,Water Industry,,53.813417898368776,-2.2665013916025725,North West
016940151,,UNITED UTILITIES WATER PLC,STOCKPORT,,386520,389820,Greater Manchester Merseyside and Cheshire,Controlled Waters,Fluoranthene,0.1,0.18,Water Industry,Water Industry,,53.40502394305661,-2.2042249143718937,North West
CTCR.0709,,THAMES WATER UTILITIES LTD,OXFORD STW,OX4 4YU,454200,202200,Thames,Controlled Waters,Fluoranthene,0.1,0.18,Water Industry,Water Industry,,51.71591848737045,-1.2168679929874056,South East
AW5NF5178,,Anglian Water,Flag Fen STW,,522140,298140,Lincolnshire and Northamptonshire,Controlled Waters,Fluoranthene,0.1,0.18,Water Industry,Water Industry,,52.56738396341251,-0.19938126113462898,East of England
S/20/21356/R,,SEVERN TRENT WATER LTD,Netheridge CHP Plant Hempsted Lane Hempsted Gloucestershire,GL2 5LF,381110,215700,West Midlands,Controlled Waters,Fluoranthene,0.1,0.18,Water Industry,Water Industry,,51.839581834363415,-2.275579360127801,South West
016993399,,UNITED UTILITIES WATER PLC,BIRKENHEAD,,332800,389400,Greater Manchester Merseyside and Cheshire,Controlled Waters,Fluoranthene,0.1,0.18,Water Industry,Water Industry,,53.3971324575507,-3.012083267411799,North West
255/1144,,NORTHUMBRIAN WATER LTD,HENDON STW,SR1 2ES,441049,555891,North East,Controlled Waters,Fluoranthene,0.1,0.19,Water Industry,Water Industry,,54.89607337586726,-1.361489978558213,North East
016950038,,UNITED UTILITIES WATER PLC,OLDHAM,,389260,404300,Greater Manchester Merseyside and Cheshire,Controlled Waters,Fluoranthene,0.1,0.19,Water Industry,Water Industry,,53.53523963672918,-2.163511580117871,North West
CNTD.0058,,THAMES WATER UTILITIES LTD,LITTLE MARLOW STW,SL7 3RT,487800,187000,Thames,Controlled Waters,Fluoranthene,0.1,0.19,Water Industry,Water Industry,,51.57503906157903,-0.7344294503116684,South East
AWCNF10296,,Anglian Water,Cotton Valley STW,,488630,241460,East Anglia,Controlled Waters,Fluoranthene,0.1,0.19,Water Industry,Water Industry,,52.06443452129644,-0.7085359599756176,South East
CAWM.0942,,THAMES WATER UTILITIES LTD,READING STW,RG2 0RP,471100,170800,Thames,Controlled Waters,Fluoranthene,0.1,0.2,Water Industry,Water Industry,,51.43175105234219,-0.9786268415538915,South East
016930112,,UNITED UTILITIES WATER PLC,FAZAKERLEY,,339370,396600,Greater Manchester Merseyside and Cheshire,Controlled Waters,Fluoranthene,0.1,0.2,Water Industry,Water Industry,,53.46263823290822,-2.9146804259264933,North West
CNTM.2237,,THAMES WATER UTILITIES LTD,SLOUGH STW,SL1 9EB,494100,179200,Thames,Controlled Waters,Fluoranthene,0.1,0.21,Water Industry,Water Industry,,51.503910638290265,-0.6456287673436109,South East
A74/S/87,,Southern Water,Portobello STW (Brighton),BN10 7BD,539300,101460,Solent and South Downs,Controlled Waters,Fluoranthene,0.1,0.21,Water Industry,Water Industry,,50.79597145410508,-0.02481221964020708,South East
AW4TF1789,,Anglian Water,Whitlingham(Norwich) STW,,627800,307700,East Anglia,Controlled Waters,Fluoranthene,0.1,0.21,Water Industry,Water Industry,,52.61924889217021,1.363855620576636,East of England
016920130,,UNITED UTILITIES WATER PLC,ST HELENS,,353820,395900,Greater Manchester Merseyside and Cheshire,Controlled Waters,Fluoranthene,0.1,0.22,Water Industry,Water Industry,,53.457815001619835,-2.6969509558081435,North West
T/12/35338/R,,SEVERN TRENT WATER LTD,Coleshill STW,B46 1NX,419000,291000,West Midlands,Controlled Waters,Fluoranthene,0.1,0.22,Water Industry,Water Industry,,52.51655670471135,-1.721439707484814,West Midlands
AWNNF13052,,Anglian Water,Great Billing STW,,483280,261550,Lincolnshire and Northamptonshire,Controlled Waters,Fluoranthene,0.1,0.22,Water Industry,Water Industry,,52.2458410921532,-0.7816391496402058,East Midlands
017670049,,UNITED UTILITIES WATER PLC,CARLISLE WILLOWHOLME INDUSTRIAL ESTATE CARLISLE CUMBRIA,CA2 5SH,338470,556520,Cumbria and Lancashire,Controlled Waters,Fluoranthene,0.1,0.23,Water Industry,Water Industry,,54.89959994285756,-2.960999993430974,North West
017160008,,UNITED UTILITIES WATER PLC,HYNDBURN,,375750,433550,Cumbria and Lancashire,Controlled Waters,Fluoranthene,0.1,0.23,Water Industry,Water Industry,,53.79768483713117,-2.3696373594073914,North West
A569/H/90,,Southern Water,Peel Common STW,PO14 2LJ,456500,103300,Solent and South Downs,Controlled Waters,Fluoranthene,0.1,0.23,Water Industry,Water Industry,,50.82648980553852,-1.1991825375250997,South East
S/06/55232/R,,SEVERN TRENT WATER LTD,Roundhill Sewage Treatment Wor Gibbett Lane Kinver West Midlands,DY7 6PX,303870,202830,West Midlands,Controlled Waters,Fluoranthene,0.1,0.23,Water Industry,Water Industry,,51.71593199808987,-3.392880616414023,
016950033,,UNITED UTILITIES WATER PLC,BURY,,380450,408050,Greater Manchester Merseyside and Cheshire,Controlled Waters,Fluoranthene,0.1,0.24,Water Industry,Water Industry,,53.568689506182324,-2.296668001953978,North West
CASM.0040,,THAMES WATER UTILITIES LTD,HOGSMILL A STW,KT1 3BW,519200,168500,"Kent, South London and East Sussex",Controlled Waters,Fluoranthene,0.1,0.24,Water Industry,Water Industry,,51.40301332636438,-0.2877532983545494,London
017160024,,UNITED UTILITIES WATER PLC,BLACKBURN,,360470,429410,Cumbria and Lancashire,Controlled Waters,Fluoranthene,0.1,0.25,Water Industry,Water Industry,,53.75953685781403,-2.601070202815933,North West
CASM.0340,,Anglian Water,SOUTHEND ON SEA STW,,581900,190600,East Anglia,Controlled Waters,Fluoranthene,0.1,0.26,Water Industry,Water Industry,,51.584894773533854,0.6241731351924702,East of England
CLCR.0048,,THAMES WATER UTILITIES LTD,Rye Meads Combined Heat And Power Plant Off Rye Road Stanstead Abbotts Hertfordshire,SG12 8JY,539260,210400,Hertfordshire and North London,Controlled Waters,Fluoranthene,0.1,0.27,Water Industry,Water Industry,,51.77495262466496,0.017064528820277147,East of England
016950041,,UNITED UTILITIES WATER PLC,ROCHDALE,,388160,412370,Greater Manchester Merseyside and Cheshire,Controlled Waters,Fluoranthene,0.1,0.28,Water Industry,Water Industry,,53.60775095500724,-2.1804168232172088,North West
T/48/12074/R,,SEVERN TRENT WATER LTD,Derby Sewage Treatment Works Chp Plant Megaloughton Lane Spondon Derby Derbyshire,DE21 7BR,438830,343470,East Midlands,Controlled Waters,Fluoranthene,0.1,0.29,Water Industry,Water Industry,,52.98716656830344,-1.42303516929143,East Midlands
017081316,,UNITED UTILITIES WATER PLC,WIGAN,,348170,412020,Greater Manchester Merseyside and Cheshire,Controlled Waters,Fluoranthene,0.1,0.32,Water Industry,Water Industry,,53.602167032712885,-2.784707855761451,North West
016950032,,UNITED UTILITIES WATER PLC,BOLTON,,376950,404520,Greater Manchester Merseyside and Cheshire,Controlled Waters,Fluoranthene,0.1,0.34,Water Industry,Water Industry,,53.536818464081755,-2.349253891884259,North West
CSSA.0364,,THAMES WATER UTILITIES LTD,RIVERSIDE STW,RM13 8RL,551500,181900,Hertfordshire and North London,Controlled Waters,Fluoranthene,0.1,0.35,Water Industry,Water Industry,,51.515713120730595,0.18200906924859406,London
017280252,,UNITED UTILITIES WATER PLC,Fleetwood Wwtw Jameson Road Fleetwood Lancashire,FY7 8TW,333090,446180,Cumbria and Lancashire,Controlled Waters,Fluoranthene,0.1,0.35,Water Industry,Water Industry,,53.90743793916987,-3.0199685283693034,North West
WACT/257,,Southern Water,Budds Farm STW,PO9 1JW,470800,105570,Solent and South Downs,Controlled Waters,Fluoranthene,0.1,0.35,Water Industry,Water Industry,,50.84533022631547,-0.9957435813310475,South East
254/1920,,NORTHUMBRIAN WATER LTD,Wilton Teraphalic Plant Tees Dock Road Middlesbrough Redcar and Cleveland,TS6 6UE,457300,521270,North East,Controlled Waters,Fluoranthene,0.1,0.38,Water Industry,Water Industry,,54.583392704442154,-1.1149388879352562,North East
CSSV.0382,,THAMES WATER UTILITIES LTD,BEDDINGTON STW,CR0 4TH,529520,166318,"Kent, South London and East Sussex",Controlled Waters,Fluoranthene,0.1,0.39,Water Industry,Water Industry,,51.38114353693676,-0.14026756827141423,London
T/01/21819/R,,SEVERN TRENT WATER LTD,Strongford Sewage Treatment Works Barlaston Old Road Barlaston Stoke On Trent Staffordshire,ST12 9EX,387930,339120,West Midlands,Controlled Waters,Fluoranthene,0.1,0.42,Water Industry,Water Industry,,52.94932370402649,-2.1810843207600032,West Midlands
017160064,,UNITED UTILITIES WATER PLC,PRESTON,,345450,427850,Cumbria and Lancashire,Controlled Waters,Fluoranthene,0.1,0.44,Water Industry,Water Industry,,53.744157847609756,-2.828594718178692,
CNTD.0071,,THAMES WATER UTILITIES LTD,MAPLE LODGE STW,WD3 9SQ,504200,192000,Hertfordshire and North London,Controlled Waters,Fluoranthene,0.1,0.45,Water Industry,Water Industry,,51.61719085980753,-0.49637273526672454,East of England
S/11/25151/R,,SEVERN TRENT WATER LTD,Coventry (Finham) STW,CV3 6SD,433600,273700,West Midlands,Controlled Waters,Fluoranthene,0.1,0.46,Water Industry,Water Industry,,52.3603336558624,-1.5080303048358552,West Midlands
T/64/45170/R,,SEVERN TRENT WATER LTD,Stoke Bardolph STW Nottingham,NG14 5HL,464730,342220,East Midlands,Controlled Waters,Fluoranthene,0.1,0.52,Water Industry,Water Industry,,52.97343472688653,-1.0375249549284704,East Midlands
T/53/45014/R,,SEVERN TRENT WATER LTD,Wanlip Sewage Treatment Works Fillingate Wanlip Leicester Leicestershire,LE7 4PF,459760,311500,East Midlands,Controlled Waters,Fluoranthene,0.1,0.53,Water Industry,Water Industry,,52.69788886015215,-1.1171407605839059,East Midlands
CNTD.0067,,THAMES WATER UTILITIES LTD,LONG REACH STW,DA1 5PP,555600,176700,"Kent, South London and East Sussex",Controlled Waters,Fluoranthene,0.1,0.63,Water Industry,Water Industry,,51.46787978063073,0.2387595087625488,South East
100311,,Wessex Water,BRISTOL (AVONMOUTH) STW,BS11 9AA,353250,179400,Wessex,Controlled Waters,Fluoranthene,0.1,0.65,Water Industry,Water Industry,,51.511581191559195,-2.675054415150117,South West
BS6025IF,"COATING, PRINTING AND TEXTILES; PRE-TREATING BY WASHING ETC >10T/DAY",Whitaker Fibres Limited,Cashmere Works Birksland Street Bradford West Yorkshire,BD3 9SX,417800,432700,Yorkshire,Wastewater,Cypermethrin,0.005,0.721,Paper and textiles,Textiles,1.3e-05,53.79031504661774,-1.731294248366148,Yorkshire and The Humber
0166993397,,UNITED UTILITIES WATER PLC,Liverpool Waste Water Treatment Sandon Dock Regent Road Liverpool Merseyside,L3 0BE,333730,392800,Greater Manchester Merseyside and Cheshire,Controlled Waters,Fluoranthene,0.1,0.78,Water Industry,Water Industry,,53.427806585903376,-2.998815240786531,North West
235/1695,,NORTHUMBRIAN WATER LTD,Howdon Sewage Treatment Works Northumberland Dock Road Wallsend Tyne And Wear,NE28 0QD,433340,566290,North East,Controlled Waters,Fluoranthene,0.1,0.85,Water Industry,Water Industry,,54.990089316955455,-1.4804801697261554,North East
CNTD.0072,,THAMES WATER UTILITIES LTD,DEEPHAMS STW,N9 0BA,535660,193170,Hertfordshire and North London,Controlled Waters,Fluoranthene,0.1,0.9,Water Industry,Water Industry,,51.62100912681586,-0.04177690146433094,London
017670049,,UNITED UTILITIES WATER PLC,CARLISLE WILLOWHOLME INDUSTRIAL ESTATE CARLISLE CUMBRIA,CA2 5SH,338470,556520,Cumbria and Lancashire,Controlled Waters,Benzo(a)pyrene,1.0,1.0,Water Industry,Water Industry,,54.89959994285756,-2.960999993430974,North West
016940143,,UNITED UTILITIES WATER PLC,DAVYHULME,,374800,396460,Greater Manchester Merseyside and Cheshire,Controlled Waters,Fluoranthene,0.1,1.0,Water Industry,Water Industry,,53.46427432348601,-2.3810422309625947,North West
S/20/21356/R,,SEVERN TRENT WATER LTD,Netheridge CHP Plant Hempsted Lane Hempsted Gloucestershire,GL2 5LF,381110,215700,West Midlands,Controlled Waters,"Indeno(1,2,3-cd)pyrene",1.0,1.01,Water Industry,Water Industry,,51.839581834363415,-2.275579360127801,South West
CTCR.0709,,THAMES WATER UTILITIES LTD,OXFORD STW,OX4 4YU,454200,202200,Thames,Controlled Waters,"Indeno(1,2,3-cd)pyrene",1.0,1.02,Water Industry,Water Industry,,51.71591848737045,-1.2168679929874056,South East
S/06/55232/R,,SEVERN TRENT WATER LTD,Roundhill Sewage Treatment Wor Gibbett Lane Kinver West Midlands,DY7 6PX,303870,202830,West Midlands,Controlled Waters,Benzo(a)pyrene,1.0,1.02,Water Industry,Water Industry,,51.71593199808987,-3.392880616414023,
AW5NF5178,,Anglian Water,Flag Fen STW,,522140,298140,Lincolnshire and Northamptonshire,Controlled Waters,"Indeno(1,2,3-cd)pyrene",1.0,1.03,Water Industry,Water Industry,,52.56738396341251,-0.19938126113462898,East of England
CASM.0040,,THAMES WATER UTILITIES LTD,HOGSMILL A STW,KT1 3BW,519200,168500,"Kent, South London and East Sussex",Controlled Waters,Benzo(a)pyrene,1.0,1.03,Water Industry,Water Industry,,51.40301332636438,-0.2877532983545494,London
016940151,,UNITED UTILITIES WATER PLC,STOCKPORT,,386520,389820,Greater Manchester Merseyside and Cheshire,Controlled Waters,"Indeno(1,2,3-cd)pyrene",1.0,1.04,Water Industry,Water Industry,,53.40502394305661,-2.2042249143718937,North West
016950033,,UNITED UTILITIES WATER PLC,BURY,,380450,408050,Greater Manchester Merseyside and Cheshire,Controlled Waters,Benzo(a)pyrene,1.0,1.05,Water Industry,Water Industry,,53.568689506182324,-2.296668001953978,North West
016950038,,UNITED UTILITIES WATER PLC,OLDHAM,,389260,404300,Greater Manchester Merseyside and Cheshire,Controlled Waters,"Indeno(1,2,3-cd)pyrene",1.0,1.06,Water Industry,Water Industry,,53.53523963672918,-2.163511580117871,North West
CNTD.0058,,THAMES WATER UTILITIES LTD,LITTLE MARLOW STW,SL7 3RT,487800,187000,Thames,Controlled Waters,"Indeno(1,2,3-cd)pyrene",1.0,1.08,Water Industry,Water Industry,,51.57503906157903,-0.7344294503116684,South East
AWCNF10296,,Anglian Water,Cotton Valley STW,,488630,241460,East Anglia,Controlled Waters,"Indeno(1,2,3-cd)pyrene",1.0,1.08,Water Industry,Water Industry,,52.06443452129644,-0.7085359599756176,South East
255/1144,,NORTHUMBRIAN WATER LTD,HENDON STW,SR1 2ES,441049,555891,North East,Controlled Waters,"Indeno(1,2,3-cd)pyrene",1.0,1.09,Water Industry,Water Industry,,54.89607337586726,-1.361489978558213,North East
017160024,,UNITED UTILITIES WATER PLC,BLACKBURN,,360470,429410,Cumbria and Lancashire,Controlled Waters,Benzo(a)pyrene,1.0,1.11,Water Industry,Water Industry,,53.75953685781403,-2.601070202815933,North West
CAWM.0942,,THAMES WATER UTILITIES LTD,READING STW,RG2 0RP,471100,170800,Thames,Controlled Waters,"Indeno(1,2,3-cd)pyrene",1.0,1.12,Water Industry,Water Industry,,51.43175105234219,-0.9786268415538915,South East
016930112,,UNITED UTILITIES WATER PLC,FAZAKERLEY,,339370,396600,Greater Manchester Merseyside and Cheshire,Controlled Waters,"Indeno(1,2,3-cd)pyrene",1.0,1.12,Water Industry,Water Industry,,53.46263823290822,-2.9146804259264933,North West
CASM.0340,,Anglian Water,SOUTHEND ON SEA STW,,581900,190600,East Anglia,Controlled Waters,Benzo(a)pyrene,1.0,1.15,Water Industry,Water Industry,,51.584894773533854,0.6241731351924702,East of England
CNTM.2237,,THAMES WATER UTILITIES LTD,SLOUGH STW,SL1 9EB,494100,179200,Thames,Controlled Waters,"Indeno(1,2,3-cd)pyrene",1.0,1.19,Water Industry,Water Industry,,51.503910638290265,-0.6456287673436109,South East
CLCR.0048,,THAMES WATER UTILITIES LTD,Rye Meads Combined Heat And Power Plant Off Rye Road Stanstead Abbotts Hertfordshire,SG12 8JY,539260,210400,Hertfordshire and North London,Controlled Waters,Benzo(a)pyrene,1.0,1.2,Water Industry,Water Industry,,51.77495262466496,0.017064528820277147,East of England
A74/S/87,,Southern Water,Portobello STW (Brighton),BN10 7BD,539300,101460,Solent and South Downs,Controlled Waters,"Indeno(1,2,3-cd)pyrene",1.0,1.21,Water Industry,Water Industry,,50.79597145410508,-0.02481221964020708,South East
AW4TF1789,,Anglian Water,Whitlingham(Norwich) STW,,627800,307700,East Anglia,Controlled Waters,"Indeno(1,2,3-cd)pyrene",1.0,1.21,Water Industry,Water Industry,,52.61924889217021,1.363855620576636,East of England
016950041,,UNITED UTILITIES WATER PLC,ROCHDALE,,388160,412370,Greater Manchester Merseyside and Cheshire,Controlled Waters,Benzo(a)pyrene,1.0,1.22,Water Industry,Water Industry,,53.60775095500724,-2.1804168232172088,North West
T/12/35338/R,,SEVERN TRENT WATER LTD,Coleshill STW,B46 1NX,419000,291000,West Midlands,Controlled Waters,"Indeno(1,2,3-cd)pyrene",1.0,1.24,Water Industry,Water Industry,,52.51655670471135,-1.721439707484814,West Midlands
016920130,,UNITED UTILITIES WATER PLC,ST HELENS,,353820,395900,Greater Manchester Merseyside and Cheshire,Controlled Waters,"Indeno(1,2,3-cd)pyrene",1.0,1.25,Water Industry,Water Industry,,53.457815001619835,-2.6969509558081435,North West
017160008,,UNITED UTILITIES WATER PLC,HYNDBURN,,375750,433550,Cumbria and Lancashire,Controlled Waters,"Indeno(1,2,3-cd)pyrene",1.0,1.28,Water Industry,Water Industry,,53.79768483713117,-2.3696373594073914,North West
T/48/12074/R,,SEVERN TRENT WATER LTD,Derby Sewage Treatment Works Chp Plant Megaloughton Lane Spondon Derby Derbyshire,DE21 7BR,438830,343470,East Midlands,Controlled Waters,Benzo(a)pyrene,1.0,1.28,Water Industry,Water Industry,,52.98716656830344,-1.42303516929143,East Midlands
AWNNF13052,,Anglian Water,Great Billing STW,,483280,261550,Lincolnshire and Northamptonshire,Controlled Waters,"Indeno(1,2,3-cd)pyrene",1.0,1.28,Water Industry,Water Industry,,52.2458410921532,-0.7816391496402058,East Midlands
A569/H/90,,Southern Water,Peel Common STW,PO14 2LJ,456500,103300,Solent and South Downs,Controlled Waters,"Indeno(1,2,3-cd)pyrene",1.0,1.29,Water Industry,Water Industry,,50.82648980553852,-1.1991825375250997,South East
017670049,,UNITED UTILITIES WATER PLC,CARLISLE WILLOWHOLME INDUSTRIAL ESTATE CARLISLE CUMBRIA,CA2 5SH,338470,556520,Cumbria and Lancashire,Controlled Waters,"Indeno(1,2,3-cd)pyrene",1.0,1.3,Water Industry,Water Industry,,54.89959994285756,-2.960999993430974,North West
S/06/55232/R,,SEVERN TRENT WATER LTD,Roundhill Sewage Treatment Wor Gibbett Lane Kinver West Midlands,DY7 6PX,303870,202830,West Midlands,Controlled Waters,"Indeno(1,2,3-cd)pyrene",1.0,1.32,Water Industry,Water Industry,,51.71593199808987,-3.392880616414023,
CASM.0040,,THAMES WATER UTILITIES LTD,HOGSMILL A STW,KT1 3BW,519200,168500,"Kent, South London and East Sussex",Controlled Waters,"Indeno(1,2,3-cd)pyrene",1.0,1.34,Water Industry,Water Industry,,51.40301332636438,-0.2877532983545494,London
016950033,,UNITED UTILITIES WATER PLC,BURY,,380450,408050,Greater Manchester Merseyside and Cheshire,Controlled Waters,"Indeno(1,2,3-cd)pyrene",1.0,1.36,Water Industry,Water Industry,,53.568689506182324,-2.296668001953978,North West
017081316,,UNITED UTILITIES WATER PLC,WIGAN,,348170,412020,Greater Manchester Merseyside and Cheshire,Controlled Waters,Benzo(a)pyrene,1.0,1.42,Water Industry,Water Industry,,53.602167032712885,-2.784707855761451,North West
017160024,,UNITED UTILITIES WATER PLC,BLACKBURN,,360470,429410,Cumbria and Lancashire,Controlled Waters,"Indeno(1,2,3-cd)pyrene",1.0,1.44,Water Industry,Water Industry,,53.75953685781403,-2.601070202815933,North West
CASM.0340,,Anglian Water,SOUTHEND ON SEA STW,,581900,190600,East Anglia,Controlled Waters,"Indeno(1,2,3-cd)pyrene",1.0,1.48,Water Industry,Water Industry,,51.584894773533854,0.6241731351924702,East of England
016950032,,UNITED UTILITIES WATER PLC,BOLTON,,376950,404520,Greater Manchester Merseyside and Cheshire,Controlled Waters,Benzo(a)pyrene,1.0,1.49,Water Industry,Water Industry,,53.536818464081755,-2.349253891884259,North West
CSSA.0364,,THAMES WATER UTILITIES LTD,RIVERSIDE STW,RM13 8RL,551500,181900,Hertfordshire and North London,Controlled Waters,Benzo(a)pyrene,1.0,1.52,Water Industry,Water Industry,,51.515713120730595,0.18200906924859406,London
017280252,,UNITED UTILITIES WATER PLC,Fleetwood Wwtw Jameson Road Fleetwood Lancashire,FY7 8TW,333090,446180,Cumbria and Lancashire,Controlled Waters,Benzo(a)pyrene,1.0,1.54,Water Industry,Water Industry,,53.90743793916987,-3.0199685283693034,North West
CLCR.0048,,THAMES WATER UTILITIES LTD,Rye Meads Combined Heat And Power Plant Off Rye Road Stanstead Abbotts Hertfordshire,SG12 8JY,539260,210400,Hertfordshire and North London,Controlled Waters,"Indeno(1,2,3-cd)pyrene",1.0,1.55,Water Industry,Water Industry,,51.77495262466496,0.017064528820277147,East of England
WACT/257,,Southern Water,Budds Farm STW,PO9 1JW,470800,105570,Solent and South Downs,Controlled Waters,Benzo(a)pyrene,1.0,1.56,Water Industry,Water Industry,,50.84533022631547,-0.9957435813310475,South East
016950041,,UNITED UTILITIES WATER PLC,ROCHDALE,,388160,412370,Greater Manchester Merseyside and Cheshire,Controlled Waters,"Indeno(1,2,3-cd)pyrene",1.0,1.58,Water Industry,Water Industry,,53.60775095500724,-2.1804168232172088,North West
CNTD.0085,,THAMES WATER UTILITIES LTD,MOGDEN STW,TW7 7LP,516800,175900,Hertfordshire and North London,Controlled Waters,Fluoranthene,0.1,1.6,Water Industry,Water Industry,,51.47002108758989,-0.31980142224145863,London
T/48/12074/R,,SEVERN TRENT WATER LTD,Derby Sewage Treatment Works Chp Plant Megaloughton Lane Spondon Derby Derbyshire,DE21 7BR,438830,343470,East Midlands,Controlled Waters,"Indeno(1,2,3-cd)pyrene",1.0,1.66,Water Industry,Water Industry,,52.98716656830344,-1.42303516929143,East Midlands
254/1920,,NORTHUMBRIAN WATER LTD,Wilton Teraphalic Plant Tees Dock Road Middlesbrough Redcar and Cleveland,TS6 6UE,457300,521270,North East,Controlled Waters,Benzo(a)pyrene,1.0,1.66,Water Industry,Water Industry,,54.583392704442154,-1.1149388879352562,North East
CSSA.0362,,THAMES WATER UTILITIES LTD,Crossness Sewage Treatment Works Belvedere Road London Greater London,SE2 9AQ,549100,180670,"Kent, South London and East Sussex",Controlled Waters,Fluoranthene,0.1,1.68,Water Industry,Water Industry,,51.50529938596011,0.14692716332163996,London
CSSV.0382,,THAMES WATER UTILITIES LTD,BEDDINGTON STW,CR0 4TH,529520,166318,"Kent, South London and East Sussex",Controlled Waters,Benzo(a)pyrene,1.0,1.72,Water Industry,Water Industry,,51.38114353693676,-0.14026756827141423,London
JP3638HM,"FERROUS METALS; PRODUCING, MELTING OR REFINING",Sahaviriya Steel Industries UK Limited,Teeside Integrated Iron and Steelworks Steel House Redcar Teesside Cleveland,TS10 5QW,457690,524150,North East,Controlled Waters,Fluoranthene,0.1,1.78,Metals,Ferrous,,54.609227171624504,-1.1083403642506415,North East
T/01/21819/R,,SEVERN TRENT WATER LTD,Strongford Sewage Treatment Works Barlaston Old Road Barlaston Stoke On Trent Staffordshire,ST12 9EX,387930,339120,West Midlands,Controlled Waters,Benzo(a)pyrene,1.0,1.83,Water Industry,Water Industry,,52.94932370402649,-2.1810843207600032,West Midlands
017081316,,UNITED UTILITIES WATER PLC,WIGAN,,348170,412020,Greater Manchester Merseyside and Cheshire,Controlled Waters,"Indeno(1,2,3-cd)pyrene",1.0,1.84,Water Industry,Water Industry,,53.602167032712885,-2.784707855761451,North West
016950032,,UNITED UTILITIES WATER PLC,BOLTON,,376950,404520,Greater Manchester Merseyside and Cheshire,Controlled Waters,"Indeno(1,2,3-cd)pyrene",1.0,1.93,Water Industry,Water Industry,,53.536818464081755,-2.349253891884259,North West
017160064,,UNITED UTILITIES WATER PLC,PRESTON,,345450,427850,Cumbria and Lancashire,Controlled Waters,Benzo(a)pyrene,1.0,1.95,Water Industry,Water Industry,,53.744157847609756,-2.828594718178692,
CSSA.0364,,THAMES WATER UTILITIES LTD,RIVERSIDE STW,RM13 8RL,551500,181900,Hertfordshire and North London,Controlled Waters,"Indeno(1,2,3-cd)pyrene",1.0,1.97,Water Industry,Water Industry,,51.515713120730595,0.18200906924859406,London
CNTD.0071,,THAMES WATER UTILITIES LTD,MAPLE LODGE STW,WD3 9SQ,504200,192000,Hertfordshire and North London,Controlled Waters,Benzo(a)pyrene,1.0,1.97,Water Industry,Water Industry,,51.61719085980753,-0.49637273526672454,East of England
017280252,,UNITED UTILITIES WATER PLC,Fleetwood Wwtw Jameson Road Fleetwood Lancashire,FY7 8TW,333090,446180,Cumbria and Lancashire,Controlled Waters,"Indeno(1,2,3-cd)pyrene",1.0,1.99,Water Industry,Water Industry,,53.90743793916987,-3.0199685283693034,North West
WACT/257,,Southern Water,Budds Farm STW,PO9 1JW,470800,105570,Solent and South Downs,Controlled Waters,"Indeno(1,2,3-cd)pyrene",1.0,2.02,Water Industry,Water Industry,,50.84533022631547,-0.9957435813310475,South East
S/11/25151/R,,SEVERN TRENT WATER LTD,Coventry (Finham) STW,CV3 6SD,433600,273700,West Midlands,Controlled Waters,Benzo(a)pyrene,1.0,2.03,Water Industry,Water Industry,,52.3603336558624,-1.5080303048358552,West Midlands
254/1920,,NORTHUMBRIAN WATER LTD,Wilton Teraphalic Plant Tees Dock Road Middlesbrough Redcar and Cleveland,TS6 6UE,457300,521270,North East,Controlled Waters,"Indeno(1,2,3-cd)pyrene",1.0,2.15,Water Industry,Water Industry,,54.583392704442154,-1.1149388879352562,North East
T/10/35431/R,,SEVERN TRENT WATER LTD,Minworth Final ASP Effluent,B76 9BE,417150,291950,West Midlands,Controlled Waters,Fluoranthene,0.1,2.19,Water Industry,Water Industry,,52.52515798528092,-1.7486529341897021,West Midlands
CSSV.0382,,THAMES WATER UTILITIES LTD,BEDDINGTON STW,CR0 4TH,529520,166318,"Kent, South London and East Sussex",Controlled Waters,"Indeno(1,2,3-cd)pyrene",1.0,2.23,Water Industry,Water Industry,,51.38114353693676,-0.14026756827141423,London
T/64/45170/R,,SEVERN TRENT WATER LTD,Stoke Bardolph STW Nottingham,NG14 5HL,464730,342220,East Midlands,Controlled Waters,Benzo(a)pyrene,1.0,2.28,Water Industry,Water Industry,,52.97343472688653,-1.0375249549284704,East Midlands
T/53/45014/R,,SEVERN TRENT WATER LTD,Wanlip Sewage Treatment Works Fillingate Wanlip Leicester Leicestershire,LE7 4PF,459760,311500,East Midlands,Controlled Waters,Benzo(a)pyrene,1.0,2.34,Water Industry,Water Industry,,52.69788886015215,-1.1171407605839059,East Midlands
T/01/21819/R,,SEVERN TRENT WATER LTD,Strongford Sewage Treatment Works Barlaston Old Road Barlaston Stoke On Trent Staffordshire,ST12 9EX,387930,339120,West Midlands,Controlled Waters,"Indeno(1,2,3-cd)pyrene",1.0,2.37,Water Industry,Water Industry,,52.94932370402649,-2.1810843207600032,West Midlands
017160064,,UNITED UTILITIES WATER PLC,PRESTON,,345450,427850,Cumbria and Lancashire,Controlled Waters,"Indeno(1,2,3-cd)pyrene",1.0,2.53,Water Industry,Water Industry,,53.744157847609756,-2.828594718178692,
ZP3933LD,"WASTE LANDFILLING; >10 T/D WITH CAPACITY >25,000T EXCLUDING INERT WASTE",Severn Waste Services Limited,"Hill and Moor Landfill Site Piddle Brook Lane Wyre Piddle,Pershore Worcester Worcestershire",WR10 2LW,396900,248400,West Midlands,Wastewater,Fluoranthene,0.1,2.5473,Landfill,Non Hazardous Landfill,,52.13389224398506,-2.046705579413225,West Midlands
ZP3933LD,"WASTE LANDFILLING; >10 T/D WITH CAPACITY >25,000T EXCLUDING INERT WASTE",Severn Waste Services Limited,"Hill and Moor Landfill Site Piddle Brook Lane Wyre Piddle,Pershore Worcester Worcestershire",WR10 2LW,396900,248400,West Midlands,Wastewater,"Indeno(1,2,3-cd)pyrene",1.0,2.5473,Landfill,Non Hazardous Landfill,,52.13389224398506,-2.046705579413225,West Midlands
ZP3933LD,"WASTE LANDFILLING; >10 T/D WITH CAPACITY >25,000T EXCLUDING INERT WASTE",Severn Waste Services Limited,"Hill and Moor Landfill Site Piddle Brook Lane Wyre Piddle,Pershore Worcester Worcestershire",WR10 2LW,396900,248400,West Midlands,Wastewater,Benzo(a)pyrene,1.0,2.5473,Landfill,Non Hazardous Landfill,,52.13389224398506,-2.046705579413225,West Midlands
CNTD.0071,,THAMES WATER UTILITIES LTD,MAPLE LODGE STW,WD3 9SQ,504200,192000,Hertfordshire and North London,Controlled Waters,"Indeno(1,2,3-cd)pyrene",1.0,2.55,Water Industry,Water Industry,,51.61719085980753,-0.49637273526672454,East of England
S/11/25151/R,,SEVERN TRENT WATER LTD,Coventry (Finham) STW,CV3 6SD,433600,273700,West Midlands,Controlled Waters,"Indeno(1,2,3-cd)pyrene",1.0,2.63,Water Industry,Water Industry,,52.3603336558624,-1.5080303048358552,West Midlands
CNTD.0067,,THAMES WATER UTILITIES LTD,LONG REACH STW,DA1 5PP,555600,176700,"Kent, South London and East Sussex",Controlled Waters,Benzo(a)pyrene,1.0,2.79,Water Industry,Water Industry,,51.46787978063073,0.2387595087625488,South East
100311,,Wessex Water,BRISTOL (AVONMOUTH) STW,BS11 9AA,353250,179400,Wessex,Controlled Waters,Benzo(a)pyrene,1.0,2.85,Water Industry,Water Industry,,51.511581191559195,-2.675054415150117,South West
T/64/45170/R,,SEVERN TRENT WATER LTD,Stoke Bardolph STW Nottingham,NG14 5HL,464730,342220,East Midlands,Controlled Waters,"Indeno(1,2,3-cd)pyrene",1.0,2.96,Water Industry,Water Industry,,52.97343472688653,-1.0375249549284704,East Midlands
T/53/45014/R,,SEVERN TRENT WATER LTD,Wanlip Sewage Treatment Works Fillingate Wanlip Leicester Leicestershire,LE7 4PF,459760,311500,East Midlands,Controlled Waters,"Indeno(1,2,3-cd)pyrene",1.0,3.03,Water Industry,Water Industry,,52.69788886015215,-1.1171407605839059,East Midlands
0166993397,,UNITED UTILITIES WATER PLC,Liverpool Waste Water Treatment Sandon Dock Regent Road Liverpool Merseyside,L3 0BE,333730,392800,Greater Manchester Merseyside and Cheshire,Controlled Waters,Benzo(a)pyrene,1.0,3.44,Water Industry,Water Industry,,53.427806585903376,-2.998815240786531,North West
CNTD.0067,,THAMES WATER UTILITIES LTD,LONG REACH STW,DA1 5PP,555600,176700,"Kent, South London and East Sussex",Controlled Waters,"Indeno(1,2,3-cd)pyrene",1.0,3.61,Water Industry,Water Industry,,51.46787978063073,0.2387595087625488,South East
100311,,Wessex Water,BRISTOL (AVONMOUTH) STW,BS11 9AA,353250,179400,Wessex,Controlled Waters,"Indeno(1,2,3-cd)pyrene",1.0,3.69,Water Industry,Water Industry,,51.511581191559195,-2.675054415150117,South West
235/1695,,NORTHUMBRIAN WATER LTD,Howdon Sewage Treatment Works Northumberland Dock Road Wallsend Tyne And Wear,NE28 0QD,433340,566290,North East,Controlled Waters,Benzo(a)pyrene,1.0,3.76,Water Industry,Water Industry,,54.990089316955455,-1.4804801697261554,North East
CSSA.0360,,THAMES WATER UTILITIES LTD,BECKTON STW,IG11 0AD,545470,181670,Hertfordshire and North London,Controlled Waters,Fluoranthene,0.1,3.86,Water Industry,Water Industry,,51.51523004416228,0.09507429939023963,London
CNTD.0072,,THAMES WATER UTILITIES LTD,DEEPHAMS STW,N9 0BA,535660,193170,Hertfordshire and North London,Controlled Waters,Benzo(a)pyrene,1.0,3.97,Water Industry,Water Industry,,51.62100912681586,-0.04177690146433094,London
E15,,Yorkshire Water Services Limited,Mitchell Laithes WwTW CHP Plant Long Lane Dewsbury West Yorkshire,WF12 8LL,426030,419980,Yorkshire,Controlled Waters,Cypermethrin,0.005,4.09,Water Industry,Water Industry,1.3e-05,53.67564500308029,-1.6074394637051335,Yorkshire and The Humber
016940143,,UNITED UTILITIES WATER PLC,DAVYHULME,,374800,396460,Greater Manchester Merseyside and Cheshire,Controlled Waters,Benzo(a)pyrene,1.0,4.39,Water Industry,Water Industry,,53.46427432348601,-2.3810422309625947,North West
HP3736AW,"FERROUS METALS; HANDLING ETC >500,000 TONNES/12 MONTHS",Longs Steel UK Limited,Scunthorpe Integrated Iron And Steel Works Brigg Road Scunthorpe North Lincolnshire,DN16 1AU,491460,410290,East Midlands,Controlled Waters,"Indeno(1,2,3-cd)pyrene",1.0,4.4,Metals,Ferrous,,53.58123627531577,-0.6200207318898112,Yorkshire and The Humber
0166993397,,UNITED UTILITIES WATER PLC,Liverpool Waste Water Treatment Sandon Dock Regent Road Liverpool Merseyside,L3 0BE,333730,392800,Greater Manchester Merseyside and Cheshire,Controlled Waters,"Indeno(1,2,3-cd)pyrene",1.0,4.45,Water Industry,Water Industry,,53.427806585903376,-2.998815240786531,North West
BR4705IR,"COATING, PRINTING AND TEXTILES; PRE-TREATING BY WASHING ETC >10T/DAY",Standard Wool (UK) Limited,Eastfield Mills Dewsbury West Yorkshire,WF12 8EH,424900,421400,Yorkshire,Wastewater,Cypermethrin,0.005,4.57872,Paper and textiles,Textiles,1.3e-05,53.68846267924885,-1.6244313027457664,Yorkshire and The Humber
235/1695,,NORTHUMBRIAN WATER LTD,Howdon Sewage Treatment Works Northumberland Dock Road Wallsend Tyne And Wear,NE28 0QD,433340,566290,North East,Controlled Waters,"Indeno(1,2,3-cd)pyrene",1.0,4.86,Water Industry,Water Industry,,54.990089316955455,-1.4804801697261554,North East
CNTD.0072,,THAMES WATER UTILITIES LTD,DEEPHAMS STW,N9 0BA,535660,193170,Hertfordshire and North London,Controlled Waters,"Indeno(1,2,3-cd)pyrene",1.0,5.14,Water Industry,Water Industry,,51.62100912681586,-0.04177690146433094,London
016940143,,UNITED UTILITIES WATER PLC,DAVYHULME,,374800,396460,Greater Manchester Merseyside and Cheshire,Controlled Waters,"Indeno(1,2,3-cd)pyrene",1.0,5.68,Water Industry,Water Industry,,53.46427432348601,-2.3810422309625947,North West
HP3736AW,"FERROUS METALS; HANDLING ETC >500,000 TONNES/12 MONTHS",Longs Steel UK Limited,Scunthorpe Integrated Iron And Steel Works Brigg Road Scunthorpe North Lincolnshire,DN16 1AU,491460,410290,East Midlands,Controlled Waters,Benzo(a)pyrene,1.0,5.8,Metals,Ferrous,,53.58123627531577,-0.6200207318898112,Yorkshire and The Humber
CNTD.0085,,THAMES WATER UTILITIES LTD,MOGDEN STW,TW7 7LP,516800,175900,Hertfordshire and North London,Controlled Waters,Benzo(a)pyrene,1.0,7.05,Water Industry,Water Industry,,51.47002108758989,-0.31980142224145863,London
CSSA.0362,,THAMES WATER UTILITIES LTD,Crossness Sewage Treatment Works Belvedere Road London Greater London,SE2 9AQ,549100,180670,"Kent, South London and East Sussex",Controlled Waters,Benzo(a)pyrene,1.0,7.38,Water Industry,Water Industry,,51.50529938596011,0.14692716332163996,London
CNTD.0085,,THAMES WATER UTILITIES LTD,MOGDEN STW,TW7 7LP,516800,175900,Hertfordshire and North London,Controlled Waters,"Indeno(1,2,3-cd)pyrene",1.0,9.12,Water Industry,Water Industry,,51.47002108758989,-0.31980142224145863,London
BR6996IC,REFINING MINERAL OILS,Esso Petroleum Company Ltd,Fawley Refinery Esso Refinery Southampton Hampshire,SO45 1TX,445500,104300,Solent and South Downs,Controlled Waters,Benzo(a)pyrene,1.0,9.24,Refineries & Fuel,Refineries & Fuel,,50.836448656650745,-1.3552246018400003,South East
CSSA.0362,,THAMES WATER UTILITIES LTD,Crossness Sewage Treatment Works Belvedere Road London Greater London,SE2 9AQ,549100,180670,"Kent, South London and East Sussex",Controlled Waters,"Indeno(1,2,3-cd)pyrene",1.0,9.55,Water Industry,Water Industry,,51.50529938596011,0.14692716332163996,London
T/10/35431/R,,SEVERN TRENT WATER LTD,Minworth Final ASP Effluent,B76 9BE,417150,291950,West Midlands,Controlled Waters,Benzo(a)pyrene,1.0,9.63,Water Industry,Water Industry,,52.52515798528092,-1.7486529341897021,West Midlands
T/10/35431/R,,SEVERN TRENT WATER LTD,Minworth Final ASP Effluent,B76 9BE,417150,291950,West Midlands,Controlled Waters,"Indeno(1,2,3-cd)pyrene",1.0,12.5,Water Industry,Water Industry,,52.52515798528092,-1.7486529341897021,West Midlands
CSSA.0360,,THAMES WATER UTILITIES LTD,BECKTON STW,IG11 0AD,545470,181670,Hertfordshire and North London,Controlled Waters,Benzo(a)pyrene,1.0,17.0,Water Industry,Water Industry,,51.51523004416228,0.09507429939023963,London
BR6996IC,REFINING MINERAL OILS,Esso Petroleum Company Ltd,Fawley Refinery Esso Refinery Southampton Hampshire,SO45 1TX,445500,104300,Solent and South Downs,Controlled Waters,Fluoranthene,0.1,20.21,Refineries & Fuel,Refineries & Fuel,,50.836448656650745,-1.3552246018400003,South East
CSSA.0360,,THAMES WATER UTILITIES LTD,BECKTON STW,IG11 0AD,545470,181670,Hertfordshire and North London,Controlled Waters,"Indeno(1,2,3-cd)pyrene",1.0,22.0,Water Industry,Water Industry,,51.51523004416228,0.09507429939023963,London
255/1144,,NORTHUMBRIAN WATER LTD,HENDON STW,SR1 2ES,441049,555891,North East,Controlled Waters,Benzo(a)pyrene,1.0,0.0,Water Industry,Water Industry,,54.89607337586726,-1.361489978558213,North East
A.787/S/CH/97,,Southern Water,Ford (Bognor/Littlehampton) STW,BN18 0HY,499490,103030,Solent and South Downs,Controlled Waters,"Indeno(1,2,3-cd)pyrene",1.0,0.0,Water Industry,Water Industry,,50.81827977333457,-0.5890396595351772,South East
A.787/S/CH/97,,Southern Water,Ford (Bognor/Littlehampton) STW,BN18 0HY,499490,103030,Solent and South Downs,Controlled Waters,Benzo(a)pyrene,1.0,0.0,Water Industry,Water Industry,,50.81827977333457,-0.5890396595351772,South East
A1106/S/P/99,,Southern Water,Langley Point STW - Eastbourne,BN21 1SA,564120,100950,Solent and South Downs,Controlled Waters,"Indeno(1,2,3-cd)pyrene",1.0,0.0,Water Industry,Water Industry,,50.78489824292885,0.3268494282698041,South East
A1106/S/P/99,,Southern Water,Langley Point STW - Eastbourne,BN21 1SA,564120,100950,Solent and South Downs,Controlled Waters,Benzo(a)pyrene,1.0,0.0,Water Industry,Water Industry,,50.78489824292885,0.3268494282698041,South East
CTCR.2079,,THAMES WATER UTILITIES LTD,WARGRAVE STW,RG10 8DJ,477900,177600,Thames,Controlled Waters,Fluoranthene,0.1,0.0,Water Industry,Water Industry,,51.49198901553675,-0.8793330420546939,South East
CTCR.2079,,THAMES WATER UTILITIES LTD,WARGRAVE STW,RG10 8DJ,477900,177600,Thames,Controlled Waters,"Indeno(1,2,3-cd)pyrene",1.0,0.0,Water Industry,Water Industry,,51.49198901553675,-0.8793330420546939,South East
CTCR.2079,,THAMES WATER UTILITIES LTD,WARGRAVE STW,RG10 8DJ,477900,177600,Thames,Controlled Waters,Benzo(a)pyrene,1.0,0.0,Water Industry,Water Industry,,51.49198901553675,-0.8793330420546939,South East
DP3439AZ,"WASTE LANDFILLING; >10 T/D WITH CAPACITY >25,000T EXCLUDING INERT WASTE",Norfolk County Council,Edgefield Landfill Site Holt Road Off B1149 Holt Norfolk,NR24 2RS,608380,335550,East Anglia,Wastewater,Fluoranthene,0.1,0.0,Landfill,Non Hazardous Landfill,,52.8770377438021,1.0951172465336512,East of England
MP3734SC,OTHER WASTE DISPOSAL; WASTE OILS >10 T/D,Oil Salvage Limited,Bootle Oil Recovery Lyster Road Bootle Merseyside,L20 1AS,333440,395410,Greater Manchester Merseyside and Cheshire,Wastewater,Benzo(a)pyrene,1.0,0.0,Waste treatment,Hazardous,,53.45122637911301,-3.003731770828029,North West
CP3731LZ,DISPOSAL OF > 50 T/D NON-HAZARDOUS WASTE (> 100 T/D IF ONLY AD) INVOLVING BIOLOGICAL TREATMENT,Plymouth City Council,Chelson Meadow Leachate Treatment Plant The Ride Plymouth Devon,PL9 7JA,250580,54460,"Devon, Cornwall and the Isles of Scilly",Controlled Waters,"Indeno(1,2,3-cd)pyrene",1.0,0.0,Landfill,other,,50.37101556268109,-4.102511063581194,South West
CP3731LZ,DISPOSAL OF > 50 T/D NON-HAZARDOUS WASTE (> 100 T/D IF ONLY AD) INVOLVING BIOLOGICAL TREATMENT,Plymouth City Council,Chelson Meadow Leachate Treatment Plant The Ride Plymouth Devon,PL9 7JA,250580,54460,"Devon, Cornwall and the Isles of Scilly",Controlled Waters,Fluoranthene,0.1,0.0,Landfill,other,,50.37101556268109,-4.102511063581194,South West
CP3731LZ,DISPOSAL OF > 50 T/D NON-HAZARDOUS WASTE (> 100 T/D IF ONLY AD) INVOLVING BIOLOGICAL TREATMENT,Plymouth City Council,Chelson Meadow Leachate Treatment Plant The Ride Plymouth Devon,PL9 7JA,250580,54460,"Devon, Cornwall and the Isles of Scilly",Controlled Waters,Benzo(a)pyrene,1.0,0.0,Landfill,other,,50.37101556268109,-4.102511063581194,South West
YP3834HE,"PAPER, PULP AND BOARD; PRODUCING PAPER/BOARD >20T/D",Arjowiggins Chartham Ltd,Chartham Paper Mill Station Road Chartham Kent,CT4 7JA,610770,155020,"Kent, South London and East Sussex",Controlled Waters,Cypermethrin,0.005,0.0,Paper and textiles,Paper & Pulp,1.3e-05,51.25537326867359,1.0191624620979873,South East
GP3134HG,"COATING, PRINTING AND TEXTILES; PRE-TREATING BY WASHING ETC >10T/DAY",Westex (Carpets) Limited,Calder Bank Mills Calder Bank Road Dewsbury West Yorkshire,WF12 9QW,423910,421140,Yorkshire,Wastewater,Cypermethrin,0.005,0.0,Paper and textiles,Textiles,1.3e-05,53.68617184295809,-1.6394418783748281,Yorkshire and The Humber
EP3936GP,"WASTE LANDFILLING; >10 T/D WITH CAPACITY >25,000T EXCLUDING INERT WASTE",Veolia ES Landfill Limited,Pitsea Landfill Pitsea Hall Lane Pitsea Essex,SS16 4UH,573800,187100,East Anglia,Controlled Waters,Benzo(a)pyrene,1.0,0.0,Landfill,Non Hazardous Landfill,,51.55600949413918,0.5056500221029354,East of England
NP3736GU,"WASTE LANDFILLING; >10 T/D WITH CAPACITY >25,000T EXCLUDING INERT WASTE",Veolia ES Landfill Limited,Ockendon Landfill Medebridge Road Grays Essex,RM16 5TZ,561510,182470,East Anglia,Wastewater,Fluoranthene,0.1,0.0,Landfill,Non Hazardous Landfill,,51.518063408265675,0.32640916895275546,East of England
NP3736GU,"WASTE LANDFILLING; >10 T/D WITH CAPACITY >25,000T EXCLUDING INERT WASTE",Veolia ES Landfill Limited,Ockendon Landfill Medebridge Road Grays Essex,RM16 5TZ,561510,182470,East Anglia,Wastewater,Benzo(a)pyrene,1.0,0.0,Landfill,Non Hazardous Landfill,,51.518063408265675,0.32640916895275546,East of England
FP3132UE,"PAPER, PULP AND BOARD; PRODUCING PULP FROM TIMBER ETC",Palm Paper Limited,Saddlebow Paper Mill Poplar Avenue Kings Lynn Norfolk,PE34 3AL,561200,317800,East Anglia,Controlled Waters,Cypermethrin,0.005,0.0,Paper and textiles,Paper & Pulp,1.3e-05,52.73380913432685,0.38603079225081394,East of England
PP3532MB,OTHER WASTE DISPOSAL; NON-HAZARDOUS WASTE >50T/D BY PHYSICO-CHEMICAL TREATMENT,Landfill Management Limited,Amberswood Leachate Treatment Plant Amberswood Common Hindley Lancashire,WN2 3DA,361300,404870,Greater Manchester Merseyside and Cheshire,Wastewater,Heptachlor,0.1,0.0,Landfill,other,,53.53904101014807,-2.5854171287157035,North West
UP3639LY,"WASTE LANDFILLING; >10 T/D WITH CAPACITY >25,000T EXCLUDING INERT WASTE",3C Waste Limited,Danes Moss Landfill Site Gawsworth Macclesfield Cheshire,SK11 9QP,390500,371500,Greater Manchester Merseyside and Cheshire,Wastewater,Fluoranthene,0.1,0.0,Landfill,Non Hazardous Landfill,,53.240439462521046,-2.1438041690584186,North West
UP3639LY,"WASTE LANDFILLING; >10 T/D WITH CAPACITY >25,000T EXCLUDING INERT WASTE",3C Waste Limited,Danes Moss Landfill Site Gawsworth Macclesfield Cheshire,SK11 9QP,390500,371500,Greater Manchester Merseyside and Cheshire,Wastewater,Heptachlor,0.1,0.0,Landfill,Non Hazardous Landfill,,53.240439462521046,-2.1438041690584186,North West
UP3639LY,"WASTE LANDFILLING; >10 T/D WITH CAPACITY >25,000T EXCLUDING INERT WASTE",3C Waste Limited,Danes Moss Landfill Site Gawsworth Macclesfield Cheshire,SK11 9QP,390500,371500,Greater Manchester Merseyside and Cheshire,Wastewater,"Indeno(1,2,3-cd)pyrene",1.0,0.0,Landfill,Non Hazardous Landfill,,53.240439462521046,-2.1438041690584186,North West
UP3639LY,"WASTE LANDFILLING; >10 T/D WITH CAPACITY >25,000T EXCLUDING INERT WASTE",3C Waste Limited,Danes Moss Landfill Site Gawsworth Macclesfield Cheshire,SK11 9QP,390500,371500,Greater Manchester Merseyside and Cheshire,Wastewater,Benzo(a)pyrene,1.0,0.0,Landfill,Non Hazardous Landfill,,53.240439462521046,-2.1438041690584186,North West
UP3639LY,"WASTE LANDFILLING; >10 T/D WITH CAPACITY >25,000T EXCLUDING INERT WASTE",3C Waste Limited,Danes Moss Landfill Site Gawsworth Macclesfield Cheshire,SK11 9QP,390500,371500,Greater Manchester Merseyside and Cheshire,Wastewater,Cypermethrin,0.005,0.0,Landfill,Non Hazardous Landfill,1.3e-05,53.240439462521046,-2.1438041690584186,North West
DP3333KT,"WASTE LANDFILLING; >10 T/D WITH CAPACITY >25,000T EXCLUDING INERT WASTE",Saint Gobain Construction Products UK Limited,Kirkby Thore Works Kirkby Thore Penrith,CA10 1XU,336450,552670,Cumbria and Lancashire,Controlled Waters,Fluoranthene,0.1,0.0,Landfill,Non Hazardous Landfill,,54.86475453515094,-2.9916437196391943,North West
XP3036NK,"PAPER, PULP AND BOARD; PRODUCING PAPER/BOARD >20T/D",SCA Hygiene Products UK Limited,"SCA,Chesterfield Paper Mill Goyt Side Road Derbyshire",S40 2PH,436850,370600,Yorkshire,Wastewater,Cypermethrin,0.005,0.0,Paper and textiles,Paper & Pulp,1.3e-05,53.23116628377147,-1.4494234747766208,East Midlands
SP3538LE,DISPOSAL OF > 50 T/D NON-HAZARDOUS WASTE (> 100 T/D IF ONLY AD) INVOLVING BIOLOGICAL TREATMENT,Veolia ES Hampshire Limited,Efford Landfill Leachate Treatment Plant Milford Road Lower Pennington Hampshire,SO41 8DF,431230,93150,Solent and South Downs,Wastewater,"Indeno(1,2,3-cd)pyrene",1.0,0.0,Landfill,other,,50.737127753794155,-1.558808544525984,South East
SP3538LE,DISPOSAL OF > 50 T/D NON-HAZARDOUS WASTE (> 100 T/D IF ONLY AD) INVOLVING BIOLOGICAL TREATMENT,Veolia ES Hampshire Limited,Efford Landfill Leachate Treatment Plant Milford Road Lower Pennington Hampshire,SO41 8DF,431230,93150,Solent and South Downs,Wastewater,Benzo(a)pyrene,1.0,0.0,Landfill,other,,50.737127753794155,-1.558808544525984,South East
SP3538LE,DISPOSAL OF > 50 T/D NON-HAZARDOUS WASTE (> 100 T/D IF ONLY AD) INVOLVING BIOLOGICAL TREATMENT,Veolia ES Hampshire Limited,Efford Landfill Leachate Treatment Plant Milford Road Lower Pennington Hampshire,SO41 8DF,431230,93150,Solent and South Downs,Wastewater,Fluoranthene,0.1,0.0,Landfill,other,,50.737127753794155,-1.558808544525984,South East
SP3538LE,DISPOSAL OF > 50 T/D NON-HAZARDOUS WASTE (> 100 T/D IF ONLY AD) INVOLVING BIOLOGICAL TREATMENT,Veolia ES Hampshire Limited,Efford Landfill Leachate Treatment Plant Milford Road Lower Pennington Hampshire,SO41 8DF,431230,93150,Solent and South Downs,Wastewater,Heptachlor,0.1,0.0,Landfill,other,,50.737127753794155,-1.558808544525984,South East
016950038,,UNITED UTILITIES WATER PLC,OLDHAM,,389260,404300,Greater Manchester Merseyside and Cheshire,Controlled Waters,Benzo(a)pyrene,1.0,0.0,Water Industry,Water Industry,,53.53523963672918,-2.163511580117871,North West
016940151,,UNITED UTILITIES WATER PLC,STOCKPORT,,386520,389820,Greater Manchester Merseyside and Cheshire,Controlled Waters,Benzo(a)pyrene,1.0,0.0,Water Industry,Water Industry,,53.40502394305661,-2.2042249143718937,North West
COPA/5571,,Southern Water,"Eastleigh STW, Chickenhall Lane, Eastleigh",SO50 6RQ,446530,118170,Solent and South Downs,Controlled Waters,"Indeno(1,2,3-cd)pyrene",1.0,0.0,Water Industry,Water Industry,,50.961083178576914,-1.338835559952014,South East
COPA/5571,,Southern Water,"Eastleigh STW, Chickenhall Lane, Eastleigh",SO50 6RQ,446530,118170,Solent and South Downs,Controlled Waters,Benzo(a)pyrene,1.0,0.0,Water Industry,Water Industry,,50.961083178576914,-1.338835559952014,South East
COPA/5571,,Southern Water,"Eastleigh STW, Chickenhall Lane, Eastleigh",SO50 6RQ,446530,118170,Solent and South Downs,Controlled Waters,Fluoranthene,0.1,0.0,Water Industry,Water Industry,,50.961083178576914,-1.338835559952014,South East
BS3590IE,ORGANIC CHEMICALS; HYDROCARBONS EG AROMATICS,Sabic UK Petrochemicals Limited,Wilton Olefins Installation Olefins Offices,TS10 4RF,458200,521200,North East,Controlled Waters,Fluoranthene,0.1,0.0,Chemicals,Chemicals,,54.582661121205405,-1.101029346484906,North East
UP3330ZF,REFINING MINERAL OILS,Morzine Limited,Thames Oilport The Manorway Thurrock,SS17 9LL,575260,182580,East Anglia,Controlled Waters,Fluoranthene,0.1,0.0,Refineries & Fuel,Refineries & Fuel,,51.51495651020539,0.5244402548437682,East of England
UP3330ZF,REFINING MINERAL OILS,Morzine Limited,Thames Oilport The Manorway Thurrock,SS17 9LL,575260,182580,East Anglia,Controlled Waters,Benzo(a)pyrene,1.0,0.0,Refineries & Fuel,Refineries & Fuel,,51.51495651020539,0.5244402548437682,East of England
CNTD.0058,,THAMES WATER UTILITIES LTD,LITTLE MARLOW STW,SL7 3RT,487800,187000,Thames,Controlled Waters,Benzo(a)pyrene,1.0,0.0,Water Industry,Water Industry,,51.57503906157903,-0.7344294503116684,South East
017160008,,UNITED UTILITIES WATER PLC,HYNDBURN,,375750,433550,Cumbria and Lancashire,Controlled Waters,Benzo(a)pyrene,1.0,0.0,Water Industry,Water Industry,,53.79768483713117,-2.3696373594073914,North West
CTCR.0709,,THAMES WATER UTILITIES LTD,OXFORD STW,OX4 4YU,454200,202200,Thames,Controlled Waters,Benzo(a)pyrene,1.0,0.0,Water Industry,Water Industry,,51.71591848737045,-1.2168679929874056,South East
016983122,,UNITED UTILITIES WATER PLC,WARRINGTON NORTH,,358110,386960,Greater Manchester Merseyside and Cheshire,Controlled Waters,"Indeno(1,2,3-cd)pyrene",1.0,0.0,Water Industry,Water Industry,,53.37782195383272,-2.6311554534335007,North West
016983122,,UNITED UTILITIES WATER PLC,WARRINGTON NORTH,,358110,386960,Greater Manchester Merseyside and Cheshire,Controlled Waters,Benzo(a)pyrene,1.0,0.0,Water Industry,Water Industry,,53.37782195383272,-2.6311554534335007,North West
S/04/55141/R,,SEVERN TRENT WATER LTD,Rushmoor (Telford) STW,TF6 5EX,361300,313700,West Midlands,Controlled Waters,Fluoranthene,0.1,0.0,Water Industry,Water Industry,,52.719558826707015,-2.5743799002968255,West Midlands
S/04/55141/R,,SEVERN TRENT WATER LTD,Rushmoor (Telford) STW,TF6 5EX,361300,313700,West Midlands,Controlled Waters,"Indeno(1,2,3-cd)pyrene",1.0,0.0,Water Industry,Water Industry,,52.719558826707015,-2.5743799002968255,West Midlands
S/04/55141/R,,SEVERN TRENT WATER LTD,Rushmoor (Telford) STW,TF6 5EX,361300,313700,West Midlands,Controlled Waters,Benzo(a)pyrene,1.0,0.0,Water Industry,Water Industry,,52.719558826707015,-2.5743799002968255,West Midlands
CSSC.0315,,THAMES WATER UTILITIES LTD,AYLESBURY STW,HP19 3RT,478900,214800,Thames,Controlled Waters,Fluoranthene,0.1,0.0,Water Industry,Water Industry,,51.826257725543016,-0.856547741555394,South East
CSSC.0315,,THAMES WATER UTILITIES LTD,AYLESBURY STW,HP19 3RT,478900,214800,Thames,Controlled Waters,"Indeno(1,2,3-cd)pyrene",1.0,0.0,Water Industry,Water Industry,,51.826257725543016,-0.856547741555394,South East
CSSC.0315,,THAMES WATER UTILITIES LTD,AYLESBURY STW,HP19 3RT,478900,214800,Thames,Controlled Waters,Benzo(a)pyrene,1.0,0.0,Water Industry,Water Industry,,51.826257725543016,-0.856547741555394,South East
CNTM.2237,,THAMES WATER UTILITIES LTD,SLOUGH STW,SL1 9EB,494100,179200,Thames,Controlled Waters,Benzo(a)pyrene,1.0,0.0,Water Industry,Water Industry,,51.503910638290265,-0.6456287673436109,South East
BJ7310IZ,"PAPER, PULP AND BOARD; PRODUCING PULP FROM TIMBER ETC",De La Rue plc,Overton Mill Overton,RG25 3JG,451900,151000,"Kent, South London and East Sussex",Controlled Waters,Cypermethrin,0.005,0.0,Paper and textiles,Paper & Pulp,1.3e-05,51.25581054405935,-1.2576668767203043,South East
BW1785IH,"WASTE LANDFILLING; >10 T/D WITH CAPACITY >25,000T EXCLUDING INERT WASTE",Integrated Waste Management Ltd,Winterton Landfill Site Coleby Street West Halton North Lincolnshire,DN15 9AP,491300,420300,Lincolnshire and Northamptonshire,Wastewater,Heptachlor,0.1,0.0,Landfill,Hazardous Landfill,,53.671210069115666,-0.6195044459010624,Yorkshire and The Humber
DP3834GW,"WASTE LANDFILLING; >10 T/D WITH CAPACITY >25,000T EXCLUDING INERT WASTE",Commercial Recycling Limited,Southwood Landfill Site Evercreech Somerset,BA4 6LX,363920,137020,Wessex,Controlled Waters,Benzo(a)pyrene,1.0,0.0,Landfill,Hazardous Landfill,,51.13131130304021,-2.517004785220547,South West
BJ7620ID,"PAPER, PULP AND BOARD; PRODUCING PULP FROM TIMBER ETC",JAMES CROPPER PLC,Burneside Paper Mill Burneside Cumbria,LA9 6PZ,350600,495880,Cumbria and Lancashire,Wastewater,Cypermethrin,0.005,0.0,Paper and textiles,Paper & Pulp,1.3e-05,54.356043793927604,-2.7616188737668255,North West
BS7722ID,"WASTE LANDFILLING; >10 T/D WITH CAPACITY >25,000T EXCLUDING INERT WASTE",3C Waste Limited,Maw Green Landfill Maw Green Lane Crewe Cheshire,CW1 5NG,371700,357500,Greater Manchester Merseyside and Cheshire,Wastewater,"Indeno(1,2,3-cd)pyrene",1.0,0.0,Landfill,Non Hazardous Landfill,,53.11392517003427,-2.424249100452073,North West
BS7722ID,"WASTE LANDFILLING; >10 T/D WITH CAPACITY >25,000T EXCLUDING INERT WASTE",3C Waste Limited,Maw Green Landfill Maw Green Lane Crewe Cheshire,CW1 5NG,371700,357500,Greater Manchester Merseyside and Cheshire,Wastewater,Benzo(a)pyrene,1.0,0.0,Landfill,Non Hazardous Landfill,,53.11392517003427,-2.424249100452073,North West
BS7722ID,"WASTE LANDFILLING; >10 T/D WITH CAPACITY >25,000T EXCLUDING INERT WASTE",3C Waste Limited,Maw Green Landfill Maw Green Lane Crewe Cheshire,CW1 5NG,371700,357500,Greater Manchester Merseyside and Cheshire,Wastewater,Cypermethrin,0.005,0.0,Landfill,Non Hazardous Landfill,1.3e-05,53.11392517003427,-2.424249100452073,North West
BS7722ID,"WASTE LANDFILLING; >10 T/D WITH CAPACITY >25,000T EXCLUDING INERT WASTE",3C Waste Limited,Maw Green Landfill Maw Green Lane Crewe Cheshire,CW1 5NG,371700,357500,Greater Manchester Merseyside and Cheshire,Wastewater,Fluoranthene,0.1,0.0,Landfill,Non Hazardous Landfill,,53.11392517003427,-2.424249100452073,North West
BS7722ID,"WASTE LANDFILLING; >10 T/D WITH CAPACITY >25,000T EXCLUDING INERT WASTE",3C Waste Limited,Maw Green Landfill Maw Green Lane Crewe Cheshire,CW1 5NG,371700,357500,Greater Manchester Merseyside and Cheshire,Wastewater,Heptachlor,0.1,0.0,Landfill,Non Hazardous Landfill,,53.11392517003427,-2.424249100452073,North West
A1112/K/00,,Southern Water,"Broomfield Bank WTW, Folkestone Road, Church Hougham, Dover, Kent",CT15 7AB,628500,140100,"Kent, South London and East Sussex",Controlled Waters,"Indeno(1,2,3-cd)pyrene",1.0,0.0,Water Industry,Water Industry,,51.114608629871924,1.2633435941591,South East
A1112/K/00,,Southern Water,"Broomfield Bank WTW, Folkestone Road, Church Hougham, Dover, Kent",CT15 7AB,628500,140100,"Kent, South London and East Sussex",Controlled Waters,Benzo(a)pyrene,1.0,0.0,Water Industry,Water Industry,,51.114608629871924,1.2633435941591,South East
XP3636KW,"WASTE LANDFILLING; >10 T/D WITH CAPACITY >25,000T EXCLUDING INERT WASTE",Veolia ES Landfill Limited,Gerrards Cross Landfill Site Oxford Road Gerrards Cross Buckinghamshire,SL9 8TE,497620,189190,Hertfordshire and North London,Wastewater,Fluoranthene,0.1,0.0,Landfill,Non Hazardous Landfill,,51.593111218390085,-0.5921610721206715,South East
XP3636KW,"WASTE LANDFILLING; >10 T/D WITH CAPACITY >25,000T EXCLUDING INERT WASTE",Veolia ES Landfill Limited,Gerrards Cross Landfill Site Oxford Road Gerrards Cross Buckinghamshire,SL9 8TE,497620,189190,Hertfordshire and North London,Wastewater,Benzo(a)pyrene,1.0,0.0,Landfill,Non Hazardous Landfill,,51.593111218390085,-0.5921610721206715,South East
AEECS12290,,Anglian Water,Caister (Great Yarmouth) STW,,654620,309850,East Anglia,Controlled Waters,Fluoranthene,0.1,0.0,Water Industry,Water Industry,,52.62663561476223,1.7608432729944696,
AEECS12290,,Anglian Water,Caister (Great Yarmouth) STW,,654620,309850,East Anglia,Controlled Waters,"Indeno(1,2,3-cd)pyrene",1.0,0.0,Water Industry,Water Industry,,52.62663561476223,1.7608432729944696,
AEECS12290,,Anglian Water,Caister (Great Yarmouth) STW,,654620,309850,East Anglia,Controlled Waters,Benzo(a)pyrene,1.0,0.0,Water Industry,Water Industry,,52.62663561476223,1.7608432729944696,
AWCNF10296,,Anglian Water,Cotton Valley STW,,488630,241460,East Anglia,Controlled Waters,Benzo(a)pyrene,1.0,0.0,Water Industry,Water Industry,,52.06443452129644,-0.7085359599756176,South East
AWNNF13399,,Anglian Water,Broadholme STW,,494150,268750,Lincolnshire and Northamptonshire,Controlled Waters,"Indeno(1,2,3-cd)pyrene",1.0,0.0,Water Industry,Water Industry,,52.30880249617189,-0.6204684010696924,East Midlands
AWNNF13399,,Anglian Water,Broadholme STW,,494150,268750,Lincolnshire and Northamptonshire,Controlled Waters,Benzo(a)pyrene,1.0,0.0,Water Industry,Water Industry,,52.30880249617189,-0.6204684010696924,East Midlands
AW5NF5178,,Anglian Water,Flag Fen STW,,522140,298140,Lincolnshire and Northamptonshire,Controlled Waters,Benzo(a)pyrene,1.0,0.0,Water Industry,Water Industry,,52.56738396341251,-0.19938126113462898,East of England
ASCNF1033,,Anglian Water,Cambridge STW,,548350,261540,East Anglia,Controlled Waters,"Indeno(1,2,3-cd)pyrene",1.0,0.0,Water Industry,Water Industry,,52.23207645870105,0.1708411736842626,East of England
ASCNF1033,,Anglian Water,Cambridge STW,,548350,261540,East Anglia,Controlled Waters,Benzo(a)pyrene,1.0,0.0,Water Industry,Water Industry,,52.23207645870105,0.1708411736842626,East of England
CNTD.0017,,THAMES WATER UTILITIES LTD,SWINDON STW,SN2 2DP,412700,185800,Thames,Controlled Waters,"Indeno(1,2,3-cd)pyrene",1.0,0.0,Water Industry,Water Industry,,51.57092949123404,-1.8181517865047485,South West
CNTD.0017,,THAMES WATER UTILITIES LTD,SWINDON STW,SN2 2DP,412700,185800,Thames,Controlled Waters,Benzo(a)pyrene,1.0,0.0,Water Industry,Water Industry,,51.57092949123404,-1.8181517865047485,South West
AW1NF2460,,Anglian Water,Bedford STW,,508500,249600,East Anglia,Controlled Waters,"Indeno(1,2,3-cd)pyrene",1.0,0.0,Water Industry,Water Industry,,52.134058637941244,-0.41620486681391833,East of England
AW1NF2460,,Anglian Water,Bedford STW,,508500,249600,East Anglia,Controlled Waters,Benzo(a)pyrene,1.0,0.0,Water Industry,Water Industry,,52.134058637941244,-0.41620486681391833,East of England
BW9549IA,"WASTE LANDFILLING; >10 T/D WITH CAPACITY >25,000T EXCLUDING INERT WASTE",OUTOKUMPU STAINLESS LTD,Tinsley Park Works Landfill Site Shepcote Lane Sheffield South Yorkshire,S9 1TR,441000,389100,Yorkshire,Wastewater,Fluoranthene,0.1,0.0,Landfill,Non Hazardous Landfill,,53.397144234002276,-1.3848728178773682,Yorkshire and The Humber
AENTS13068,,Anglian Water,Wisbech W.Walton STW,,545800,314100,Lincolnshire and Northamptonshire,Controlled Waters,Fluoranthene,0.1,0.0,Water Industry,Water Industry,,52.704938704382336,0.1564924306730247,
AENTS13068,,Anglian Water,Wisbech W.Walton STW,,545800,314100,Lincolnshire and Northamptonshire,Controlled Waters,"Indeno(1,2,3-cd)pyrene",1.0,0.0,Water Industry,Water Industry,,52.704938704382336,0.1564924306730247,
AENTS13068,,Anglian Water,Wisbech W.Walton STW,,545800,314100,Lincolnshire and Northamptonshire,Controlled Waters,Benzo(a)pyrene,1.0,0.0,Water Industry,Water Industry,,52.704938704382336,0.1564924306730247,
BK1449IK,"WASTE LANDFILLING; >10 T/D WITH CAPACITY >25,000T EXCLUDING INERT WASTE",Tarmac Aggregates Limited,Cotesbach Landfill Gibbet Lane Shawell Lutterworth Leicestershire,LE17 6AA,454000,280600,West Midlands,Wastewater,Fluoranthene,0.1,0.0,Landfill,Non Hazardous Landfill,,52.420733504827595,-1.2073850649724642,East Midlands
BK1449IK,"WASTE LANDFILLING; >10 T/D WITH CAPACITY >25,000T EXCLUDING INERT WASTE",Tarmac Aggregates Limited,Cotesbach Landfill Gibbet Lane Shawell Lutterworth Leicestershire,LE17 6AA,454000,280600,West Midlands,Wastewater,Heptachlor,0.1,0.0,Landfill,Non Hazardous Landfill,,52.420733504827595,-1.2073850649724642,East Midlands
CNTD.0044,,THAMES WATER UTILITIES LTD,ESHER STW,KT10 8AU,513500,166000,"Kent, South London and East Sussex",Controlled Waters,"Indeno(1,2,3-cd)pyrene",1.0,0.0,Water Industry,Water Industry,,51.38171143148741,-0.37045925744865815,South East
CNTD.0044,,THAMES WATER UTILITIES LTD,ESHER STW,KT10 8AU,513500,166000,"Kent, South London and East Sussex",Controlled Waters,Benzo(a)pyrene,1.0,0.0,Water Industry,Water Industry,,51.38171143148741,-0.37045925744865815,South East
LP3439LK,DISPOSAL OR RECOVERY OF HAZARDOUS WASTE WITH A CAPACITY EXCEEDING 10 TONNES PER DAY INVOLVING BIOLOGICAL TREATMENT,NORTHUMBRIAN WATER LTD,Bran Sands Effluent Treatment Works Tees Dock Road Middlesbrough Cleveland,TS6 6UE,456210,524290,North East,Controlled Waters,"Indeno(1,2,3-cd)pyrene",1.0,0.0,Waste treatment,Hazardous,,54.61065168486329,-1.1312244597131602,North East
GP3037SJ,"WASTE LANDFILLING; >10 T/D WITH CAPACITY >25,000T EXCLUDING INERT WASTE",Fcc Recycling (Uk) Limited,"Lillyhall Waste Management Centre Joseph Noble Road Lillyhall Industrial Estate,Lillyhall Workington Cumbria",CA14 4JH,302260,524860,Cumbria and Lancashire,Wastewater,Heptachlor,0.1,0.0,Landfill,Non Hazardous Landfill,,54.60940965905124,-3.514802828322463,North West
T/81/45102/R,,SEVERN TRENT WATER LTD,Scunthorpe STW Yaddlethorpe,DN17 3PS,487292,405965,East Midlands,Controlled Waters,Fluoranthene,0.1,0.0,Water Industry,Water Industry,,53.54308142261132,-0.6841639168426618,Yorkshire and The Humber
T/81/45102/R,,SEVERN TRENT WATER LTD,Scunthorpe STW Yaddlethorpe,DN17 3PS,487292,405965,East Midlands,Controlled Waters,"Indeno(1,2,3-cd)pyrene",1.0,0.0,Water Industry,Water Industry,,53.54308142261132,-0.6841639168426618,Yorkshire and The Humber
T/81/45102/R,,SEVERN TRENT WATER LTD,Scunthorpe STW Yaddlethorpe,DN17 3PS,487292,405965,East Midlands,Controlled Waters,Benzo(a)pyrene,1.0,0.0,Water Industry,Water Industry,,53.54308142261132,-0.6841639168426618,Yorkshire and The Humber
S/20/25430/R,,SEVERN TRENT WATER LTD,Cheltenham STW,GL51 0TH,389930,224860,West Midlands,Controlled Waters,"Indeno(1,2,3-cd)pyrene",1.0,0.0,Water Industry,Water Industry,,51.92216852088476,-2.147834358765615,South West
S/20/25430/R,,SEVERN TRENT WATER LTD,Cheltenham STW,GL51 0TH,389930,224860,West Midlands,Controlled Waters,Benzo(a)pyrene,1.0,0.0,Water Industry,Water Industry,,51.92216852088476,-2.147834358765615,South West
S/13/25443/R,,SEVERN TRENT WATER LTD,Warwick STW,CV34 6QW,427770,262900,West Midlands,Controlled Waters,"Indeno(1,2,3-cd)pyrene",1.0,0.0,Water Industry,Water Industry,,52.263566941302074,-1.594524975099739,West Midlands
S/13/25443/R,,SEVERN TRENT WATER LTD,Warwick STW,CV34 6QW,427770,262900,West Midlands,Controlled Waters,Benzo(a)pyrene,1.0,0.0,Water Industry,Water Industry,,52.263566941302074,-1.594524975099739,West Midlands
LP3533LJ,LOADING/STORAGE/TREATMENT ETC OF CRUDE OIL,Crude Oil Terminals (Humber) Limited,Tetney Oil Terminal Tetney Lock Road Grimsby Lincolnshire,DN36 5NX,532830,402210,Lincolnshire and Northamptonshire,Controlled Waters,"Indeno(1,2,3-cd)pyrene",1.0,0.0,Refineries & Fuel,Refineries & Fuel,,53.49982027580484,0.0010690700525111871,East Midlands
LP3533LJ,LOADING/STORAGE/TREATMENT ETC OF CRUDE OIL,Crude Oil Terminals (Humber) Limited,Tetney Oil Terminal Tetney Lock Road Grimsby Lincolnshire,DN36 5NX,532830,402210,Lincolnshire and Northamptonshire,Controlled Waters,Fluoranthene,0.1,0.0,Refineries & Fuel,Refineries & Fuel,,53.49982027580484,0.0010690700525111871,East Midlands
LP3533LJ,LOADING/STORAGE/TREATMENT ETC OF CRUDE OIL,Crude Oil Terminals (Humber) Limited,Tetney Oil Terminal Tetney Lock Road Grimsby Lincolnshire,DN36 5NX,532830,402210,Lincolnshire and Northamptonshire,Controlled Waters,Benzo(a)pyrene,1.0,0.0,Refineries & Fuel,Refineries & Fuel,,53.49982027580484,0.0010690700525111871,East Midlands
CTCR.1340,,THAMES WATER UTILITIES LTD,CRAWLEY STW,RH10 3NW,528800,140200,"Kent, South London and East Sussex",Controlled Waters,Benzo(a)pyrene,1.0,0.0,Water Industry,Water Industry,,51.14658044206405,-0.16000559745613768,South East
CTCR.1340,,THAMES WATER UTILITIES LTD,CRAWLEY STW,RH10 3NW,528800,140200,"Kent, South London and East Sussex",Controlled Waters,Fluoranthene,0.1,0.0,Water Industry,Water Industry,,51.14658044206405,-0.16000559745613768,South East
CTCR.1340,,THAMES WATER UTILITIES LTD,CRAWLEY STW,RH10 3NW,528800,140200,"Kent, South London and East Sussex",Controlled Waters,"Indeno(1,2,3-cd)pyrene",1.0,0.0,Water Industry,Water Industry,,51.14658044206405,-0.16000559745613768,South East
BJ7590IB,"PAPER, PULP AND BOARD; PRODUCING PAPER/BOARD >20T/D",Iggesund Paperboard (Workington) Limited,Workington Board Mill SIDDICK CUMBRIA,CA14 1JX,300400,531300,Cumbria and Lancashire,Controlled Waters,Cypermethrin,0.005,0.0,Paper and textiles,Paper & Pulp,1.3e-05,54.66689920505424,-3.545783070632465,North West
BL4940IU,"WASTE LANDFILLING; >10 T/D WITH CAPACITY >25,000T EXCLUDING INERT WASTE",Catplant Quarry Ltd,Hazel Lna Elandfill Hazel Lane Doncaster South Yorkshire,DN6 7EX,450100,410800,Yorkshire,Wastewater,Benzo(a)pyrene,1.0,0.0,Landfill,Non Hazardous Landfill,,53.59139288866498,-1.2445741366386425,Yorkshire and The Humber
BL4940IU,"WASTE LANDFILLING; >10 T/D WITH CAPACITY >25,000T EXCLUDING INERT WASTE",Catplant Quarry Ltd,Hazel Lna Elandfill Hazel Lane Doncaster South Yorkshire,DN6 7EX,450100,410800,Yorkshire,Wastewater,Cypermethrin,0.005,0.0,Landfill,Non Hazardous Landfill,1.3e-05,53.59139288866498,-1.2445741366386425,Yorkshire and The Humber
BL4940IU,"WASTE LANDFILLING; >10 T/D WITH CAPACITY >25,000T EXCLUDING INERT WASTE",Catplant Quarry Ltd,Hazel Lna Elandfill Hazel Lane Doncaster South Yorkshire,DN6 7EX,450100,410800,Yorkshire,Wastewater,Fluoranthene,0.1,0.0,Landfill,Non Hazardous Landfill,,53.59139288866498,-1.2445741366386425,Yorkshire and The Humber
BL4940IU,"WASTE LANDFILLING; >10 T/D WITH CAPACITY >25,000T EXCLUDING INERT WASTE",Catplant Quarry Ltd,Hazel Lna Elandfill Hazel Lane Doncaster South Yorkshire,DN6 7EX,450100,410800,Yorkshire,Wastewater,Heptachlor,0.1,0.0,Landfill,Non Hazardous Landfill,,53.59139288866498,-1.2445741366386425,Yorkshire and The Humber
A569/H/90,,Southern Water,Peel Common STW,PO14 2LJ,456500,103300,Solent and South Downs,Controlled Waters,Benzo(a)pyrene,1.0,0.0,Water Industry,Water Industry,,50.82648980553852,-1.1991825375250997,South East
016940144,,UNITED UTILITIES WATER PLC,ECCLES,,374960,397150,Greater Manchester Merseyside and Cheshire,Controlled Waters,"Indeno(1,2,3-cd)pyrene",1.0,0.0,Water Industry,Water Industry,,53.47048388729303,-2.3786875230934386,North West
016940144,,UNITED UTILITIES WATER PLC,ECCLES,,374960,397150,Greater Manchester Merseyside and Cheshire,Controlled Waters,Benzo(a)pyrene,1.0,0.0,Water Industry,Water Industry,,53.47048388729303,-2.3786875230934386,North West
300454,,SOUTH WEST WATER LTD,Plymouth Central STW,PL4 OPX,249800,53930,"Devon, Cornwall and the Isles of Scilly",Controlled Waters,"Indeno(1,2,3-cd)pyrene",1.0,0.0,Water Industry,Water Industry,,50.36605365411117,-4.1132599121048035,South West
300454,,SOUTH WEST WATER LTD,Plymouth Central STW,PL4 OPX,249800,53930,"Devon, Cornwall and the Isles of Scilly",Controlled Waters,Benzo(a)pyrene,1.0,0.0,Water Industry,Water Industry,,50.36605365411117,-4.1132599121048035,South West
A726/IOW/97,,Southern Water,Sandown STW (Ventnor/Bembridge),PO36 8DE,460270,85220,Solent and South Downs,Controlled Waters,"Indeno(1,2,3-cd)pyrene",1.0,0.0,Water Industry,Water Industry,,50.663541553013175,-1.1486148651904486,South East
A726/IOW/97,,Southern Water,Sandown STW (Ventnor/Bembridge),PO36 8DE,460270,85220,Solent and South Downs,Controlled Waters,Benzo(a)pyrene,1.0,0.0,Water Industry,Water Industry,,50.663541553013175,-1.1486148651904486,South East
BV1364ID,"WASTE LANDFILLING; >10 T/D WITH CAPACITY >25,000T EXCLUDING INERT WASTE",Quercia Limited,"Clayton Hall Sand Quarry,Dawson Lane Whittle Le Woods Chorley Lancashire",PR6 7dt,356720,421920,Cumbria and Lancashire,Controlled Waters,"Indeno(1,2,3-cd)pyrene",1.0,0.0,Landfill,Non Hazardous Landfill,,53.691921900934645,-2.6568957495969623,North West
BV1364ID,"WASTE LANDFILLING; >10 T/D WITH CAPACITY >25,000T EXCLUDING INERT WASTE",Quercia Limited,"Clayton Hall Sand Quarry,Dawson Lane Whittle Le Woods Chorley Lancashire",PR6 7dt,356720,421920,Cumbria and Lancashire,Controlled Waters,Fluoranthene,0.1,0.0,Landfill,Non Hazardous Landfill,,53.691921900934645,-2.6568957495969623,North West
BV1364ID,"WASTE LANDFILLING; >10 T/D WITH CAPACITY >25,000T EXCLUDING INERT WASTE",Quercia Limited,"Clayton Hall Sand Quarry,Dawson Lane Whittle Le Woods Chorley Lancashire",PR6 7dt,356720,421920,Cumbria and Lancashire,Controlled Waters,Heptachlor,0.1,0.0,Landfill,Non Hazardous Landfill,,53.691921900934645,-2.6568957495969623,North West
BV1364ID,"WASTE LANDFILLING; >10 T/D WITH CAPACITY >25,000T EXCLUDING INERT WASTE",Quercia Limited,"Clayton Hall Sand Quarry,Dawson Lane Whittle Le Woods Chorley Lancashire",PR6 7dt,356720,421920,Cumbria and Lancashire,Controlled Waters,Benzo(a)pyrene,1.0,0.0,Landfill,Non Hazardous Landfill,,53.691921900934645,-2.6568957495969623,North West
BV1364ID,"WASTE LANDFILLING; >10 T/D WITH CAPACITY >25,000T EXCLUDING INERT WASTE",Quercia Limited,"Clayton Hall Sand Quarry,Dawson Lane Whittle Le Woods Chorley Lancashire",PR6 7dt,356720,421920,Cumbria and Lancashire,Controlled Waters,Cypermethrin,0.005,0.0,Landfill,Non Hazardous Landfill,1.3e-05,53.691921900934645,-2.6568957495969623,North West
A857/S/P/98,,Southern Water,Bexhill & Hastings STW,TN32 8AY,577300,109200,Solent and South Downs,Controlled Waters,"Indeno(1,2,3-cd)pyrene",1.0,0.0,Water Industry,Water Industry,,50.85513773720249,0.5176207779836519,South East
A857/S/P/98,,Southern Water,Bexhill & Hastings STW,TN32 8AY,577300,109200,Solent and South Downs,Controlled Waters,Benzo(a)pyrene,1.0,0.0,Water Industry,Water Industry,,50.85513773720249,0.5176207779836519,South East
PP3830BV,"WASTE LANDFILLING; >10 T/D WITH CAPACITY >25,000T EXCLUDING INERT WASTE",Immingham Landill Site,Integrated Waste Management Ltd Queens Road Immingham N E Lincolnshire,DN40 1QR,520070,414100,Lincolnshire and Northamptonshire,Wastewater,Heptachlor,0.1,0.0,Landfill,Non Hazardous Landfill,,53.60970232501848,-0.18662679722864642,Yorkshire and The Humber
001229,,SOUTH WEST WATER LTD,EXETER STW (Countess Wear),EX2 7AA,294800,89000,"Devon, Cornwall and the Isles of Scilly",Controlled Waters,"Indeno(1,2,3-cd)pyrene",1.0,0.0,Water Industry,Water Industry,,50.69110641761321,-3.4907104289958726,South West
001229,,SOUTH WEST WATER LTD,EXETER STW (Countess Wear),EX2 7AA,294800,89000,"Devon, Cornwall and the Isles of Scilly",Controlled Waters,Benzo(a)pyrene,1.0,0.0,Water Industry,Water Industry,,50.69110641761321,-3.4907104289958726,South West
200976,,SOUTH WEST WATER LTD,Brokenbury STW (TORBAY),TQ5 0LL,289750,56310,"Devon, Cornwall and the Isles of Scilly",Controlled Waters,"Indeno(1,2,3-cd)pyrene",1.0,0.0,Water Industry,Water Industry,,50.39629958802472,-3.5524947785411247,South West
200976,,SOUTH WEST WATER LTD,Brokenbury STW (TORBAY),TQ5 0LL,289750,56310,"Devon, Cornwall and the Isles of Scilly",Controlled Waters,Benzo(a)pyrene,1.0,0.0,Water Industry,Water Industry,,50.39629958802472,-3.5524947785411247,South West
016920130,,UNITED UTILITIES WATER PLC,ST HELENS,,353820,395900,Greater Manchester Merseyside and Cheshire,Controlled Waters,Benzo(a)pyrene,1.0,0.0,Water Industry,Water Industry,,53.457815001619835,-2.6969509558081435,North West
A720/K/97,,Southern Water,Motney Hill STW,ME8 7UA,582950,168380,"Kent, South London and East Sussex",Controlled Waters,"Indeno(1,2,3-cd)pyrene",1.0,0.0,Water Industry,Water Industry,,51.38497550557988,0.6278084434090928,South East
A720/K/97,,Southern Water,Motney Hill STW,ME8 7UA,582950,168380,"Kent, South London and East Sussex",Controlled Waters,Benzo(a)pyrene,1.0,0.0,Water Industry,Water Industry,,51.38497550557988,0.6278084434090928,South East
COPA/5586,,Southern Water,Millbrook STW,SO15 0HH,438850,112600,Solent and South Downs,Controlled Waters,"Indeno(1,2,3-cd)pyrene",1.0,0.0,Water Industry,Water Industry,,50.91156573195226,-1.4487767063232817,South East
COPA/5586,,Southern Water,Millbrook STW,SO15 0HH,438850,112600,Solent and South Downs,Controlled Waters,Benzo(a)pyrene,1.0,0.0,Water Industry,Water Industry,,50.91156573195226,-1.4487767063232817,South East
A805/K/98,,Southern Water,Ashford STW,TN25 9QB,602020,143250,"Kent, South London and East Sussex",Controlled Waters,Fluoranthene,0.1,0.0,Water Industry,Water Industry,,51.15283805587308,0.8873201093750889,South East
A805/K/98,,Southern Water,Ashford STW,TN25 9QB,602020,143250,"Kent, South London and East Sussex",Controlled Waters,"Indeno(1,2,3-cd)pyrene",1.0,0.0,Water Industry,Water Industry,,51.15283805587308,0.8873201093750889,South East
A805/K/98,,Southern Water,Ashford STW,TN25 9QB,602020,143250,"Kent, South London and East Sussex",Controlled Waters,Benzo(a)pyrene,1.0,0.0,Water Industry,Water Industry,,51.15283805587308,0.8873201093750889,South East
A74/S/87,,Southern Water,Portobello STW (Brighton),BN10 7BD,539300,101460,Solent and South Downs,Controlled Waters,Benzo(a)pyrene,1.0,0.0,Water Industry,Water Industry,,50.79597145410508,-0.02481221964020708,South East
QP3538XB,"COATING, PRINTING AND TEXTILES; PRE-TREATING BY WASHING ETC >10T/DAY",W.T.Johnson & Sons (Huddersfield) Ltd,Bankfield Mills Wakefield Road Moldgreen West Yorkshire,HD5 9BB,415560,416260,Yorkshire,Controlled Waters,Cypermethrin,0.005,0.0,Paper and textiles,Textiles,1.3e-05,53.64262356653264,-1.7661151285136858,Yorkshire and The Humber
RP26/73,,Southern Water,Aylesford STW,ME20 7DA,572100,159500,"Kent, South London and East Sussex",Controlled Waters,Fluoranthene,0.1,0.0,Water Industry,Water Industry,,51.308594581861044,0.4677519059627789,South East
RP26/73,,Southern Water,Aylesford STW,ME20 7DA,572100,159500,"Kent, South London and East Sussex",Controlled Waters,"Indeno(1,2,3-cd)pyrene",1.0,0.0,Water Industry,Water Industry,,51.308594581861044,0.4677519059627789,South East
RP26/73,,Southern Water,Aylesford STW,ME20 7DA,572100,159500,"Kent, South London and East Sussex",Controlled Waters,Benzo(a)pyrene,1.0,0.0,Water Industry,Water Industry,,51.308594581861044,0.4677519059627789,South East
CAWM.0942,,THAMES WATER UTILITIES LTD,READING STW,RG2 0RP,471100,170800,Thames,Controlled Waters,Benzo(a)pyrene,1.0,0.0,Water Industry,Water Industry,,51.43175105234219,-0.9786268415538915,South East
BJ6780IL,"PAPER, PULP AND BOARD; PRODUCING PAPER/BOARD >20T/D",SOFIDEL UK LIMITED,Leicester Paper Mill Waterside Road,LE5 1TZ,462610,307790,East Midlands,Wastewater,Cypermethrin,0.005,0.0,Paper and textiles,Paper & Pulp,1.3e-05,52.66422018280155,-1.075677927549713,East Midlands
HP3530BS,"WASTE LANDFILLING; >10 T/D WITH CAPACITY >25,000T EXCLUDING INERT WASTE",Thompsons Of Prudhoe Limited,Springwell Quarry Springwell Road Wrekenton Tyne and Wear,NE9 7XW,428400,558600,North East,Wastewater,Fluoranthene,0.1,0.0,Landfill,Non Hazardous Landfill,,54.9212923560796,-1.5584397345591554,North East
HP3530BS,"WASTE LANDFILLING; >10 T/D WITH CAPACITY >25,000T EXCLUDING INERT WASTE",Thompsons Of Prudhoe Limited,Springwell Quarry Springwell Road Wrekenton Tyne and Wear,NE9 7XW,428400,558600,North East,Wastewater,Heptachlor,0.1,0.0,Landfill,Non Hazardous Landfill,,54.9212923560796,-1.5584397345591554,North East
HP3530BS,"WASTE LANDFILLING; >10 T/D WITH CAPACITY >25,000T EXCLUDING INERT WASTE",Thompsons Of Prudhoe Limited,Springwell Quarry Springwell Road Wrekenton Tyne and Wear,NE9 7XW,428400,558600,North East,Wastewater,Benzo(a)pyrene,1.0,0.0,Landfill,Non Hazardous Landfill,,54.9212923560796,-1.5584397345591554,North East
017160005,,UNITED UTILITIES WATER PLC,BURNLEY,,382550,435270,Cumbria and Lancashire,Controlled Waters,"Indeno(1,2,3-cd)pyrene",1.0,0.0,Water Industry,Water Industry,,53.813417898368776,-2.2665013916025725,North West
017160005,,UNITED UTILITIES WATER PLC,BURNLEY,,382550,435270,Cumbria and Lancashire,Controlled Waters,Benzo(a)pyrene,1.0,0.0,Water Industry,Water Industry,,53.813417898368776,-2.2665013916025725,North West
CNTD.0024,,THAMES WATER UTILITIES LTD,CAMBERLEY STW,GU15 3DE,485800,159500,Thames,Controlled Waters,"Indeno(1,2,3-cd)pyrene",1.0,0.0,Water Industry,Water Industry,,51.32813662985067,-0.7699431370528544,South East
CNTD.0024,,THAMES WATER UTILITIES LTD,CAMBERLEY STW,GU15 3DE,485800,159500,Thames,Controlled Waters,Benzo(a)pyrene,1.0,0.0,Water Industry,Water Industry,,51.32813662985067,-0.7699431370528544,South East
043091,,Wessex Water,POOLE STW,BH17 7BX,400700,93580,Wessex,Controlled Waters,"Indeno(1,2,3-cd)pyrene",1.0,0.0,Water Industry,Water Industry,,50.74182787954079,-1.991444522226778,South West
043091,,Wessex Water,POOLE STW,BH17 7BX,400700,93580,Wessex,Controlled Waters,Benzo(a)pyrene,1.0,0.0,Water Industry,Water Industry,,50.74182787954079,-1.991444522226778,South West
BW2188IU,"WASTE LANDFILLING; >10 T/D WITH CAPACITY >25,000T EXCLUDING INERT WASTE",Waste Recycling Group (Yorkshire) Limited,Allerton Park Landfill Site Allerton Park Knaresborough North Yorkshire,HG5 0SD,441200,459730,Yorkshire,Wastewater,Heptachlor,0.1,0.0,Landfill,Non Hazardous Landfill,,54.031919383199835,-1.372492213325303,Yorkshire and The Humber
S/20/21356/R,,SEVERN TRENT WATER LTD,Netheridge CHP Plant Hempsted Lane Hempsted Gloucestershire,GL2 5LF,381110,215700,West Midlands,Controlled Waters,Benzo(a)pyrene,1.0,0.0,Water Industry,Water Industry,,51.839581834363415,-2.275579360127801,South West
CTCR.0875,,THAMES WATER UTILITIES LTD,BASINGSTOKE STW,RG24 8LL,468000,155200,Thames,Controlled Waters,"Indeno(1,2,3-cd)pyrene",1.0,0.0,Water Industry,Water Industry,,51.29188112525349,-1.0261909051605638,South East
CTCR.0875,,THAMES WATER UTILITIES LTD,BASINGSTOKE STW,RG24 8LL,468000,155200,Thames,Controlled Waters,Benzo(a)pyrene,1.0,0.0,Water Industry,Water Industry,,51.29188112525349,-1.0261909051605638,South East
A1107/S/CH/99,,Southern Water,East Worthing STW,BN11 2SA,516930,103610,Solent and South Downs,Controlled Waters,"Indeno(1,2,3-cd)pyrene",1.0,0.0,Water Industry,Water Industry,,50.82023809902321,-0.3413847912627039,South East
A1107/S/CH/99,,Southern Water,East Worthing STW,BN11 2SA,516930,103610,Solent and South Downs,Controlled Waters,Benzo(a)pyrene,1.0,0.0,Water Industry,Water Industry,,50.82023809902321,-0.3413847912627039,South East
040415,,Wessex Water,BOURNEMOUTH (Holdenhurst) STW,BH7 7ES,413300,95230,Wessex,Controlled Waters,"Indeno(1,2,3-cd)pyrene",1.0,0.0,Water Industry,Water Industry,,50.75651622422837,-1.8128154360805653,South West
040415,,Wessex Water,BOURNEMOUTH (Holdenhurst) STW,BH7 7ES,413300,95230,Wessex,Controlled Waters,Benzo(a)pyrene,1.0,0.0,Water Industry,Water Industry,,50.75651622422837,-1.8128154360805653,South West
VP3230BH,"WASTE LANDFILLING; >10 T/D WITH CAPACITY >25,000T EXCLUDING INERT WASTE",Integrated Waste Management Ltd,Gallymoor Landfill Market Weighton Road Holme On Spalding Moor North Yorkshire,YO43 4ED,484000,439810,Yorkshire,Wastewater,Heptachlor,0.1,0.0,Landfill,Non Hazardous Landfill,,53.84774523025444,-0.724670316228166,Yorkshire and The Humber
CP3435PR,"WASTE LANDFILLING; >10 T/D WITH CAPACITY >25,000T EXCLUDING INERT WASTE",S Grundon (Waste) Limited,Star Works Landfill Site Star Lane Knowle Hill Reading Berkshire,RG10 9XY,482020,179530,Thames,Wastewater,Benzo(a)pyrene,1.0,0.0,Landfill,Non Hazardous Landfill,,51.50875703367248,-0.8195543489804894,South East
QP3539XL,"WASTE LANDFILLING; >10 T/D WITH CAPACITY >25,000T EXCLUDING INERT WASTE",Integrated Waste Management Ltd,Winterton North Landfill Coleby Road West Halton Scunthorpe South Humberside,DN15 9AP,491280,420230,Lincolnshire and Northamptonshire,Wastewater,Heptachlor,0.1,0.0,Landfill,Non Hazardous Landfill,,53.670584569448295,-0.6198276370254202,Yorkshire and The Humber
WP3330BZ,"WASTE LANDFILLING; >10 T/D WITH CAPACITY >25,000T EXCLUDING INERT WASTE",Welbeck Waste Management Ltd,Welbeck Landfill Site Boundary Lane Normanton Wakefield West Yorkshire,WF6 2JA,436140,422090,Yorkshire,Wastewater,Heptachlor,0.1,0.0,Landfill,Non Hazardous Landfill,,53.6940100523621,-1.4541579087815606,Yorkshire and The Humber
TP3735PA,"WASTE LANDFILLING; >10 T/D WITH CAPACITY >25,000T EXCLUDING INERT WASTE",Stonegrave Aggregates Limited,Aycliffe Quarry Landfill Site Aycliffe Quarry Aycliffe Villiage Darlington County Durham,DL5 6NB,428650,522060,North East,Wastewater,Fluoranthene,0.1,0.0,Landfill,Non Hazardous Landfill,,54.59292067733982,-1.5581279909370136,North East
TP3735PA,"WASTE LANDFILLING; >10 T/D WITH CAPACITY >25,000T EXCLUDING INERT WASTE",Stonegrave Aggregates Limited,Aycliffe Quarry Landfill Site Aycliffe Quarry Aycliffe Villiage Darlington County Durham,DL5 6NB,428650,522060,North East,Wastewater,"Indeno(1,2,3-cd)pyrene",1.0,0.0,Landfill,Non Hazardous Landfill,,54.59292067733982,-1.5581279909370136,North East
TP3735PA,"WASTE LANDFILLING; >10 T/D WITH CAPACITY >25,000T EXCLUDING INERT WASTE",Stonegrave Aggregates Limited,Aycliffe Quarry Landfill Site Aycliffe Quarry Aycliffe Villiage Darlington County Durham,DL5 6NB,428650,522060,North East,Wastewater,Benzo(a)pyrene,1.0,0.0,Landfill,Non Hazardous Landfill,,54.59292067733982,-1.5581279909370136,North East
BU2381IE,"WASTE LANDFILLING; >10 T/D WITH CAPACITY >25,000T EXCLUDING INERT WASTE",Veolia ES Landfill Limited,Ling Hall Landfill Site Coal Pit Lane Lawford Heath Warwickshire,CB23 9HH,444500,273500,West Midlands,Wastewater,Benzo(a)pyrene,1.0,0.0,Landfill,Non Hazardous Landfill,,52.3577614564644,-1.3480073491305533,West Midlands
BU2381IE,"WASTE LANDFILLING; >10 T/D WITH CAPACITY >25,000T EXCLUDING INERT WASTE",Veolia ES Landfill Limited,Ling Hall Landfill Site Coal Pit Lane Lawford Heath Warwickshire,CB23 9HH,444500,273500,West Midlands,Wastewater,Fluoranthene,0.1,0.0,Landfill,Non Hazardous Landfill,,52.3577614564644,-1.3480073491305533,West Midlands
BX1942IX,"WASTE LANDFILLING; >10 T/D WITH CAPACITY >25,000T EXCLUDING INERT WASTE",Sandfield Gravel Company Ltd,Milegate Extension Landfill Site Catwick Lane Brandesburton Driffield East Ridings of Yorkshire,YO25 8SA,513100,447200,Yorkshire,Wastewater,Benzo(a)pyrene,1.0,0.0,Landfill,Non Hazardous Landfill,,53.90862164525309,-0.2798137417648828,Yorkshire and The Humber
EP3136GK,"WASTE LANDFILLING; >10 T/D WITH CAPACITY >25,000T EXCLUDING INERT WASTE",Veolia ES Landfill Limited,Rainham Landfill Coldharbour Lane Off Ferry Lane Rainham Essex,RM13 9DA,552500,179500,Hertfordshire and North London,Wastewater,Fluoranthene,0.1,0.0,Landfill,Non Hazardous Landfill,,51.493880658995465,0.1953727922275181,London
EP3136GK,"WASTE LANDFILLING; >10 T/D WITH CAPACITY >25,000T EXCLUDING INERT WASTE",Veolia ES Landfill Limited,Rainham Landfill Coldharbour Lane Off Ferry Lane Rainham Essex,RM13 9DA,552500,179500,Hertfordshire and North London,Wastewater,Benzo(a)pyrene,1.0,0.0,Landfill,Non Hazardous Landfill,,51.493880658995465,0.1953727922275181,London
BM6093IS,"WASTE LANDFILLING; >10 T/D WITH CAPACITY >25,000T EXCLUDING INERT WASTE",Fcc Waste Services (Uk) Limited,Bennett Bank Landfill Thwaite Flat Barrow in Furness Cumbria,LA14 4QH,321500,475000,Cumbria and Lancashire,Wastewater,Heptachlor,0.1,0.0,Landfill,Non Hazardous Landfill,,54.16477532005344,-3.2038092552016577,North West
S/07/56066/R,,SEVERN TRENT WATER LTD,Worcester STW,WR2 4ZP,253530,384361,West Midlands,Controlled Waters,"Indeno(1,2,3-cd)pyrene",1.0,0.0,Water Industry,Water Industry,,53.33582156898925,-4.201181535249242,
S/07/56066/R,,SEVERN TRENT WATER LTD,Worcester STW,WR2 4ZP,253530,384361,West Midlands,Controlled Waters,Benzo(a)pyrene,1.0,0.0,Water Industry,Water Industry,,53.33582156898925,-4.201181535249242,
CNTW.0531,,Anglian Water,TILBURY STW,,565670,175350,East Anglia,Controlled Waters,"Indeno(1,2,3-cd)pyrene",1.0,0.0,Water Industry,Water Industry,,51.4528958108943,0.38297313813412337,East of England
CNTW.0531,,Anglian Water,TILBURY STW,,565670,175350,East Anglia,Controlled Waters,Benzo(a)pyrene,1.0,0.0,Water Industry,Water Industry,,51.4528958108943,0.38297313813412337,East of England
JP3638HM,"FERROUS METALS; PRODUCING, MELTING OR REFINING",Sahaviriya Steel Industries UK Limited,Teeside Integrated Iron and Steelworks Steel House Redcar Teesside Cleveland,TS10 5QW,457690,524150,North East,Wastewater,Fluoranthene,0.1,0.0,Metals,Ferrous,,54.609227171624504,-1.1083403642506415,North East
JP3638HM,"FERROUS METALS; PRODUCING, MELTING OR REFINING",Sahaviriya Steel Industries UK Limited,Teeside Integrated Iron and Steelworks Steel House Redcar Teesside Cleveland,TS10 5QW,457690,524150,North East,Controlled Waters,"Indeno(1,2,3-cd)pyrene",1.0,0.0,Metals,Ferrous,,54.609227171624504,-1.1083403642506415,North East
JP3638HM,"FERROUS METALS; PRODUCING, MELTING OR REFINING",Sahaviriya Steel Industries UK Limited,Teeside Integrated Iron and Steelworks Steel House Redcar Teesside Cleveland,TS10 5QW,457690,524150,North East,Wastewater,"Indeno(1,2,3-cd)pyrene",1.0,0.0,Metals,Ferrous,,54.609227171624504,-1.1083403642506415,North East
JP3638HM,"FERROUS METALS; PRODUCING, MELTING OR REFINING",Sahaviriya Steel Industries UK Limited,Teeside Integrated Iron and Steelworks Steel House Redcar Teesside Cleveland,TS10 5QW,457690,524150,North East,Controlled Waters,Benzo(a)pyrene,1.0,0.0,Metals,Ferrous,,54.609227171624504,-1.1083403642506415,North East
JP3638HM,"FERROUS METALS; PRODUCING, MELTING OR REFINING",Sahaviriya Steel Industries UK Limited,Teeside Integrated Iron and Steelworks Steel House Redcar Teesside Cleveland,TS10 5QW,457690,524150,North East,Wastewater,Benzo(a)pyrene,1.0,0.0,Metals,Ferrous,,54.609227171624504,-1.1083403642506415,North East
BX4054ID,"WASTE LANDFILLING; >10 T/D WITH CAPACITY >25,000T EXCLUDING INERT WASTE",VIRIDOR WASTE MANAGEMENT LTD,Trigon Landfill Bere-Regis To Wareham Road Nr Wareham Dorset,BH20 7PB,389600,89400,Wessex,Wastewater,Fluoranthene,0.1,0.0,Landfill,Non Hazardous Landfill,,50.70414373942738,-2.148637222180651,South West
BX4054ID,"WASTE LANDFILLING; >10 T/D WITH CAPACITY >25,000T EXCLUDING INERT WASTE",VIRIDOR WASTE MANAGEMENT LTD,Trigon Landfill Bere-Regis To Wareham Road Nr Wareham Dorset,BH20 7PB,389600,89400,Wessex,Wastewater,Benzo(a)pyrene,1.0,0.0,Landfill,Non Hazardous Landfill,,50.70414373942738,-2.148637222180651,South West
TP3631LM,DISPOSAL OF > 50 T/D NON-HAZARDOUS WASTE (> 100 T/D IF ONLY AD) INVOLVING BIOLOGICAL TREATMENT,Landfill Management Limited,Kirkless Leachate Treatment Plant Makerfield Way Wigan Lancashire,WN2 2PP,360970,405350,Cumbria and Lancashire,Wastewater,Heptachlor,0.1,0.0,Landfill,other,,53.54333069689309,-2.590456285420429,North West
VP3036GQ,"WASTE LANDFILLING; >10 T/D WITH CAPACITY >25,000T EXCLUDING INERT WASTE",Veolia ES Landfill Limited,Sandy Lane Landfill Site Sandy Lane Wildmoor Bromsgrove Worcestershire,B61 0QT,395200,276290,West Midlands,Wastewater,Fluoranthene,0.1,0.0,Landfill,Non Hazardous Landfill,,52.38461889271887,-2.0719481991083932,West Midlands
VP3036GQ,"WASTE LANDFILLING; >10 T/D WITH CAPACITY >25,000T EXCLUDING INERT WASTE",Veolia ES Landfill Limited,Sandy Lane Landfill Site Sandy Lane Wildmoor Bromsgrove Worcestershire,B61 0QT,395200,276290,West Midlands,Wastewater,Benzo(a)pyrene,1.0,0.0,Landfill,Non Hazardous Landfill,,52.38461889271887,-2.0719481991083932,West Midlands
MP3136HW,DISPOSAL OR RECOVERY OF HAZARDOUS WASTE WITH A CAPACITY EXCEEDING 10 TONNES PER DAY INVOLVING PHYSICO-CHEMICAL TREATMENT,CLEANSING SERVICE GROUP LTD,Wilton Waste Treatment Plant Boundary Road West Middlesbrough Cleveland,TS6 8JH,456800,522000,North East,Wastewater,Fluoranthene,0.1,0.0,Waste treatment,Hazardous,,54.590008577871934,-1.1225332129664527,North East
MP3136HW,DISPOSAL OR RECOVERY OF HAZARDOUS WASTE WITH A CAPACITY EXCEEDING 10 TONNES PER DAY INVOLVING PHYSICO-CHEMICAL TREATMENT,CLEANSING SERVICE GROUP LTD,Wilton Waste Treatment Plant Boundary Road West Middlesbrough Cleveland,TS6 8JH,456800,522000,North East,Wastewater,Heptachlor,0.1,0.0,Waste treatment,Hazardous,,54.590008577871934,-1.1225332129664527,North East
MP3136HW,DISPOSAL OR RECOVERY OF HAZARDOUS WASTE WITH A CAPACITY EXCEEDING 10 TONNES PER DAY INVOLVING PHYSICO-CHEMICAL TREATMENT,CLEANSING SERVICE GROUP LTD,Wilton Waste Treatment Plant Boundary Road West Middlesbrough Cleveland,TS6 8JH,456800,522000,North East,Wastewater,"Indeno(1,2,3-cd)pyrene",1.0,0.0,Waste treatment,Hazardous,,54.590008577871934,-1.1225332129664527,North East
MP3136HW,DISPOSAL OR RECOVERY OF HAZARDOUS WASTE WITH A CAPACITY EXCEEDING 10 TONNES PER DAY INVOLVING PHYSICO-CHEMICAL TREATMENT,CLEANSING SERVICE GROUP LTD,Wilton Waste Treatment Plant Boundary Road West Middlesbrough Cleveland,TS6 8JH,456800,522000,North East,Wastewater,Benzo(a)pyrene,1.0,0.0,Waste treatment,Hazardous,,54.590008577871934,-1.1225332129664527,North East
MP3136HW,DISPOSAL OR RECOVERY OF HAZARDOUS WASTE WITH A CAPACITY EXCEEDING 10 TONNES PER DAY INVOLVING PHYSICO-CHEMICAL TREATMENT,CLEANSING SERVICE GROUP LTD,Wilton Waste Treatment Plant Boundary Road West Middlesbrough Cleveland,TS6 8JH,456800,522000,North East,Wastewater,Cypermethrin,0.005,0.0,Waste treatment,Hazardous,1.3e-05,54.590008577871934,-1.1225332129664527,North East
NP3032WQ,"COATING, PRINTING AND TEXTILES; PRE-TREATING BY WASHING ETC >10T/DAY",Huddersfield Dyeing Company Limited,Canal Bank Dyeworks Canal Bank Dyeworks Huddersfield West Yorkshire,HD1 6NY,415080,417960,Yorkshire,Wastewater,Cypermethrin,0.005,0.0,Paper and textiles,Textiles,1.3e-05,53.65791729672862,-1.7732936652626667,Yorkshire and The Humber
S/06/55146/R,,SEVERN TRENT WATER LTD,Kidderminster STW Oldington,DY11 7QL,382560,273750,West Midlands,Controlled Waters,Fluoranthene,0.1,0.0,Water Industry,Water Industry,,52.36152489215104,-2.2575251882964498,West Midlands
S/06/55146/R,,SEVERN TRENT WATER LTD,Kidderminster STW Oldington,DY11 7QL,382560,273750,West Midlands,Controlled Waters,"Indeno(1,2,3-cd)pyrene",1.0,0.0,Water Industry,Water Industry,,52.36152489215104,-2.2575251882964498,West Midlands
S/06/55146/R,,SEVERN TRENT WATER LTD,Kidderminster STW Oldington,DY11 7QL,382560,273750,West Midlands,Controlled Waters,Benzo(a)pyrene,1.0,0.0,Water Industry,Water Industry,,52.36152489215104,-2.2575251882964498,West Midlands
S/10/25304/R,,SEVERN TRENT WATER LTD,Rugby STW,CV21 1HF,449420,276350,West Midlands,Controlled Waters,Fluoranthene,0.1,0.0,Water Industry,Water Industry,,52.38296080740317,-1.2753513894561017,West Midlands
S/10/25304/R,,SEVERN TRENT WATER LTD,Rugby STW,CV21 1HF,449420,276350,West Midlands,Controlled Waters,"Indeno(1,2,3-cd)pyrene",1.0,0.0,Water Industry,Water Industry,,52.38296080740317,-1.2753513894561017,West Midlands
S/10/25304/R,,SEVERN TRENT WATER LTD,Rugby STW,CV21 1HF,449420,276350,West Midlands,Controlled Waters,Benzo(a)pyrene,1.0,0.0,Water Industry,Water Industry,,52.38296080740317,-1.2753513894561017,West Midlands
CNTD.0084,,THAMES WATER UTILITIES LTD,LUTON STW,LU1 5TS,512300,217800,Hertfordshire and North London,Controlled Waters,"Indeno(1,2,3-cd)pyrene",1.0,0.0,Water Industry,Water Industry,,51.84751209537345,-0.37111353457588714,East of England
CNTD.0084,,THAMES WATER UTILITIES LTD,LUTON STW,LU1 5TS,512300,217800,Hertfordshire and North London,Controlled Waters,Benzo(a)pyrene,1.0,0.0,Water Industry,Water Industry,,51.84751209537345,-0.37111353457588714,East of England
UP3930NF,DISPOSAL OR RECOVERY OF HAZARDOUS WASTE WITH A CAPACITY EXCEEDING 10 TONNES PER DAY INVOLVING RECYCLING OR RECLAMATION OF INORGANIC MATERIALS OTHER THAN METALS OR METAL COMPOUNDS,Aggregate Industries Limited,Former Tinsley Sidings Europa Link Road Sheffield South Yorkshire,S9 1HF,439750,391300,Yorkshire,Wastewater,Benzo(a)pyrene,1.0,0.0,Waste treatment,Hazardous,,53.41701327797738,-1.4033937436896644,Yorkshire and The Humber
AP3634FT,TREATMENT AND PROCESSING (OTHER THAN PACKAGING) OF ONLY VEGETABLE RAW MATERIALS WITH A FINISHED PRODUCT CAPACITY > 300 T/D (OR 600 T/D FOR OPERATIONS LESS THAN 90 CONSECUTIVE DAYS IN ANY YEAR_,Princes Limited,Food Factory Lynn Road Wisbech Lynn Road Wisbech Cambridgeshire,PE13 3DG,546900,310500,Lincolnshire and Northamptonshire,Wastewater,Cypermethrin,0.005,0.0,Food & Drink,Food & Drink,1.3e-05,52.67230217933072,0.1711552406707043,East of England
AP3634FT,TREATMENT AND PROCESSING (OTHER THAN PACKAGING) OF ONLY VEGETABLE RAW MATERIALS WITH A FINISHED PRODUCT CAPACITY > 300 T/D (OR 600 T/D FOR OPERATIONS LESS THAN 90 CONSECUTIVE DAYS IN ANY YEAR_,Princes Limited,Food Factory Lynn Road Wisbech Lynn Road Wisbech Cambridgeshire,PE13 3DG,546900,310500,Lincolnshire and Northamptonshire,Wastewater,Heptachlor,0.1,0.0,Food & Drink,Food & Drink,,52.67230217933072,0.1711552406707043,East of England
EP3431FL,"PAPER, PULP AND BOARD; PRODUCING PAPER/BOARD >20T/D",Higher Kings Mill Limited,Higher Kings Mill Devon,EX15 1QJ,303100,108190,"Devon, Cornwall and the Isles of Scilly",Controlled Waters,Cypermethrin,0.005,0.0,Paper and textiles,Paper & Pulp,1.3e-05,50.865067701844225,-3.3783060580514905,South West
XP3533WY,INORGANIC CHEMICALS; SALTS EG AMMONIUM CHLORIDE,Arch Timber Protection Limited,Huddersfield Chemical Industry PO Box A521 Leeds Road Huddersfield West Yorkshire,HD2 1FG,414540,416860,Yorkshire,Wastewater,Cypermethrin,0.005,0.0,Chemicals,Chemicals,1.3e-05,53.64804554955977,-1.7815156220250792,Yorkshire and The Humber
JP3030DD,TAR AND BITUMEN; DISTILLING >5 T/A  IN CONNECTION WITH MANUFACTURE,Industrial Chemicals Limited,Port Clarence Works Huntsman Bridge Port Clarence Middlesbrough Cleveland,TS2 1SD,451200,521300,North East,Controlled Waters,"Indeno(1,2,3-cd)pyrene",1.0,0.0,Chemicals,Chemicals,,54.584315376904016,-1.209305506178323,North East
JP3030DD,TAR AND BITUMEN; DISTILLING >5 T/A  IN CONNECTION WITH MANUFACTURE,Industrial Chemicals Limited,Port Clarence Works Huntsman Bridge Port Clarence Middlesbrough Cleveland,TS2 1SD,451200,521300,North East,Controlled Waters,Benzo(a)pyrene,1.0,0.0,Chemicals,Chemicals,,54.584315376904016,-1.209305506178323,North East
BP3731ZS,"COATING, PRINTING AND TEXTILES; PRE-TREATING BY WASHING ETC >10T/DAY",Lawton Yarns Limited,Ravens Ing Mills Netherfield Road Dewsbury West Yorkshire,WF13 3JE,422960,420450,Yorkshire,Wastewater,Cypermethrin,0.005,0.0,Paper and textiles,Textiles,1.3e-05,53.680012549495565,-1.6538768802807502,Yorkshire and The Humber
LP3832NM,"WASTE LANDFILLING; >10 T/D WITH CAPACITY >25,000T EXCLUDING INERT WASTE",Durham County Council,Joint Stocks Landfill Joint Stocks Quarry Coxhoe Durham,DH6 4RT,433100,536500,North East,Wastewater,Fluoranthene,0.1,0.0,Landfill,Non Hazardous Landfill,,54.72241213125292,-1.4876334453559477,North East
UP3937FW,TREATMENT AND PROCESSING (OTHER THAN PACKAGING) OF ONLY VEGETABLE RAW MATERIALS WITH A FINISHED PRODUCT CAPACITY > 300 T/D (OR 600 T/D FOR OPERATIONS LESS THAN 90 CONSECUTIVE DAYS IN ANY YEAR_,Cawingredients Limited,Caw House Conygarth Way Leeming Bar Industrial Estate Northallerton North Yorkshire,DL7 9FD,428230,490060,Yorkshire,Wastewater,Fluoranthene,0.1,0.0,Food & Drink,Food & Drink,,54.305369215400624,-1.567666100663004,Yorkshire and The Humber
UP3937FW,TREATMENT AND PROCESSING (OTHER THAN PACKAGING) OF ONLY VEGETABLE RAW MATERIALS WITH A FINISHED PRODUCT CAPACITY > 300 T/D (OR 600 T/D FOR OPERATIONS LESS THAN 90 CONSECUTIVE DAYS IN ANY YEAR_,Cawingredients Limited,Caw House Conygarth Way Leeming Bar Industrial Estate Northallerton North Yorkshire,DL7 9FD,428230,490060,Yorkshire,Wastewater,Heptachlor,0.1,0.0,Food & Drink,Food & Drink,,54.305369215400624,-1.567666100663004,Yorkshire and The Humber
UP3937FW,TREATMENT AND PROCESSING (OTHER THAN PACKAGING) OF ONLY VEGETABLE RAW MATERIALS WITH A FINISHED PRODUCT CAPACITY > 300 T/D (OR 600 T/D FOR OPERATIONS LESS THAN 90 CONSECUTIVE DAYS IN ANY YEAR_,Cawingredients Limited,Caw House Conygarth Way Leeming Bar Industrial Estate Northallerton North Yorkshire,DL7 9FD,428230,490060,Yorkshire,Controlled Waters,"Indeno(1,2,3-cd)pyrene",1.0,0.0,Food & Drink,Food & Drink,,54.305369215400624,-1.567666100663004,Yorkshire and The Humber
UP3937FW,TREATMENT AND PROCESSING (OTHER THAN PACKAGING) OF ONLY VEGETABLE RAW MATERIALS WITH A FINISHED PRODUCT CAPACITY > 300 T/D (OR 600 T/D FOR OPERATIONS LESS THAN 90 CONSECUTIVE DAYS IN ANY YEAR_,Cawingredients Limited,Caw House Conygarth Way Leeming Bar Industrial Estate Northallerton North Yorkshire,DL7 9FD,428230,490060,Yorkshire,Wastewater,"Indeno(1,2,3-cd)pyrene",1.0,0.0,Food & Drink,Food & Drink,,54.305369215400624,-1.567666100663004,Yorkshire and The Humber
UP3937FW,TREATMENT AND PROCESSING (OTHER THAN PACKAGING) OF ONLY VEGETABLE RAW MATERIALS WITH A FINISHED PRODUCT CAPACITY > 300 T/D (OR 600 T/D FOR OPERATIONS LESS THAN 90 CONSECUTIVE DAYS IN ANY YEAR_,Cawingredients Limited,Caw House Conygarth Way Leeming Bar Industrial Estate Northallerton North Yorkshire,DL7 9FD,428230,490060,Yorkshire,Controlled Waters,Fluoranthene,0.1,0.0,Food & Drink,Food & Drink,,54.305369215400624,-1.567666100663004,Yorkshire and The Humber
UP3937FW,TREATMENT AND PROCESSING (OTHER THAN PACKAGING) OF ONLY VEGETABLE RAW MATERIALS WITH A FINISHED PRODUCT CAPACITY > 300 T/D (OR 600 T/D FOR OPERATIONS LESS THAN 90 CONSECUTIVE DAYS IN ANY YEAR_,Cawingredients Limited,Caw House Conygarth Way Leeming Bar Industrial Estate Northallerton North Yorkshire,DL7 9FD,428230,490060,Yorkshire,Controlled Waters,Heptachlor,0.1,0.0,Food & Drink,Food & Drink,,54.305369215400624,-1.567666100663004,Yorkshire and The Humber
UP3937FW,TREATMENT AND PROCESSING (OTHER THAN PACKAGING) OF ONLY VEGETABLE RAW MATERIALS WITH A FINISHED PRODUCT CAPACITY > 300 T/D (OR 600 T/D FOR OPERATIONS LESS THAN 90 CONSECUTIVE DAYS IN ANY YEAR_,Cawingredients Limited,Caw House Conygarth Way Leeming Bar Industrial Estate Northallerton North Yorkshire,DL7 9FD,428230,490060,Yorkshire,Controlled Waters,Benzo(a)pyrene,1.0,0.0,Food & Drink,Food & Drink,,54.305369215400624,-1.567666100663004,Yorkshire and The Humber
UP3937FW,TREATMENT AND PROCESSING (OTHER THAN PACKAGING) OF ONLY VEGETABLE RAW MATERIALS WITH A FINISHED PRODUCT CAPACITY > 300 T/D (OR 600 T/D FOR OPERATIONS LESS THAN 90 CONSECUTIVE DAYS IN ANY YEAR_,Cawingredients Limited,Caw House Conygarth Way Leeming Bar Industrial Estate Northallerton North Yorkshire,DL7 9FD,428230,490060,Yorkshire,Wastewater,Benzo(a)pyrene,1.0,0.0,Food & Drink,Food & Drink,,54.305369215400624,-1.567666100663004,Yorkshire and The Humber
UP3937FW,TREATMENT AND PROCESSING (OTHER THAN PACKAGING) OF ONLY VEGETABLE RAW MATERIALS WITH A FINISHED PRODUCT CAPACITY > 300 T/D (OR 600 T/D FOR OPERATIONS LESS THAN 90 CONSECUTIVE DAYS IN ANY YEAR_,Cawingredients Limited,Caw House Conygarth Way Leeming Bar Industrial Estate Northallerton North Yorkshire,DL7 9FD,428230,490060,Yorkshire,Wastewater,Cypermethrin,0.005,0.0,Food & Drink,Food & Drink,1.3e-05,54.305369215400624,-1.567666100663004,Yorkshire and The Humber
UP3937FW,TREATMENT AND PROCESSING (OTHER THAN PACKAGING) OF ONLY VEGETABLE RAW MATERIALS WITH A FINISHED PRODUCT CAPACITY > 300 T/D (OR 600 T/D FOR OPERATIONS LESS THAN 90 CONSECUTIVE DAYS IN ANY YEAR_,Cawingredients Limited,Caw House Conygarth Way Leeming Bar Industrial Estate Northallerton North Yorkshire,DL7 9FD,428230,490060,Yorkshire,Controlled Waters,Cypermethrin,0.005,0.0,Food & Drink,Food & Drink,1.3e-05,54.305369215400624,-1.567666100663004,Yorkshire and The Humber
RP3231XX,"WASTE LANDFILLING; >10 T/D WITH CAPACITY >25,000T EXCLUDING INERT WASTE",Tudor Griffiths Ltd,Wood Lane Landfill Wood Lane Ellesmere Shropshire,SY12 0HY,342200,332560,West Midlands,Wastewater,"Indeno(1,2,3-cd)pyrene",1.0,0.0,Landfill,Non Hazardous Landfill,,52.88737383010713,-2.8604618471665026,West Midlands
RP3231XX,"WASTE LANDFILLING; >10 T/D WITH CAPACITY >25,000T EXCLUDING INERT WASTE",Tudor Griffiths Ltd,Wood Lane Landfill Wood Lane Ellesmere Shropshire,SY12 0HY,342200,332560,West Midlands,Wastewater,Fluoranthene,0.1,0.0,Landfill,Non Hazardous Landfill,,52.88737383010713,-2.8604618471665026,West Midlands
RP3231XX,"WASTE LANDFILLING; >10 T/D WITH CAPACITY >25,000T EXCLUDING INERT WASTE",Tudor Griffiths Ltd,Wood Lane Landfill Wood Lane Ellesmere Shropshire,SY12 0HY,342200,332560,West Midlands,Wastewater,Heptachlor,0.1,0.0,Landfill,Non Hazardous Landfill,,52.88737383010713,-2.8604618471665026,West Midlands
RP3231XX,"WASTE LANDFILLING; >10 T/D WITH CAPACITY >25,000T EXCLUDING INERT WASTE",Tudor Griffiths Ltd,Wood Lane Landfill Wood Lane Ellesmere Shropshire,SY12 0HY,342200,332560,West Midlands,Wastewater,Benzo(a)pyrene,1.0,0.0,Landfill,Non Hazardous Landfill,,52.88737383010713,-2.8604618471665026,West Midlands
RP3231XX,"WASTE LANDFILLING; >10 T/D WITH CAPACITY >25,000T EXCLUDING INERT WASTE",Tudor Griffiths Ltd,Wood Lane Landfill Wood Lane Ellesmere Shropshire,SY12 0HY,342200,332560,West Midlands,Wastewater,Cypermethrin,0.005,0.0,Landfill,Non Hazardous Landfill,1.3e-05,52.88737383010713,-2.8604618471665026,West Midlands
UP3230LR,REFINING MINERAL OILS,Phillips 66 Limited,Humber Oil Refinery Eastfield Road South Killingholme Immingham South Humberside,DN40 3DW,516210,416450,Lincolnshire and Northamptonshire,Controlled Waters,"Indeno(1,2,3-cd)pyrene",1.0,0.0,Refineries & Fuel,Refineries & Fuel,,53.63168418109031,-0.24406362336294868,Yorkshire and The Humber
UP3230LR,REFINING MINERAL OILS,Phillips 66 Limited,Humber Oil Refinery Eastfield Road South Killingholme Immingham South Humberside,DN40 3DW,516210,416450,Lincolnshire and Northamptonshire,Controlled Waters,Fluoranthene,0.1,0.0,Refineries & Fuel,Refineries & Fuel,,53.63168418109031,-0.24406362336294868,Yorkshire and The Humber
UP3230LR,REFINING MINERAL OILS,Phillips 66 Limited,Humber Oil Refinery Eastfield Road South Killingholme Immingham South Humberside,DN40 3DW,516210,416450,Lincolnshire and Northamptonshire,Controlled Waters,Benzo(a)pyrene,1.0,0.0,Refineries & Fuel,Refineries & Fuel,,53.63168418109031,-0.24406362336294868,Yorkshire and The Humber
CM0017801,,DWR CYMRU CYFYNGEDIG LTD,"SEALAND ROAD, CHESTER",CH1 4LD,339300,366600,Greater Manchester Merseyside and Cheshire,Controlled Waters,Fluoranthene,0.1,0.0,Water Industry,Water Industry,,53.19300443763266,-2.909977265000588,North West
CM0017801,,DWR CYMRU CYFYNGEDIG LTD,"SEALAND ROAD, CHESTER",CH1 4LD,339300,366600,Greater Manchester Merseyside and Cheshire,Controlled Waters,"Indeno(1,2,3-cd)pyrene",1.0,0.0,Water Industry,Water Industry,,53.19300443763266,-2.909977265000588,North West
CM0017801,,DWR CYMRU CYFYNGEDIG LTD,"SEALAND ROAD, CHESTER",CH1 4LD,339300,366600,Greater Manchester Merseyside and Cheshire,Controlled Waters,Benzo(a)pyrene,1.0,0.0,Water Industry,Water Industry,,53.19300443763266,-2.909977265000588,North West
UP3237ES,"PAPER, PULP AND BOARD; PRODUCING PAPER/BOARD >20T/D",SOFIDEL UK LIMITED,Lancaster Paper Mill CATON ROAD,LA1 3QY,348400,463750,Cumbria and Lancashire,Wastewater,Cypermethrin,0.005,0.0,Paper and textiles,Paper & Pulp,1.3e-05,54.067090075770196,-2.7899359789046945,North West
JP3890VC,DISPOSAL OR RECOVERY OF HAZARDOUS WASTE WITH A CAPACITY EXCEEDING 10 TONNES PER DAY INVOLVING PHYSICO-CHEMICAL TREATMENT,Hazardous Waste Management Ltd,Four Dells Waste Facility Poles Lane Otterbourne Hampshire,SO21 2DY,445440,172430,Solent and South Downs,Wastewater,Fluoranthene,0.1,0.0,Waste treatment,Hazardous,,51.44904019816075,-1.3475003645492305,South East
JP3890VC,DISPOSAL OR RECOVERY OF HAZARDOUS WASTE WITH A CAPACITY EXCEEDING 10 TONNES PER DAY INVOLVING PHYSICO-CHEMICAL TREATMENT,Hazardous Waste Management Ltd,Four Dells Waste Facility Poles Lane Otterbourne Hampshire,SO21 2DY,445440,172430,Solent and South Downs,Wastewater,Benzo(a)pyrene,1.0,0.0,Waste treatment,Hazardous,,51.44904019816075,-1.3475003645492305,South East
JP3338ST,"WASTE LANDFILLING; >10 T/D WITH CAPACITY >25,000T EXCLUDING INERT WASTE",Woods Waste Limited,Westby Landfill Site Annas Road Lancashire,FY4 5JY,335810,431170,Cumbria and Lancashire,Controlled Waters,Cypermethrin,0.005,0.0,Landfill,Non Hazardous Landfill,1.3e-05,53.77289393648737,-2.9754312375126735,North West
JP3338ST,"WASTE LANDFILLING; >10 T/D WITH CAPACITY >25,000T EXCLUDING INERT WASTE",Woods Waste Limited,Westby Landfill Site Annas Road Lancashire,FY4 5JY,335810,431170,Cumbria and Lancashire,Controlled Waters,"Indeno(1,2,3-cd)pyrene",1.0,0.0,Landfill,Non Hazardous Landfill,,53.77289393648737,-2.9754312375126735,North West
JP3338ST,"WASTE LANDFILLING; >10 T/D WITH CAPACITY >25,000T EXCLUDING INERT WASTE",Woods Waste Limited,Westby Landfill Site Annas Road Lancashire,FY4 5JY,335810,431170,Cumbria and Lancashire,Controlled Waters,Fluoranthene,0.1,0.0,Landfill,Non Hazardous Landfill,,53.77289393648737,-2.9754312375126735,North West
JP3338ST,"WASTE LANDFILLING; >10 T/D WITH CAPACITY >25,000T EXCLUDING INERT WASTE",Woods Waste Limited,Westby Landfill Site Annas Road Lancashire,FY4 5JY,335810,431170,Cumbria and Lancashire,Controlled Waters,Heptachlor,0.1,0.0,Landfill,Non Hazardous Landfill,,53.77289393648737,-2.9754312375126735,North West
JP3338ST,"WASTE LANDFILLING; >10 T/D WITH CAPACITY >25,000T EXCLUDING INERT WASTE",Woods Waste Limited,Westby Landfill Site Annas Road Lancashire,FY4 5JY,335810,431170,Cumbria and Lancashire,Controlled Waters,Benzo(a)pyrene,1.0,0.0,Landfill,Non Hazardous Landfill,,53.77289393648737,-2.9754312375126735,North West
UP3630KS,"WASTE LANDFILLING; >10 T/D WITH CAPACITY >25,000T EXCLUDING INERT WASTE",Veolia ES Landfill Ltd,Highmoor Quarry Landfill Doctor Lane Oldham Greater Manchester,OL4 3SA,396980,406560,Greater Manchester Merseyside and Cheshire,Wastewater,Fluoranthene,0.1,0.0,Landfill,Non Hazardous Landfill,,53.55565606042068,-2.0470577689582132,North West
UP3630KS,"WASTE LANDFILLING; >10 T/D WITH CAPACITY >25,000T EXCLUDING INERT WASTE",Veolia ES Landfill Ltd,Highmoor Quarry Landfill Doctor Lane Oldham Greater Manchester,OL4 3SA,396980,406560,Greater Manchester Merseyside and Cheshire,Wastewater,Benzo(a)pyrene,1.0,0.0,Landfill,Non Hazardous Landfill,,53.55565606042068,-2.0470577689582132,North West
BV0627IL,"WASTE LANDFILLING; >10 T/D WITH CAPACITY >25,000T EXCLUDING INERT WASTE",North Lincolnshire Council,Conesby Quarry Landfill Normanby Road Scunthorpe North Lincolnshire,DN15 8QZ,489850,414500,Lincolnshire and Northamptonshire,Wastewater,Fluoranthene,0.1,0.0,Landfill,Non Hazardous Landfill,,53.61934413448165,-0.6431195830322438,Yorkshire and The Humber
BV0627IL,"WASTE LANDFILLING; >10 T/D WITH CAPACITY >25,000T EXCLUDING INERT WASTE",North Lincolnshire Council,Conesby Quarry Landfill Normanby Road Scunthorpe North Lincolnshire,DN15 8QZ,489850,414500,Lincolnshire and Northamptonshire,Wastewater,Benzo(a)pyrene,1.0,0.0,Landfill,Non Hazardous Landfill,,53.61934413448165,-0.6431195830322438,Yorkshire and The Humber
BU3485IS,ORGANIC CHEMICALS; HALOGEN CONTAINING COMPOUNDS EG HALOCARBONS,F2 CHEMICALS LTD,F2 Chemicals Limited Lea Lane Preston Lancashire,PR4 0RZ,347550,431250,Cumbria and Lancashire,Wastewater,Fluoranthene,0.1,0.0,Chemicals,Chemicals,,53.774930076533344,-2.797335665259419,North West
BU5208IJ,"WASTE LANDFILLING; >10 T/D WITH CAPACITY >25,000T EXCLUDING INERT WASTE",Veolia ES Landfill Ltd,Blue Haze Land Fill Somerley Ringwood Hampshire,BH24 3QE,412090,107640,Wessex,Wastewater,Fluoranthene,0.1,0.0,Landfill,Non Hazardous Landfill,,50.868139234328964,-1.8295641702561478,South East
BU5208IJ,"WASTE LANDFILLING; >10 T/D WITH CAPACITY >25,000T EXCLUDING INERT WASTE",Veolia ES Landfill Ltd,Blue Haze Land Fill Somerley Ringwood Hampshire,BH24 3QE,412090,107640,Wessex,Wastewater,Benzo(a)pyrene,1.0,0.0,Landfill,Non Hazardous Landfill,,50.868139234328964,-1.8295641702561478,South East
QP3230LE,"WASTE LANDFILLING; >10 T/D WITH CAPACITY >25,000T EXCLUDING INERT WASTE",WESTCOMBE WASTE LTD,WHISCOMBE HILL LANDFILL SITE WESTCOMBE HILL SOMERTONFIELD ROAD SOMERSET,TA11 6PZ,346500,129300,Wessex,Wastewater,Benzo(a)pyrene,1.0,0.0,Landfill,Non Hazardous Landfill,,51.060532638772195,-2.7647909338182863,South West
BX2388IF,"WASTE LANDFILLING; >10 T/D WITH CAPACITY >25,000T EXCLUDING INERT WASTE",Veolia ES Landfill Limited,CROFT FARM LANDFILL SITE ASKERN ROAD CARCROFT,DN6 8DE,455600,409700,Yorkshire,Wastewater,Fluoranthene,0.1,0.0,Landfill,Non Hazardous Landfill,,53.580953638723265,-1.1616863749998199,Yorkshire and The Humber
BX2388IF,"WASTE LANDFILLING; >10 T/D WITH CAPACITY >25,000T EXCLUDING INERT WASTE",Veolia ES Landfill Limited,CROFT FARM LANDFILL SITE ASKERN ROAD CARCROFT,DN6 8DE,455600,409700,Yorkshire,Wastewater,Benzo(a)pyrene,1.0,0.0,Landfill,Non Hazardous Landfill,,53.580953638723265,-1.1616863749998199,Yorkshire and The Humber
LP3434HA,"WASTE LANDFILLING; >10 T/D WITH CAPACITY >25,000T EXCLUDING INERT WASTE",Bradley Park Waste Management Limited,Bradley Park Landfill Lower Quarry Road Huddersfield West Yorkshire,HD2 1FN,416350,421350,Yorkshire,Wastewater,Fluoranthene,0.1,0.0,Landfill,Non Hazardous Landfill,,53.68834894210262,-1.7538996405163412,Yorkshire and The Humber
LP3434HA,"WASTE LANDFILLING; >10 T/D WITH CAPACITY >25,000T EXCLUDING INERT WASTE",Bradley Park Waste Management Limited,Bradley Park Landfill Lower Quarry Road Huddersfield West Yorkshire,HD2 1FN,416350,421350,Yorkshire,Wastewater,Heptachlor,0.1,0.0,Landfill,Non Hazardous Landfill,,53.68834894210262,-1.7538996405163412,Yorkshire and The Humber
LP3434HA,"WASTE LANDFILLING; >10 T/D WITH CAPACITY >25,000T EXCLUDING INERT WASTE",Bradley Park Waste Management Limited,Bradley Park Landfill Lower Quarry Road Huddersfield West Yorkshire,HD2 1FN,416350,421350,Yorkshire,Controlled Waters,"Indeno(1,2,3-cd)pyrene",1.0,0.0,Landfill,Non Hazardous Landfill,,53.68834894210262,-1.7538996405163412,Yorkshire and The Humber
LP3434HA,"WASTE LANDFILLING; >10 T/D WITH CAPACITY >25,000T EXCLUDING INERT WASTE",Bradley Park Waste Management Limited,Bradley Park Landfill Lower Quarry Road Huddersfield West Yorkshire,HD2 1FN,416350,421350,Yorkshire,Wastewater,"Indeno(1,2,3-cd)pyrene",1.0,0.0,Landfill,Non Hazardous Landfill,,53.68834894210262,-1.7538996405163412,Yorkshire and The Humber
LP3434HA,"WASTE LANDFILLING; >10 T/D WITH CAPACITY >25,000T EXCLUDING INERT WASTE",Bradley Park Waste Management Limited,Bradley Park Landfill Lower Quarry Road Huddersfield West Yorkshire,HD2 1FN,416350,421350,Yorkshire,Controlled Waters,Fluoranthene,0.1,0.0,Landfill,Non Hazardous Landfill,,53.68834894210262,-1.7538996405163412,Yorkshire and The Humber
LP3434HA,"WASTE LANDFILLING; >10 T/D WITH CAPACITY >25,000T EXCLUDING INERT WASTE",Bradley Park Waste Management Limited,Bradley Park Landfill Lower Quarry Road Huddersfield West Yorkshire,HD2 1FN,416350,421350,Yorkshire,Controlled Waters,Heptachlor,0.1,0.0,Landfill,Non Hazardous Landfill,,53.68834894210262,-1.7538996405163412,Yorkshire and The Humber
LP3434HA,"WASTE LANDFILLING; >10 T/D WITH CAPACITY >25,000T EXCLUDING INERT WASTE",Bradley Park Waste Management Limited,Bradley Park Landfill Lower Quarry Road Huddersfield West Yorkshire,HD2 1FN,416350,421350,Yorkshire,Controlled Waters,Benzo(a)pyrene,1.0,0.0,Landfill,Non Hazardous Landfill,,53.68834894210262,-1.7538996405163412,Yorkshire and The Humber
LP3434HA,"WASTE LANDFILLING; >10 T/D WITH CAPACITY >25,000T EXCLUDING INERT WASTE",Bradley Park Waste Management Limited,Bradley Park Landfill Lower Quarry Road Huddersfield West Yorkshire,HD2 1FN,416350,421350,Yorkshire,Wastewater,Benzo(a)pyrene,1.0,0.0,Landfill,Non Hazardous Landfill,,53.68834894210262,-1.7538996405163412,Yorkshire and The Humber
S/06/55227/R,,SEVERN TRENT WATER LTD,Barnhurst STW,WV95HN,390000,301650,West Midlands,Controlled Waters,"Indeno(1,2,3-cd)pyrene",1.0,0.0,Water Industry,Water Industry,,52.61253137355055,-2.149118878174962,West Midlands
S/06/55227/R,,SEVERN TRENT WATER LTD,Barnhurst STW,WV95HN,390000,301650,West Midlands,Controlled Waters,Benzo(a)pyrene,1.0,0.0,Water Industry,Water Industry,,52.61253137355055,-2.149118878174962,West Midlands
CP3936LL,DISPOSAL OR RECOVERY OF HAZARDOUS WASTE WITH A CAPACITY EXCEEDING 10 TONNES PER DAY INVOLVING PHYSICO-CHEMICAL TREATMENT,Viridor Waste (Thames) Ltd,Camberley Treatment Plant Camberley Sewage Treatment Works Doman Road Surrey,GU15 3DF,486230,159750,Thames,Wastewater,Benzo(a)pyrene,1.0,0.0,Waste treatment,Hazardous,,51.33031908852395,-0.7637126811636438,South East
T/08/35452/R,,SEVERN TRENT WATER LTD,Goscote STW,WS3 4DW,402190,301920,West Midlands,Controlled Waters,Fluoranthene,0.1,0.0,Water Industry,Water Industry,,52.615048826782534,-1.9690888796685821,West Midlands
T/08/35452/R,,SEVERN TRENT WATER LTD,Goscote STW,WS3 4DW,402190,301920,West Midlands,Controlled Waters,"Indeno(1,2,3-cd)pyrene",1.0,0.0,Water Industry,Water Industry,,52.615048826782534,-1.9690888796685821,West Midlands
T/08/35452/R,,SEVERN TRENT WATER LTD,Goscote STW,WS3 4DW,402190,301920,West Midlands,Controlled Waters,Benzo(a)pyrene,1.0,0.0,Water Industry,Water Industry,,52.615048826782534,-1.9690888796685821,West Midlands
T/08/09076/R,,SEVERN TRENT WATER LTD,Ray Hall Sand Filters STW,B43 6JE,402900,293700,West Midlands,Controlled Waters,"Indeno(1,2,3-cd)pyrene",1.0,0.0,Water Industry,Water Industry,,52.54114944865429,-1.9586717376025498,West Midlands
T/08/09076/R,,SEVERN TRENT WATER LTD,Ray Hall Sand Filters STW,B43 6JE,402900,293700,West Midlands,Controlled Waters,Benzo(a)pyrene,1.0,0.0,Water Industry,Water Industry,,52.54114944865429,-1.9586717376025498,West Midlands
T/12/35338/R,,SEVERN TRENT WATER LTD,Coleshill STW,B46 1NX,419000,291000,West Midlands,Controlled Waters,Benzo(a)pyrene,1.0,0.0,Water Industry,Water Industry,,52.51655670471135,-1.721439707484814,West Midlands
010005,,Wessex Water,BATH (SALTFORD) STW,BS31 3ER,368900,168800,Wessex,Controlled Waters,"Indeno(1,2,3-cd)pyrene",1.0,0.0,Water Industry,Water Industry,,51.41735547857703,-2.448613053184618,South West
010005,,Wessex Water,BATH (SALTFORD) STW,BS31 3ER,368900,168800,Wessex,Controlled Waters,Benzo(a)pyrene,1.0,0.0,Water Industry,Water Industry,,51.41735547857703,-2.448613053184618,South West
T/22/35463/R,,SEVERN TRENT WATER LTD,Tamworth STW,B79 8NN,418560,306760,West Midlands,Controlled Waters,Fluoranthene,0.1,0.0,Water Industry,Water Industry,,52.65824931884184,-1.7270456772332867,West Midlands
T/22/35463/R,,SEVERN TRENT WATER LTD,Tamworth STW,B79 8NN,418560,306760,West Midlands,Controlled Waters,"Indeno(1,2,3-cd)pyrene",1.0,0.0,Water Industry,Water Industry,,52.65824931884184,-1.7270456772332867,West Midlands
T/22/35463/R,,SEVERN TRENT WATER LTD,Tamworth STW,B79 8NN,418560,306760,West Midlands,Controlled Waters,Benzo(a)pyrene,1.0,0.0,Water Industry,Water Industry,,52.65824931884184,-1.7270456772332867,West Midlands
016993399,,UNITED UTILITIES WATER PLC,BIRKENHEAD,,332800,389400,Greater Manchester Merseyside and Cheshire,Controlled Waters,"Indeno(1,2,3-cd)pyrene",1.0,0.0,Water Industry,Water Industry,,53.3971324575507,-3.012083267411799,North West
016993399,,UNITED UTILITIES WATER PLC,BIRKENHEAD,,332800,389400,Greater Manchester Merseyside and Cheshire,Controlled Waters,Benzo(a)pyrene,1.0,0.0,Water Industry,Water Industry,,53.3971324575507,-3.012083267411799,North West
BJ6003IF,"WASTE LANDFILLING; >10 T/D WITH CAPACITY >25,000T EXCLUDING INERT WASTE",Veolia ES Landfill Ltd,New Albion Landfill Site Occupation Road Albert Village Swadlincote Derbyshire,DE11 8HD,429960,316940,West Midlands,Wastewater,Fluoranthene,0.1,0.0,Landfill,Non Hazardous Landfill,,52.74925329206256,-1.557589373302196,East Midlands
BJ6003IF,"WASTE LANDFILLING; >10 T/D WITH CAPACITY >25,000T EXCLUDING INERT WASTE",Veolia ES Landfill Ltd,New Albion Landfill Site Occupation Road Albert Village Swadlincote Derbyshire,DE11 8HD,429960,316940,West Midlands,Wastewater,Benzo(a)pyrene,1.0,0.0,Landfill,Non Hazardous Landfill,,52.74925329206256,-1.557589373302196,East Midlands
S/02/55324/R,,SEVERN TRENT WATER LTD,Shrewsbury Monkmoor STW,SY2 5TL,351840,313580,West Midlands,Controlled Waters,Fluoranthene,0.1,0.0,Water Industry,Water Industry,,52.71771883907314,-2.7144040663322717,West Midlands
S/02/55324/R,,SEVERN TRENT WATER LTD,Shrewsbury Monkmoor STW,SY2 5TL,351840,313580,West Midlands,Controlled Waters,"Indeno(1,2,3-cd)pyrene",1.0,0.0,Water Industry,Water Industry,,52.71771883907314,-2.7144040663322717,West Midlands
S/02/55324/R,,SEVERN TRENT WATER LTD,Shrewsbury Monkmoor STW,SY2 5TL,351840,313580,West Midlands,Controlled Waters,Benzo(a)pyrene,1.0,0.0,Water Industry,Water Industry,,52.71771883907314,-2.7144040663322717,West Midlands
NP3497NN,DISPOSAL OF > 50 T/D NON-HAZARDOUS WASTE (> 100 T/D IF ONLY AD) INVOLVING PHYSICO-CHEMICAL TREATMENT ,Viridor Waste (Thames) Limited,Maple Lodge Denham Way Hertfordshire,WD3 9SQ,504200,192280,Hertfordshire and North London,Wastewater,Fluoranthene,0.1,0.0,Waste treatment,Non Hazardous,,51.619707550941925,-0.4962895605366023,East of England
016810030,,UNITED UTILITIES WATER PLC,ELLESMERE PORT,,343200,374650,Greater Manchester Merseyside and Cheshire,Controlled Waters,Fluoranthene,0.1,0.0,Water Industry,Water Industry,,53.26578798251581,-2.8530490908029025,North West
016810030,,UNITED UTILITIES WATER PLC,ELLESMERE PORT,,343200,374650,Greater Manchester Merseyside and Cheshire,Controlled Waters,"Indeno(1,2,3-cd)pyrene",1.0,0.0,Water Industry,Water Industry,,53.26578798251581,-2.8530490908029025,North West
016810030,,UNITED UTILITIES WATER PLC,ELLESMERE PORT,,343200,374650,Greater Manchester Merseyside and Cheshire,Controlled Waters,Benzo(a)pyrene,1.0,0.0,Water Industry,Water Industry,,53.26578798251581,-2.8530490908029025,North West
100334,,Wessex Water,WESTON SUPER MARE STW,BS24 0AP,331100,156900,Wessex,Controlled Waters,Fluoranthene,0.1,0.0,Water Industry,Water Industry,,51.30702900915634,-2.989811329637559,South West
100334,,Wessex Water,WESTON SUPER MARE STW,BS24 0AP,331100,156900,Wessex,Controlled Waters,"Indeno(1,2,3-cd)pyrene",1.0,0.0,Water Industry,Water Industry,,51.30702900915634,-2.989811329637559,South West
100334,,Wessex Water,WESTON SUPER MARE STW,BS24 0AP,331100,156900,Wessex,Controlled Waters,Benzo(a)pyrene,1.0,0.0,Water Industry,Water Industry,,51.30702900915634,-2.989811329637559,South West
BK6858ID,"WASTE LANDFILLING; >10 T/D WITH CAPACITY >25,000T EXCLUDING INERT WASTE",Viridor Waste Management Limited,Sands Farm Landfill Sand Pit Road Calne Wiltshire,SN11 8TR,401500,170900,Wessex,Wastewater,Fluoranthene,0.1,0.0,Landfill,Non Hazardous Landfill,,51.43709554715196,-1.979810203963303,South West
BK6858ID,"WASTE LANDFILLING; >10 T/D WITH CAPACITY >25,000T EXCLUDING INERT WASTE",Viridor Waste Management Limited,Sands Farm Landfill Sand Pit Road Calne Wiltshire,SN11 8TR,401500,170900,Wessex,Wastewater,Benzo(a)pyrene,1.0,0.0,Landfill,Non Hazardous Landfill,,51.43709554715196,-1.979810203963303,South West
GP3896CS,DISPOSAL OR RECOVERY OF HAZARDOUS WASTE WITH A CAPACITY EXCEEDING 10 TONNES PER DAY INVOLVING PHYSICO-CHEMICAL TREATMENT,G. M. P. Baird Limited,Tonge Bridge Off Hypatia Street Bury Road Lancashire,BL2 6AA,372840,409390,Greater Manchester Merseyside and Cheshire,Wastewater,Benzo(a)pyrene,1.0,0.0,Waste treatment,Metals Recycling,,53.58039312161927,-2.411689852154811,North West
PP3135SU,"WASTE LANDFILLING; >10 T/D WITH CAPACITY >25,000T EXCLUDING INERT WASTE",Tarmac Aggregates Limited,Brittons Hall Farm Landfill Site Chignal St James Chelmsford Essex,CM1 4LT,565960,210120,East Anglia,Wastewater,Fluoranthene,0.1,0.0,Landfill,Non Hazardous Landfill,,51.76516490837623,0.40358913299333465,East of England
PP3135SU,"WASTE LANDFILLING; >10 T/D WITH CAPACITY >25,000T EXCLUDING INERT WASTE",Tarmac Aggregates Limited,Brittons Hall Farm Landfill Site Chignal St James Chelmsford Essex,CM1 4LT,565960,210120,East Anglia,Wastewater,Heptachlor,0.1,0.0,Landfill,Non Hazardous Landfill,,51.76516490837623,0.40358913299333465,East of England
PP3135SU,"WASTE LANDFILLING; >10 T/D WITH CAPACITY >25,000T EXCLUDING INERT WASTE",Tarmac Aggregates Limited,Brittons Hall Farm Landfill Site Chignal St James Chelmsford Essex,CM1 4LT,565960,210120,East Anglia,Wastewater,Benzo(a)pyrene,1.0,0.0,Landfill,Non Hazardous Landfill,,51.76516490837623,0.40358913299333465,East of England
AW2TSE9961-2,,Anglian Water,Chelmsford(Brookend) STW,,584000,208200,East Anglia,Controlled Waters,"Indeno(1,2,3-cd)pyrene",1.0,0.0,Water Industry,Water Industry,,51.74228838586037,0.6637086916015041,East of England
AW2TSE9961-2,,Anglian Water,Chelmsford(Brookend) STW,,584000,208200,East Anglia,Controlled Waters,Benzo(a)pyrene,1.0,0.0,Water Industry,Water Industry,,51.74228838586037,0.6637086916015041,East of England
PP3139DJ,"WASTE LANDFILLING; >10 T/D WITH CAPACITY >25,000T EXCLUDING INERT WASTE",Cory Environmental (Gloucestershire) Limited,Greatness Quarry Integrated Waste Management Facility Farm Road Greatness Sevenoaks Kent,TN14 5BP,553600,157800,"Kent, South London and East Sussex",Wastewater,Fluoranthene,0.1,0.0,Landfill,Non Hazardous Landfill,,51.29860968649326,0.20182225509634116,South East
ASETS1046,,Anglian Water,Colchester(Haven) STW,,602250,223620,East Anglia,Controlled Waters,Fluoranthene,0.1,0.0,Water Industry,Water Industry,,51.874464238124666,0.9366818210860293,East of England
ASETS1046,,Anglian Water,Colchester(Haven) STW,,602250,223620,East Anglia,Controlled Waters,"Indeno(1,2,3-cd)pyrene",1.0,0.0,Water Industry,Water Industry,,51.874464238124666,0.9366818210860293,East of England
ASETS1046,,Anglian Water,Colchester(Haven) STW,,602250,223620,East Anglia,Controlled Waters,Benzo(a)pyrene,1.0,0.0,Water Industry,Water Industry,,51.874464238124666,0.9366818210860293,East of England
016930112,,UNITED UTILITIES WATER PLC,FAZAKERLEY,,339370,396600,Greater Manchester Merseyside and Cheshire,Controlled Waters,Benzo(a)pyrene,1.0,0.0,Water Industry,Water Industry,,53.46263823290822,-2.9146804259264933,North West
25/04/1797,,NORTHUMBRIAN WATER LTD,Stressholme STW,UNKNOWN,428900,510400,North East,Controlled Waters,"Indeno(1,2,3-cd)pyrene",1.0,0.0,Water Industry,Water Industry,,54.48812311522736,-1.555398971427035,North East
25/04/1797,,NORTHUMBRIAN WATER LTD,Stressholme STW,UNKNOWN,428900,510400,North East,Controlled Waters,Benzo(a)pyrene,1.0,0.0,Water Industry,Water Industry,,54.48812311522736,-1.555398971427035,North East
CNTW.0890,,Anglian Water,BASILDON,,573700,187400,East Anglia,Controlled Waters,Fluoranthene,0.1,0.0,Water Industry,Water Industry,,51.55873510304531,0.5043570910085773,
CNTW.0890,,Anglian Water,BASILDON,,573700,187400,East Anglia,Controlled Waters,"Indeno(1,2,3-cd)pyrene",1.0,0.0,Water Industry,Water Industry,,51.55873510304531,0.5043570910085773,
CNTW.0890,,Anglian Water,BASILDON,,573700,187400,East Anglia,Controlled Waters,Benzo(a)pyrene,1.0,0.0,Water Industry,Water Industry,,51.55873510304531,0.5043570910085773,
BU9084IJ,"WASTE LANDFILLING; >10 T/D WITH CAPACITY >25,000T EXCLUDING INERT WASTE",Veolia ES Landfill Limited,"Candles Landfill Site 1 Dog Lane New Works,Little Wenlock Telford Shropshire",TF6 5AR,366400,307700,West Midlands,Wastewater,Benzo(a)pyrene,1.0,0.0,Landfill,Non Hazardous Landfill,,52.66596490521382,-2.4982645181848158,West Midlands
BU9084IJ,"WASTE LANDFILLING; >10 T/D WITH CAPACITY >25,000T EXCLUDING INERT WASTE",Veolia ES Landfill Limited,"Candles Landfill Site 1 Dog Lane New Works,Little Wenlock Telford Shropshire",TF6 5AR,366400,307700,West Midlands,Wastewater,Fluoranthene,0.1,0.0,Landfill,Non Hazardous Landfill,,52.66596490521382,-2.4982645181848158,West Midlands
BW0231IH,"WASTE LANDFILLING; >10 T/D WITH CAPACITY >25,000T EXCLUDING INERT WASTE",Water Hall (England) Ltd,Southfield Wood Landfill Lower Hatfield Road Hertford Hertfordshire,SG13 8LF,529800,209500,Hertfordshire and North London,Wastewater,Fluoranthene,0.1,0.0,Landfill,Non Hazardous Landfill,,51.769136712852934,-0.1203044782060673,East of England
BW0231IH,"WASTE LANDFILLING; >10 T/D WITH CAPACITY >25,000T EXCLUDING INERT WASTE",Water Hall (England) Ltd,Southfield Wood Landfill Lower Hatfield Road Hertford Hertfordshire,SG13 8LF,529800,209500,Hertfordshire and North London,Wastewater,Heptachlor,0.1,0.0,Landfill,Non Hazardous Landfill,,51.769136712852934,-0.1203044782060673,East of England
BW0231IH,"WASTE LANDFILLING; >10 T/D WITH CAPACITY >25,000T EXCLUDING INERT WASTE",Water Hall (England) Ltd,Southfield Wood Landfill Lower Hatfield Road Hertford Hertfordshire,SG13 8LF,529800,209500,Hertfordshire and North London,Wastewater,"Indeno(1,2,3-cd)pyrene",1.0,0.0,Landfill,Non Hazardous Landfill,,51.769136712852934,-0.1203044782060673,East of England
BW0231IH,"WASTE LANDFILLING; >10 T/D WITH CAPACITY >25,000T EXCLUDING INERT WASTE",Water Hall (England) Ltd,Southfield Wood Landfill Lower Hatfield Road Hertford Hertfordshire,SG13 8LF,529800,209500,Hertfordshire and North London,Wastewater,Benzo(a)pyrene,1.0,0.0,Landfill,Non Hazardous Landfill,,51.769136712852934,-0.1203044782060673,East of England
BW0231IH,"WASTE LANDFILLING; >10 T/D WITH CAPACITY >25,000T EXCLUDING INERT WASTE",Water Hall (England) Ltd,Southfield Wood Landfill Lower Hatfield Road Hertford Hertfordshire,SG13 8LF,529800,209500,Hertfordshire and North London,Wastewater,Cypermethrin,0.005,0.0,Landfill,Non Hazardous Landfill,1.3e-05,51.769136712852934,-0.1203044782060673,East of England
T/24/35514/R,,SEVERN TRENT WATER LTD,Claymills Chp Plant Meadow Lane Clay Mills Nr Burton Staffordshire,DE13 0DB,426270,325780,West Midlands,Controlled Waters,"Indeno(1,2,3-cd)pyrene",1.0,0.0,Water Industry,Water Industry,,52.82890968304119,-1.6115476620963551,West Midlands
T/24/35514/R,,SEVERN TRENT WATER LTD,Claymills Chp Plant Meadow Lane Clay Mills Nr Burton Staffordshire,DE13 0DB,426270,325780,West Midlands,Controlled Waters,Benzo(a)pyrene,1.0,0.0,Water Industry,Water Industry,,52.82890968304119,-1.6115476620963551,West Midlands
AW5NF5179,,Anglian Water,Corby STW,,490600,288900,Lincolnshire and Northamptonshire,Controlled Waters,Fluoranthene,0.1,0.0,Water Industry,Water Industry,,52.49050019877511,-0.6670770268978701,East Midlands
AW5NF5179,,Anglian Water,Corby STW,,490600,288900,Lincolnshire and Northamptonshire,Controlled Waters,"Indeno(1,2,3-cd)pyrene",1.0,0.0,Water Industry,Water Industry,,52.49050019877511,-0.6670770268978701,East Midlands
AW5NF5179,,Anglian Water,Corby STW,,490600,288900,Lincolnshire and Northamptonshire,Controlled Waters,Benzo(a)pyrene,1.0,0.0,Water Industry,Water Industry,,52.49050019877511,-0.6670770268978701,East Midlands
AW4TF1789,,Anglian Water,Whitlingham(Norwich) STW,,627800,307700,East Anglia,Controlled Waters,Benzo(a)pyrene,1.0,0.0,Water Industry,Water Industry,,52.61924889217021,1.363855620576636,East of England
AEETS12128,,Anglian Water,Cliff Quay(Ipswich) STW,,617200,241900,East Anglia,Controlled Waters,Fluoranthene,0.1,0.0,Water Industry,Water Industry,,52.03294921607046,1.1650600695103228,East of England
AEETS12128,,Anglian Water,Cliff Quay(Ipswich) STW,,617200,241900,East Anglia,Controlled Waters,"Indeno(1,2,3-cd)pyrene",1.0,0.0,Water Industry,Water Industry,,52.03294921607046,1.1650600695103228,East of England
AEETS12128,,Anglian Water,Cliff Quay(Ipswich) STW,,617200,241900,East Anglia,Controlled Waters,Benzo(a)pyrene,1.0,0.0,Water Industry,Water Industry,,52.03294921607046,1.1650600695103228,East of England
RP3434HP,"WASTE LANDFILLING; >10 T/D WITH CAPACITY >25,000T EXCLUDING INERT WASTE",Sahaviriya Steel Industries UK Limited,Teeside Integrated Iron and Steelworks Steel House Redcar Teesside Cleveland,TS10 5QW,457690,524150,North East,Wastewater,Heptachlor,0.1,0.0,Landfill,Non Hazardous Landfill,,54.609227171624504,-1.1083403642506415,North East
ANNNF2073,,Anglian Water,Lincoln(Canwick) STW,,499810,370880,Lincolnshire and Northamptonshire,Controlled Waters,Fluoranthene,0.1,0.0,Water Industry,Water Industry,,53.225598232515246,-0.5063982784808474,East Midlands
ANNNF2073,,Anglian Water,Lincoln(Canwick) STW,,499810,370880,Lincolnshire and Northamptonshire,Controlled Waters,"Indeno(1,2,3-cd)pyrene",1.0,0.0,Water Industry,Water Industry,,53.225598232515246,-0.5063982784808474,East Midlands
ANNNF2073,,Anglian Water,Lincoln(Canwick) STW,,499810,370880,Lincolnshire and Northamptonshire,Controlled Waters,Benzo(a)pyrene,1.0,0.0,Water Industry,Water Industry,,53.225598232515246,-0.5063982784808474,East Midlands
AWNNF13052,,Anglian Water,Great Billing STW,,483280,261550,Lincolnshire and Northamptonshire,Controlled Waters,Benzo(a)pyrene,1.0,0.0,Water Industry,Water Industry,,52.2458410921532,-0.7816391496402058,East Midlands
WP3438KV,"WASTE LANDFILLING; >10 T/D WITH CAPACITY >25,000T EXCLUDING INERT WASTE",Veolia ES Landfill Limited,Springfield Farm Landfill Broad Lane Beaconsfield Buckinghamshire,HP9 1XD,493020,189290,Hertfordshire and North London,Wastewater,Fluoranthene,0.1,0.0,Landfill,Non Hazardous Landfill,,51.59478747457934,-0.6585197457601328,South East
WP3438KV,"WASTE LANDFILLING; >10 T/D WITH CAPACITY >25,000T EXCLUDING INERT WASTE",Veolia ES Landfill Limited,Springfield Farm Landfill Broad Lane Beaconsfield Buckinghamshire,HP9 1XD,493020,189290,Hertfordshire and North London,Wastewater,Benzo(a)pyrene,1.0,0.0,Landfill,Non Hazardous Landfill,,51.59478747457934,-0.6585197457601328,South East
AW3TS519,,Anglian Water,Pyewipe (Grimsby) STW,,528280,413140,Lincolnshire and Northamptonshire,Controlled Waters,"Indeno(1,2,3-cd)pyrene",1.0,0.0,Water Industry,Water Industry,,53.599134825406814,-0.06300357585157099,
AW3TS519,,Anglian Water,Pyewipe (Grimsby) STW,,528280,413140,Lincolnshire and Northamptonshire,Controlled Waters,Benzo(a)pyrene,1.0,0.0,Water Industry,Water Industry,,53.599134825406814,-0.06300357585157099,
254/1966,,NORTHUMBRIAN WATER LTD,SEATON CAREW STW,,451929,527633,North East,Controlled Waters,Fluoranthene,0.1,0.0,Water Industry,Water Industry,,54.64114858402242,-1.1969077077554877,North East
254/1966,,NORTHUMBRIAN WATER LTD,SEATON CAREW STW,,451929,527633,North East,Controlled Waters,"Indeno(1,2,3-cd)pyrene",1.0,0.0,Water Industry,Water Industry,,54.64114858402242,-1.1969077077554877,North East
254/1966,,NORTHUMBRIAN WATER LTD,SEATON CAREW STW,,451929,527633,North East,Controlled Waters,Benzo(a)pyrene,1.0,0.0,Water Industry,Water Industry,,54.64114858402242,-1.1969077077554877,North East
LP3232ZM,"PAPER, PULP AND BOARD; PRODUCING PAPER/BOARD >20T/D",Northwood Tissue (Lancaster) Limited,Np. Lancaster Tissue Lansil Way Lansil Industrial Estate,LA1 3QY,348510,463390,Cumbria and Lancashire,Wastewater,Cypermethrin,0.005,0.0,Paper and textiles,Paper & Pulp,1.3e-05,54.06386589165328,-2.788194076139218,North West
WP3537ZG,"WASTE LANDFILLING; >10 T/D WITH CAPACITY >25,000T EXCLUDING INERT WASTE",Octagon Green Solutions Limited,Blaydon Quarry Landfill Lead Road Greenside Blaydon Tyne And Wear,NE21 4SX,416200,562600,North East,Wastewater,Fluoranthene,0.1,0.0,Landfill,Non Hazardous Landfill,,54.957778986691466,-1.748554312041601,North East
WP3537ZG,"WASTE LANDFILLING; >10 T/D WITH CAPACITY >25,000T EXCLUDING INERT WASTE",Octagon Green Solutions Limited,Blaydon Quarry Landfill Lead Road Greenside Blaydon Tyne And Wear,NE21 4SX,416200,562600,North East,Wastewater,Heptachlor,0.1,0.0,Landfill,Non Hazardous Landfill,,54.957778986691466,-1.748554312041601,North East
WP3537ZG,"WASTE LANDFILLING; >10 T/D WITH CAPACITY >25,000T EXCLUDING INERT WASTE",Octagon Green Solutions Limited,Blaydon Quarry Landfill Lead Road Greenside Blaydon Tyne And Wear,NE21 4SX,416200,562600,North East,Wastewater,Benzo(a)pyrene,1.0,0.0,Landfill,Non Hazardous Landfill,,54.957778986691466,-1.748554312041601,North East
TP3039RN,DISPOSAL OR RECOVERY OF HAZ WASTE WITH CAPACITY EXCEEDING 10 TONNES PER DAY INVOLVING BLENDING OR MIXING PRIOR TO SUBMISSION TO ANY OF THE OTHER ACTIVITIES LISTED IN THIS SECTION OR IN SECTION 5.1,Biffa Waste Services Limited,Sheffield Waste Management Centre Holbrook Rise Holbrook Industrial Estate Sheffield South Yorkshire,S20 3FG,443960,381520,Yorkshire,Controlled Waters,Cypermethrin,0.005,0.0,Waste treatment,Hazardous,1.3e-05,53.3287775516293,-1.3414119869477663,Yorkshire and The Humber
