AUTHORISATION ID / PERMIT ID,ACTIVITY DESCRIPTION,OPERATOR NAME,SITE ADDRESS,SITE POSTCODE,EASTING,NORTHING,EA AREA NAME,ROUTE NAME,SUBSTANCE NAME,REPORTING THRESHOLD (kg),QUANTITY RELEASED (kg),REGULATED INDUSTRY SECTOR,REGULATED INDUSTRY SUB SECTOR,PNEC (Âµg/L),Latitude,Longitude,REGION
TP3735PA,"WASTE LANDFILLING; >10 T/D WITH CAPACITY >25,000T EXCLUDING INERT WASTE",Stonegrave Aggregates Limited,Aycliffe Quarry Landfill Site Aycliffe Quarry Aycliffe Villiage Darlington County Durham,DL5 6NB,428650.0,522060.0,North East,Wastewater,Fluoranthene,0.1,0.0,Landfill,Non Hazardous Landfill,,54.59292067733982,-1.5581279909370136,North East
TP3735PA,"WASTE LANDFILLING; >10 T/D WITH CAPACITY >25,000T EXCLUDING INERT WASTE",Stonegrave Aggregates Limited,Aycliffe Quarry Landfill Site Aycliffe Quarry Aycliffe Villiage Darlington County Durham,DL5 6NB,428650.0,522060.0,North East,Wastewater,Heptachlor,0.1,0.0,Landfill,Non Hazardous Landfill,,54.59292067733982,-1.5581279909370136,North East
TP3735PA,"WASTE LANDFILLING; >10 T/D WITH CAPACITY >25,000T EXCLUDING INERT WASTE",Stonegrave Aggregates Limited,Aycliffe Quarry Landfill Site Aycliffe Quarry Aycliffe Villiage Darlington County Durham,DL5 6NB,428650.0,522060.0,North East,Wastewater,"Indeno(1,2,3-cd)pyrene",1.0,0.0,Landfill,Non Hazardous Landfill,,54.59292067733982,-1.5581279909370136,North East
TP3735PA,"WASTE LANDFILLING; >10 T/D WITH CAPACITY >25,000T EXCLUDING INERT WASTE",Stonegrave Aggregates Limited,Aycliffe Quarry Landfill Site Aycliffe Quarry Aycliffe Villiage Darlington County Durham,DL5 6NB,428650.0,522060.0,North East,Wastewater,Benzo(a)pyrene,1.0,0.0,Landfill,Non Hazardous Landfill,,54.59292067733982,-1.5581279909370136,North East
VP3936UG,DISPOSAL OR RECOVERY OF HAZ WASTE WITH  CAPACITY EXCEEDING 10 TONNES PER DAY INVOLVING REPACKAGING PRIOR TO SUBMISSION TO ANY OF THE OTHER ACTIVITIES LISTED IN THIS SECTION OR IN SECTION 5.1,Future Industrial Services Limited,Acornfield Road Waste Management Centre Acornfield Road Knowsley Industrial Park Merseyside,L33 7UF,343780.0,398870.0,Greater Manchester Merseyside and Cheshire,Wastewater,"Indeno(1,2,3-cd)pyrene",1.0,0.0,Waste Treatment,Hazardous,,53.48352987187417,-2.848672100515867,North West
VP3936UG,DISPOSAL OR RECOVERY OF HAZ WASTE WITH  CAPACITY EXCEEDING 10 TONNES PER DAY INVOLVING REPACKAGING PRIOR TO SUBMISSION TO ANY OF THE OTHER ACTIVITIES LISTED IN THIS SECTION OR IN SECTION 5.1,Future Industrial Services Limited,Acornfield Road Waste Management Centre Acornfield Road Knowsley Industrial Park Merseyside,L33 7UF,343780.0,398870.0,Greater Manchester Merseyside and Cheshire,Wastewater,Benzo(a)pyrene,1.0,0.0,Waste Treatment,Hazardous,,53.48352987187417,-2.848672100515867,North West
VP3936UG,DISPOSAL OR RECOVERY OF HAZ WASTE WITH  CAPACITY EXCEEDING 10 TONNES PER DAY INVOLVING REPACKAGING PRIOR TO SUBMISSION TO ANY OF THE OTHER ACTIVITIES LISTED IN THIS SECTION OR IN SECTION 5.1,Future Industrial Services Limited,Acornfield Road Waste Management Centre Acornfield Road Knowsley Industrial Park Merseyside,L33 7UF,343780.0,398870.0,Greater Manchester Merseyside and Cheshire,Wastewater,Cypermethrin,0.005,0.0,Waste Treatment,Hazardous,1.3e-05,53.48352987187417,-2.848672100515867,North West
VP3936UG,DISPOSAL OR RECOVERY OF HAZ WASTE WITH  CAPACITY EXCEEDING 10 TONNES PER DAY INVOLVING REPACKAGING PRIOR TO SUBMISSION TO ANY OF THE OTHER ACTIVITIES LISTED IN THIS SECTION OR IN SECTION 5.1,Future Industrial Services Limited,Acornfield Road Waste Management Centre Acornfield Road Knowsley Industrial Park Merseyside,L33 7UF,343780.0,398870.0,Greater Manchester Merseyside and Cheshire,Wastewater,Fluoranthene,0.1,0.0,Waste Treatment,Hazardous,,53.48352987187417,-2.848672100515867,North West
VP3936UG,DISPOSAL OR RECOVERY OF HAZ WASTE WITH  CAPACITY EXCEEDING 10 TONNES PER DAY INVOLVING REPACKAGING PRIOR TO SUBMISSION TO ANY OF THE OTHER ACTIVITIES LISTED IN THIS SECTION OR IN SECTION 5.1,Future Industrial Services Limited,Acornfield Road Waste Management Centre Acornfield Road Knowsley Industrial Park Merseyside,L33 7UF,343780.0,398870.0,Greater Manchester Merseyside and Cheshire,Wastewater,Heptachlor,0.1,0.0,Waste Treatment,Hazardous,,53.48352987187417,-2.848672100515867,North West
CTCR.2079,,THAMES WATER UTILITIES LTD,WARGRAVE STW,RG10 8DJ,477900.0,177600.0,Thames,Controlled Waters,Fluoranthene,0.1,0.0,Water Industry,Water Industry,,51.49198901553675,-0.8793330420546939,South East
CTCR.2079,,THAMES WATER UTILITIES LTD,WARGRAVE STW,RG10 8DJ,477900.0,177600.0,Thames,Controlled Waters,"Indeno(1,2,3-cd)pyrene",1.0,0.0,Water Industry,Water Industry,,51.49198901553675,-0.8793330420546939,South East
CTCR.2079,,THAMES WATER UTILITIES LTD,WARGRAVE STW,RG10 8DJ,477900.0,177600.0,Thames,Controlled Waters,Benzo(a)pyrene,1.0,0.0,Water Industry,Water Industry,,51.49198901553675,-0.8793330420546939,South East
VP3130BK,"WASTE LANDFILLING; >10 T/D WITH CAPACITY >25,000T EXCLUDING INERT WASTE",ALAB ENVIRONMENTAL SERVICES LIMITED,NETTLETON BOTTOM QUARRY Rothwell Lincolnshire,LN7 6SR,512730.0,397880.0,Lincolnshire and Northamptonshire,Controlled Waters,Cypermethrin,0.005,0.0,Landfill,Non Hazardous Landfill,1.3e-05,53.465604474949615,-0.3033515364568991,East Midlands
VP3130BK,"WASTE LANDFILLING; >10 T/D WITH CAPACITY >25,000T EXCLUDING INERT WASTE",ALAB ENVIRONMENTAL SERVICES LIMITED,NETTLETON BOTTOM QUARRY Rothwell Lincolnshire,LN7 6SR,512730.0,397880.0,Lincolnshire and Northamptonshire,Controlled Waters,"Indeno(1,2,3-cd)pyrene",1.0,0.0,Landfill,Non Hazardous Landfill,,53.465604474949615,-0.3033515364568991,East Midlands
VP3130BK,"WASTE LANDFILLING; >10 T/D WITH CAPACITY >25,000T EXCLUDING INERT WASTE",ALAB ENVIRONMENTAL SERVICES LIMITED,NETTLETON BOTTOM QUARRY Rothwell Lincolnshire,LN7 6SR,512730.0,397880.0,Lincolnshire and Northamptonshire,Controlled Waters,Fluoranthene,0.1,0.0,Landfill,Non Hazardous Landfill,,53.465604474949615,-0.3033515364568991,East Midlands
VP3130BK,"WASTE LANDFILLING; >10 T/D WITH CAPACITY >25,000T EXCLUDING INERT WASTE",ALAB ENVIRONMENTAL SERVICES LIMITED,NETTLETON BOTTOM QUARRY Rothwell Lincolnshire,LN7 6SR,512730.0,397880.0,Lincolnshire and Northamptonshire,Controlled Waters,Heptachlor,0.1,0.0,Landfill,Non Hazardous Landfill,,53.465604474949615,-0.3033515364568991,East Midlands
VP3130BK,"WASTE LANDFILLING; >10 T/D WITH CAPACITY >25,000T EXCLUDING INERT WASTE",ALAB ENVIRONMENTAL SERVICES LIMITED,NETTLETON BOTTOM QUARRY Rothwell Lincolnshire,LN7 6SR,512730.0,397880.0,Lincolnshire and Northamptonshire,Controlled Waters,Benzo(a)pyrene,1.0,0.0,Landfill,Non Hazardous Landfill,,53.465604474949615,-0.3033515364568991,East Midlands
255/1144,,NORTHUMBRIAN WATER LTD,HENDON STW,SR1 2ES,441049.0,555891.0,North East,Controlled Waters,Fluoranthene,0.1,0.19,Water Industry,Water Industry,,54.89607337586726,-1.361489978558213,North East
255/1144,,NORTHUMBRIAN WATER LTD,HENDON STW,SR1 2ES,441049.0,555891.0,North East,Controlled Waters,"Indeno(1,2,3-cd)pyrene",1.0,1.06,Water Industry,Water Industry,,54.89607337586726,-1.361489978558213,North East
255/1144,,NORTHUMBRIAN WATER LTD,HENDON STW,SR1 2ES,441049.0,555891.0,North East,Controlled Waters,Benzo(a)pyrene,1.0,0.0,Water Industry,Water Industry,,54.89607337586726,-1.361489978558213,North East
ZP3933LD,"WASTE LANDFILLING; >10 T/D WITH CAPACITY >25,000T EXCLUDING INERT WASTE",Severn Waste Services Limited,"Hill and Moor Landfill Site Piddle Brook Lane Wyre Piddle,Pershore Worcester Worcestershire",WR10 2LW,396900.0,248400.0,West Midlands,Wastewater,Fluoranthene,0.1,1.56,Landfill,Non Hazardous Landfill,,52.13389224398506,-2.046705579413225,West Midlands
ZP3933LD,"WASTE LANDFILLING; >10 T/D WITH CAPACITY >25,000T EXCLUDING INERT WASTE",Severn Waste Services Limited,"Hill and Moor Landfill Site Piddle Brook Lane Wyre Piddle,Pershore Worcester Worcestershire",WR10 2LW,396900.0,248400.0,West Midlands,Wastewater,"Indeno(1,2,3-cd)pyrene",1.0,1.56,Landfill,Non Hazardous Landfill,,52.13389224398506,-2.046705579413225,West Midlands
ZP3933LD,"WASTE LANDFILLING; >10 T/D WITH CAPACITY >25,000T EXCLUDING INERT WASTE",Severn Waste Services Limited,"Hill and Moor Landfill Site Piddle Brook Lane Wyre Piddle,Pershore Worcester Worcestershire",WR10 2LW,396900.0,248400.0,West Midlands,Wastewater,Benzo(a)pyrene,1.0,1.6,Landfill,Non Hazardous Landfill,,52.13389224398506,-2.046705579413225,West Midlands
A.787/S/CH/97,,Southern Water,Ford (Bognor/Littlehampton) STW,BN18 0HY,499490.0,103030.0,Solent and South Downs,Controlled Waters,Fluoranthene,0.1,0.11,Water Industry,Water Industry,,50.81827977333457,-0.5890396595351772,South East
A.787/S/CH/97,,Southern Water,Ford (Bognor/Littlehampton) STW,BN18 0HY,499490.0,103030.0,Solent and South Downs,Controlled Waters,"Indeno(1,2,3-cd)pyrene",1.0,0.0,Water Industry,Water Industry,,50.81827977333457,-0.5890396595351772,South East
A.787/S/CH/97,,Southern Water,Ford (Bognor/Littlehampton) STW,BN18 0HY,499490.0,103030.0,Solent and South Downs,Controlled Waters,Benzo(a)pyrene,1.0,0.0,Water Industry,Water Industry,,50.81827977333457,-0.5890396595351772,South East
A1106/S/P/99,,Southern Water,Langley Point STW - Eastbourne,BN21 1SA,564120.0,100950.0,Solent and South Downs,Controlled Waters,Fluoranthene,0.1,0.0,Water Industry,Water Industry,,50.78489824292885,0.3268494282698041,South East
A1106/S/P/99,,Southern Water,Langley Point STW - Eastbourne,BN21 1SA,564120.0,100950.0,Solent and South Downs,Controlled Waters,"Indeno(1,2,3-cd)pyrene",1.0,0.0,Water Industry,Water Industry,,50.78489824292885,0.3268494282698041,South East
A1106/S/P/99,,Southern Water,Langley Point STW - Eastbourne,BN21 1SA,564120.0,100950.0,Solent and South Downs,Controlled Waters,Benzo(a)pyrene,1.0,0.0,Water Industry,Water Industry,,50.78489824292885,0.3268494282698041,South East
016810068,,UNITED UTILITIES WATER PLC,CREWE,,366690.0,357370.0,Greater Manchester Merseyside and Cheshire,Controlled Waters,Fluoranthene,0.1,0.16,Water Industry,Water Industry,,53.11246624481476,-2.4990809771256637,North West
016810068,,UNITED UTILITIES WATER PLC,CREWE,,366690.0,357370.0,Greater Manchester Merseyside and Cheshire,Controlled Waters,"Indeno(1,2,3-cd)pyrene",1.0,0.0,Water Industry,Water Industry,,53.11246624481476,-2.4990809771256637,North West
016810068,,UNITED UTILITIES WATER PLC,CREWE,,366690.0,357370.0,Greater Manchester Merseyside and Cheshire,Controlled Waters,Benzo(a)pyrene,1.0,0.0,Water Industry,Water Industry,,53.11246624481476,-2.4990809771256637,North West
BS6025IF,"COATING, PRINTING AND TEXTILES; PRE-TREATING BY WASHING ETC >10T/DAY",WHITAKER FIBRES LTD,Howarth Scouring Co Wool Scourers CASHMERE WORKS BIRKSLAND STREET WEST YORKSHIRE,BD3 9SX,417800.0,432700.0,Yorkshire,Wastewater,Cypermethrin,0.005,0.232,Paper and textiles,Textiles,1.3e-05,53.79031504661774,-1.731294248366148,Yorkshire and The Humber
BJ7620ID,"PAPER, PULP AND BOARD; PRODUCING PULP FROM TIMBER ETC",JAMES CROPPER PLC,Burneside Paper Mill Burneside Cumbria,LA9 6PZ,350600.0,495880.0,Cumbria and Lancashire,Wastewater,Cypermethrin,0.005,0.0,Paper and textiles,Paper & Pulp,1.3e-05,54.356043793927604,-2.7616188737668255,North West
S/06/55232/R,,SEVERN TRENT WATER LTD,Roundhill Sewage Treatment Wor Gibbett Lane Kinver West Midlands,DY7 6PX,303870.0,202830.0,West Midlands,Controlled Waters,Fluoranthene,0.1,0.2,Water Industry,Water Industry,,51.71593199808987,-3.392880616414023,
S/06/55232/R,,SEVERN TRENT WATER LTD,Roundhill Sewage Treatment Wor Gibbett Lane Kinver West Midlands,DY7 6PX,303870.0,202830.0,West Midlands,Controlled Waters,"Indeno(1,2,3-cd)pyrene",1.0,1.12,Water Industry,Water Industry,,51.71593199808987,-3.392880616414023,
S/06/55232/R,,SEVERN TRENT WATER LTD,Roundhill Sewage Treatment Wor Gibbett Lane Kinver West Midlands,DY7 6PX,303870.0,202830.0,West Midlands,Controlled Waters,Benzo(a)pyrene,1.0,0.0,Water Industry,Water Industry,,51.71593199808987,-3.392880616414023,
SP3832VR,DISPOSAL OR RECOVERY OF HAZARDOUS WASTE WITH A CAPACITY EXCEEDING 10 TONNES PER DAY INVOLVING PHYSICO-CHEMICAL TREATMENT,Greenway Environmental Limited,Hinckley Hazardous Waste Transfer Station Watling Street Hinckley Leicestershire,LE10 3ED,440410.0,292740.0,West Midlands,Wastewater,Benzo(a)pyrene,1.0,0.0,Waste Treatment,Hazardous,,52.53103593992957,-1.4057374487695664,West Midlands
SP3832VR,DISPOSAL OR RECOVERY OF HAZARDOUS WASTE WITH A CAPACITY EXCEEDING 10 TONNES PER DAY INVOLVING PHYSICO-CHEMICAL TREATMENT,Greenway Environmental Limited,Hinckley Hazardous Waste Transfer Station Watling Street Hinckley Leicestershire,LE10 3ED,440410.0,292740.0,West Midlands,Wastewater,Cypermethrin,0.005,0.0,Waste Treatment,Hazardous,1.3e-05,52.53103593992957,-1.4057374487695664,West Midlands
SP3832VR,DISPOSAL OR RECOVERY OF HAZARDOUS WASTE WITH A CAPACITY EXCEEDING 10 TONNES PER DAY INVOLVING PHYSICO-CHEMICAL TREATMENT,Greenway Environmental Limited,Hinckley Hazardous Waste Transfer Station Watling Street Hinckley Leicestershire,LE10 3ED,440410.0,292740.0,West Midlands,Wastewater,Fluoranthene,0.1,0.0,Waste Treatment,Hazardous,,52.53103593992957,-1.4057374487695664,West Midlands
SP3832VR,DISPOSAL OR RECOVERY OF HAZARDOUS WASTE WITH A CAPACITY EXCEEDING 10 TONNES PER DAY INVOLVING PHYSICO-CHEMICAL TREATMENT,Greenway Environmental Limited,Hinckley Hazardous Waste Transfer Station Watling Street Hinckley Leicestershire,LE10 3ED,440410.0,292740.0,West Midlands,Wastewater,Heptachlor,0.1,0.0,Waste Treatment,Hazardous,,52.53103593992957,-1.4057374487695664,West Midlands
SP3832VR,DISPOSAL OR RECOVERY OF HAZARDOUS WASTE WITH A CAPACITY EXCEEDING 10 TONNES PER DAY INVOLVING PHYSICO-CHEMICAL TREATMENT,Greenway Environmental Limited,Hinckley Hazardous Waste Transfer Station Watling Street Hinckley Leicestershire,LE10 3ED,440410.0,292740.0,West Midlands,Wastewater,"Indeno(1,2,3-cd)pyrene",1.0,0.0,Waste Treatment,Hazardous,,52.53103593992957,-1.4057374487695664,West Midlands
S/06/55146/R,,SEVERN TRENT WATER LTD,Kidderminster STW Oldington,DY11 7QL,382560.0,273750.0,West Midlands,Controlled Waters,Fluoranthene,0.1,0.0,Water Industry,Water Industry,,52.36152489215104,-2.2575251882964498,West Midlands
S/06/55146/R,,SEVERN TRENT WATER LTD,Kidderminster STW Oldington,DY11 7QL,382560.0,273750.0,West Midlands,Controlled Waters,"Indeno(1,2,3-cd)pyrene",1.0,0.0,Water Industry,Water Industry,,52.36152489215104,-2.2575251882964498,West Midlands
S/06/55146/R,,SEVERN TRENT WATER LTD,Kidderminster STW Oldington,DY11 7QL,382560.0,273750.0,West Midlands,Controlled Waters,Benzo(a)pyrene,1.0,0.0,Water Industry,Water Industry,,52.36152489215104,-2.2575251882964498,West Midlands
S/11/25151/R,,SEVERN TRENT WATER LTD,Coventry (Finham) STW,CV3 6SD,433600.0,273700.0,West Midlands,Controlled Waters,Fluoranthene,0.1,0.44,Water Industry,Water Industry,,52.3603336558624,-1.5080303048358552,West Midlands
S/11/25151/R,,SEVERN TRENT WATER LTD,Coventry (Finham) STW,CV3 6SD,433600.0,273700.0,West Midlands,Controlled Waters,"Indeno(1,2,3-cd)pyrene",1.0,2.53,Water Industry,Water Industry,,52.3603336558624,-1.5080303048358552,West Midlands
S/11/25151/R,,SEVERN TRENT WATER LTD,Coventry (Finham) STW,CV3 6SD,433600.0,273700.0,West Midlands,Controlled Waters,Benzo(a)pyrene,1.0,1.95,Water Industry,Water Industry,,52.3603336558624,-1.5080303048358552,West Midlands
S/10/25304/R,,SEVERN TRENT WATER LTD,Rugby STW,CV21 1HF,449420.0,276350.0,West Midlands,Controlled Waters,Fluoranthene,0.1,0.0,Water Industry,Water Industry,,52.38296080740317,-1.2753513894561017,West Midlands
S/10/25304/R,,SEVERN TRENT WATER LTD,Rugby STW,CV21 1HF,449420.0,276350.0,West Midlands,Controlled Waters,"Indeno(1,2,3-cd)pyrene",1.0,0.0,Water Industry,Water Industry,,52.38296080740317,-1.2753513894561017,West Midlands
S/10/25304/R,,SEVERN TRENT WATER LTD,Rugby STW,CV21 1HF,449420.0,276350.0,West Midlands,Controlled Waters,Benzo(a)pyrene,1.0,0.0,Water Industry,Water Industry,,52.38296080740317,-1.2753513894561017,West Midlands
CNTD.0084,,THAMES WATER UTILITIES LTD,LUTON STW,LU1 5TS,512300.0,217800.0,Hertfordshire and North London,Controlled Waters,Fluoranthene,0.1,0.12,Water Industry,Water Industry,,51.84751209537345,-0.37111353457588714,East of England
CNTD.0084,,THAMES WATER UTILITIES LTD,LUTON STW,LU1 5TS,512300.0,217800.0,Hertfordshire and North London,Controlled Waters,"Indeno(1,2,3-cd)pyrene",1.0,0.0,Water Industry,Water Industry,,51.84751209537345,-0.37111353457588714,East of England
CNTD.0084,,THAMES WATER UTILITIES LTD,LUTON STW,LU1 5TS,512300.0,217800.0,Hertfordshire and North London,Controlled Waters,Benzo(a)pyrene,1.0,0.0,Water Industry,Water Industry,,51.84751209537345,-0.37111353457588714,East of England
UP3930NF,DISPOSAL OR RECOVERY OF HAZARDOUS WASTE WITH A CAPACITY EXCEEDING 10 TONNES PER DAY INVOLVING RECYCLING OR RECLAMATION OF INORGANIC MATERIALS OTHER THAN METALS OR METAL COMPOUNDS,Aggregate Industries Limited,Former Tinsley Sidings Europa Link Road Sheffield South Yorkshire,S9 1HF,439750.0,391300.0,Yorkshire,Wastewater,Benzo(a)pyrene,1.0,0.0,Waste Treatment,Hazardous,,53.41701327797738,-1.4033937436896644,Yorkshire and The Humber
CNTD.0072,,THAMES WATER UTILITIES LTD,DEEPHAMS STW,N9 0BA,535660.0,193170.0,Hertfordshire and North London,Controlled Waters,Fluoranthene,0.1,0.67,Water Industry,Water Industry,,51.62100912681586,-0.04177690146433094,London
CNTD.0072,,THAMES WATER UTILITIES LTD,DEEPHAMS STW,N9 0BA,535660.0,193170.0,Hertfordshire and North London,Controlled Waters,"Indeno(1,2,3-cd)pyrene",1.0,3.79,Water Industry,Water Industry,,51.62100912681586,-0.04177690146433094,London
CNTD.0072,,THAMES WATER UTILITIES LTD,DEEPHAMS STW,N9 0BA,535660.0,193170.0,Hertfordshire and North London,Controlled Waters,Benzo(a)pyrene,1.0,2.93,Water Industry,Water Industry,,51.62100912681586,-0.04177690146433094,London
UP3139BB,"WASTE LANDFILLING; >10 T/D WITH CAPACITY >25,000T EXCLUDING INERT WASTE",Viridor Waste (Somerset) Ltd,Dimmer Landfill Site Dimmer Lane Dimmer Landfill Site Dimmer Somerset,BA7 7NR,361260.0,131380.0,Wessex,Wastewater,Fluoranthene,0.1,0.0,Landfill,Non Hazardous Landfill,,51.08042409010584,-2.5544101956013585,South West
040415,,Wessex Water,BOURNEMOUTH (Holdenhurst) STW,BH7 7ES,413300.0,95230.0,Wessex,Controlled Waters,Fluoranthene,0.1,0.15,Water Industry,Water Industry,,50.75651622422837,-1.8128154360805653,South West
040415,,Wessex Water,BOURNEMOUTH (Holdenhurst) STW,BH7 7ES,413300.0,95230.0,Wessex,Controlled Waters,"Indeno(1,2,3-cd)pyrene",1.0,0.0,Water Industry,Water Industry,,50.75651622422837,-1.8128154360805653,South West
040415,,Wessex Water,BOURNEMOUTH (Holdenhurst) STW,BH7 7ES,413300.0,95230.0,Wessex,Controlled Waters,Benzo(a)pyrene,1.0,0.0,Water Industry,Water Industry,,50.75651622422837,-1.8128154360805653,South West
043091,,Wessex Water,POOLE STW,BH17 7BX,400700.0,93580.0,Wessex,Controlled Waters,Fluoranthene,0.1,0.12,Water Industry,Water Industry,,50.74182787954079,-1.991444522226778,South West
043091,,Wessex Water,POOLE STW,BH17 7BX,400700.0,93580.0,Wessex,Controlled Waters,"Indeno(1,2,3-cd)pyrene",1.0,0.0,Water Industry,Water Industry,,50.74182787954079,-1.991444522226778,South West
043091,,Wessex Water,POOLE STW,BH17 7BX,400700.0,93580.0,Wessex,Controlled Waters,Benzo(a)pyrene,1.0,0.0,Water Industry,Water Industry,,50.74182787954079,-1.991444522226778,South West
BS3549IM,"COATING, PRINTING AND TEXTILES; PRE-TREATING BY WASHING ETC >10T/DAY",PREMIER HANK DYERS LTD,Bottoms Mills Woodhead Road Dyers Holme West Yorkshire,HD9 2PU,413180.0,407500.0,Yorkshire,Wastewater,Cypermethrin,0.005,0.0553,Paper and textiles,Textiles,1.3e-05,53.563951805420984,-1.8024817961547601,Yorkshire and The Humber
A857/S/P/98,,Southern Water,Bexhill & Hastings STW,TN32 8AY,577300.0,109200.0,Solent and South Downs,Controlled Waters,Fluoranthene,0.1,0.11,Water Industry,Water Industry,,50.85513773720249,0.5176207779836519,South East
A857/S/P/98,,Southern Water,Bexhill & Hastings STW,TN32 8AY,577300.0,109200.0,Solent and South Downs,Controlled Waters,"Indeno(1,2,3-cd)pyrene",1.0,0.0,Water Industry,Water Industry,,50.85513773720249,0.5176207779836519,South East
A857/S/P/98,,Southern Water,Bexhill & Hastings STW,TN32 8AY,577300.0,109200.0,Solent and South Downs,Controlled Waters,Benzo(a)pyrene,1.0,0.0,Water Industry,Water Industry,,50.85513773720249,0.5176207779836519,South East
016940144,,UNITED UTILITIES WATER PLC,ECCLES,,374960.0,397150.0,Greater Manchester Merseyside and Cheshire,Controlled Waters,Fluoranthene,0.1,0.11,Water Industry,Water Industry,,53.47048388729303,-2.3786875230934386,North West
016940144,,UNITED UTILITIES WATER PLC,ECCLES,,374960.0,397150.0,Greater Manchester Merseyside and Cheshire,Controlled Waters,"Indeno(1,2,3-cd)pyrene",1.0,0.0,Water Industry,Water Industry,,53.47048388729303,-2.3786875230934386,North West
016940144,,UNITED UTILITIES WATER PLC,ECCLES,,374960.0,397150.0,Greater Manchester Merseyside and Cheshire,Controlled Waters,Benzo(a)pyrene,1.0,0.0,Water Industry,Water Industry,,53.47048388729303,-2.3786875230934386,North West
CASM.0040,,THAMES WATER UTILITIES LTD,HOGSMILL A STW,KT1 3BW,519200.0,168500.0,"Kent, South London and East Sussex",Controlled Waters,Fluoranthene,0.1,0.18,Water Industry,Water Industry,,51.40301332636438,-0.2877532983545494,London
CASM.0040,,THAMES WATER UTILITIES LTD,HOGSMILL A STW,KT1 3BW,519200.0,168500.0,"Kent, South London and East Sussex",Controlled Waters,"Indeno(1,2,3-cd)pyrene",1.0,1.02,Water Industry,Water Industry,,51.40301332636438,-0.2877532983545494,London
CASM.0040,,THAMES WATER UTILITIES LTD,HOGSMILL A STW,KT1 3BW,519200.0,168500.0,"Kent, South London and East Sussex",Controlled Waters,Benzo(a)pyrene,1.0,0.0,Water Industry,Water Industry,,51.40301332636438,-0.2877532983545494,London
100311,,Wessex Water,BRISTOL (AVONMOUTH) STW,BS11 9AA,353250.0,179400.0,Wessex,Controlled Waters,Fluoranthene,0.1,0.63,Water Industry,Water Industry,,51.511581191559195,-2.675054415150117,South West
100311,,Wessex Water,BRISTOL (AVONMOUTH) STW,BS11 9AA,353250.0,179400.0,Wessex,Controlled Waters,"Indeno(1,2,3-cd)pyrene",1.0,3.56,Water Industry,Water Industry,,51.511581191559195,-2.675054415150117,South West
100311,,Wessex Water,BRISTOL (AVONMOUTH) STW,BS11 9AA,353250.0,179400.0,Wessex,Controlled Waters,Benzo(a)pyrene,1.0,2.75,Water Industry,Water Industry,,51.511581191559195,-2.675054415150117,South West
CTCR.0875,,THAMES WATER UTILITIES LTD,BASINGSTOKE STW,RG24 8LL,468000.0,155200.0,Thames,Controlled Waters,Fluoranthene,0.1,0.0,Water Industry,Water Industry,,51.29188112525349,-1.0261909051605638,South East
CTCR.0875,,THAMES WATER UTILITIES LTD,BASINGSTOKE STW,RG24 8LL,468000.0,155200.0,Thames,Controlled Waters,"Indeno(1,2,3-cd)pyrene",1.0,0.0,Water Industry,Water Industry,,51.29188112525349,-1.0261909051605638,South East
CTCR.0875,,THAMES WATER UTILITIES LTD,BASINGSTOKE STW,RG24 8LL,468000.0,155200.0,Thames,Controlled Waters,Benzo(a)pyrene,1.0,0.0,Water Industry,Water Industry,,51.29188112525349,-1.0261909051605638,South East
CAWM.0942,,THAMES WATER UTILITIES LTD,READING STW,RG2 0RP,471100.0,170800.0,Thames,Controlled Waters,"Indeno(1,2,3-cd)pyrene",1.0,1.06,Water Industry,Water Industry,,51.43175105234219,-0.9786268415538915,South East
CAWM.0942,,THAMES WATER UTILITIES LTD,READING STW,RG2 0RP,471100.0,170800.0,Thames,Controlled Waters,Benzo(a)pyrene,1.0,0.0,Water Industry,Water Industry,,51.43175105234219,-0.9786268415538915,South East
CAWM.0942,,THAMES WATER UTILITIES LTD,READING STW,RG2 0RP,471100.0,170800.0,Thames,Controlled Waters,Fluoranthene,0.1,0.19,Water Industry,Water Industry,,51.43175105234219,-0.9786268415538915,South East
0166993397,,UNITED UTILITIES WATER PLC,Liverpool Waste Water Treatment Sandon Dock Regent Road Liverpool Merseyside,L3 0BE,333730.0,392800.0,Greater Manchester Merseyside and Cheshire,Controlled Waters,Fluoranthene,0.1,0.78,Water Industry,Water Industry,,53.427806585903376,-2.998815240786531,North West
0166993397,,UNITED UTILITIES WATER PLC,Liverpool Waste Water Treatment Sandon Dock Regent Road Liverpool Merseyside,L3 0BE,333730.0,392800.0,Greater Manchester Merseyside and Cheshire,Controlled Waters,"Indeno(1,2,3-cd)pyrene",1.0,4.45,Water Industry,Water Industry,,53.427806585903376,-2.998815240786531,North West
0166993397,,UNITED UTILITIES WATER PLC,Liverpool Waste Water Treatment Sandon Dock Regent Road Liverpool Merseyside,L3 0BE,333730.0,392800.0,Greater Manchester Merseyside and Cheshire,Controlled Waters,Benzo(a)pyrene,1.0,3.44,Water Industry,Water Industry,,53.427806585903376,-2.998815240786531,North West
CNTD.0071,,THAMES WATER UTILITIES LTD,MAPLE LODGE STW,WD3 9SQ,504200.0,192000.0,Hertfordshire and North London,Controlled Waters,Fluoranthene,0.1,0.37,Water Industry,Water Industry,,51.61719085980753,-0.49637273526672454,East of England
CNTD.0071,,THAMES WATER UTILITIES LTD,MAPLE LODGE STW,WD3 9SQ,504200.0,192000.0,Hertfordshire and North London,Controlled Waters,"Indeno(1,2,3-cd)pyrene",1.0,2.08,Water Industry,Water Industry,,51.61719085980753,-0.49637273526672454,East of England
CNTD.0071,,THAMES WATER UTILITIES LTD,MAPLE LODGE STW,WD3 9SQ,504200.0,192000.0,Hertfordshire and North London,Controlled Waters,Benzo(a)pyrene,1.0,1.61,Water Industry,Water Industry,,51.61719085980753,-0.49637273526672454,East of England
017160005,,UNITED UTILITIES WATER PLC,BURNLEY,,382550.0,435270.0,Cumbria and Lancashire,Controlled Waters,Fluoranthene,0.1,0.16,Water Industry,Water Industry,,53.813417898368776,-2.2665013916025725,North West
017160005,,UNITED UTILITIES WATER PLC,BURNLEY,,382550.0,435270.0,Cumbria and Lancashire,Controlled Waters,"Indeno(1,2,3-cd)pyrene",1.0,0.0,Water Industry,Water Industry,,53.813417898368776,-2.2665013916025725,North West
017160005,,UNITED UTILITIES WATER PLC,BURNLEY,,382550.0,435270.0,Cumbria and Lancashire,Controlled Waters,Benzo(a)pyrene,1.0,0.0,Water Industry,Water Industry,,53.813417898368776,-2.2665013916025725,North West
HP3530BS,"WASTE LANDFILLING; >10 T/D WITH CAPACITY >25,000T EXCLUDING INERT WASTE",Thompsons Of Prudhoe Limited,Springwell Quarry Springwell Road Wrekenton Tyne and Wear,NE9 7XW,428400.0,558600.0,North East,Wastewater,Fluoranthene,0.1,0.0,Landfill,Non Hazardous Landfill,,54.9212923560796,-1.5584397345591554,North East
HP3530BS,"WASTE LANDFILLING; >10 T/D WITH CAPACITY >25,000T EXCLUDING INERT WASTE",Thompsons Of Prudhoe Limited,Springwell Quarry Springwell Road Wrekenton Tyne and Wear,NE9 7XW,428400.0,558600.0,North East,Wastewater,Heptachlor,0.1,0.0,Landfill,Non Hazardous Landfill,,54.9212923560796,-1.5584397345591554,North East
HP3530BS,"WASTE LANDFILLING; >10 T/D WITH CAPACITY >25,000T EXCLUDING INERT WASTE",Thompsons Of Prudhoe Limited,Springwell Quarry Springwell Road Wrekenton Tyne and Wear,NE9 7XW,428400.0,558600.0,North East,Wastewater,Benzo(a)pyrene,1.0,0.0,Landfill,Non Hazardous Landfill,,54.9212923560796,-1.5584397345591554,North East
CASM.0340,,Anglian Water,SOUTHEND ON SEA STW,,581900.0,190600.0,East Anglia,Controlled Waters,Fluoranthene,0.1,0.18,Water Industry,Water Industry,,51.584894773533854,0.6241731351924702,East of England
CASM.0340,,Anglian Water,SOUTHEND ON SEA STW,,581900.0,190600.0,East Anglia,Controlled Waters,"Indeno(1,2,3-cd)pyrene",1.0,1.01,Water Industry,Water Industry,,51.584894773533854,0.6241731351924702,East of England
CASM.0340,,Anglian Water,SOUTHEND ON SEA STW,,581900.0,190600.0,East Anglia,Controlled Waters,Benzo(a)pyrene,1.0,0.0,Water Industry,Water Industry,,51.584894773533854,0.6241731351924702,East of England
S/02/55324/R,,SEVERN TRENT WATER LTD,Shrewsbury Monkmoor STW,SY2 5TL,351840.0,313580.0,West Midlands,Controlled Waters,Fluoranthene,0.1,0.0,Water Industry,Water Industry,,52.71771883907314,-2.7144040663322717,West Midlands
S/02/55324/R,,SEVERN TRENT WATER LTD,Shrewsbury Monkmoor STW,SY2 5TL,351840.0,313580.0,West Midlands,Controlled Waters,"Indeno(1,2,3-cd)pyrene",1.0,0.0,Water Industry,Water Industry,,52.71771883907314,-2.7144040663322717,West Midlands
S/02/55324/R,,SEVERN TRENT WATER LTD,Shrewsbury Monkmoor STW,SY2 5TL,351840.0,313580.0,West Midlands,Controlled Waters,Benzo(a)pyrene,1.0,0.0,Water Industry,Water Industry,,52.71771883907314,-2.7144040663322717,West Midlands
S/20/21356/R,,SEVERN TRENT WATER LTD,Netheridge Sewerage Treatment Plant Hempsted Lane Hempsted GLoucester,GL2 5LF,381110.0,215700.0,West Midlands,Controlled Waters,Fluoranthene,0.1,0.14,Water Industry,Water Industry,,51.839581834363415,-2.275579360127801,South West
S/20/21356/R,,SEVERN TRENT WATER LTD,Netheridge Sewerage Treatment Plant Hempsted Lane Hempsted GLoucester,GL2 5LF,381110.0,215700.0,West Midlands,Controlled Waters,"Indeno(1,2,3-cd)pyrene",1.0,0.0,Water Industry,Water Industry,,51.839581834363415,-2.275579360127801,South West
S/20/21356/R,,SEVERN TRENT WATER LTD,Netheridge Sewerage Treatment Plant Hempsted Lane Hempsted GLoucester,GL2 5LF,381110.0,215700.0,West Midlands,Controlled Waters,Benzo(a)pyrene,1.0,0.0,Water Industry,Water Industry,,51.839581834363415,-2.275579360127801,South West
CNTD.0085,,THAMES WATER UTILITIES LTD,MOGDEN STW,TW7 7LP,516800.0,175900.0,Hertfordshire and North London,Controlled Waters,Fluoranthene,0.1,1.5,Water Industry,Water Industry,,51.47002108758989,-0.31980142224145863,London
CNTD.0085,,THAMES WATER UTILITIES LTD,MOGDEN STW,TW7 7LP,516800.0,175900.0,Hertfordshire and North London,Controlled Waters,"Indeno(1,2,3-cd)pyrene",1.0,8.53,Water Industry,Water Industry,,51.47002108758989,-0.31980142224145863,London
CNTD.0085,,THAMES WATER UTILITIES LTD,MOGDEN STW,TW7 7LP,516800.0,175900.0,Hertfordshire and North London,Controlled Waters,Benzo(a)pyrene,1.0,6.59,Water Industry,Water Industry,,51.47002108758989,-0.31980142224145863,London
AEETS12128,,Anglian Water,Cliff Quay(Ipswich) STW,,617200.0,241900.0,East Anglia,Controlled Waters,Fluoranthene,0.1,0.0,Water Industry,Water Industry,,52.03294921607046,1.1650600695103228,East of England
AEETS12128,,Anglian Water,Cliff Quay(Ipswich) STW,,617200.0,241900.0,East Anglia,Controlled Waters,"Indeno(1,2,3-cd)pyrene",1.0,0.0,Water Industry,Water Industry,,52.03294921607046,1.1650600695103228,East of England
AEETS12128,,Anglian Water,Cliff Quay(Ipswich) STW,,617200.0,241900.0,East Anglia,Controlled Waters,Benzo(a)pyrene,1.0,0.0,Water Industry,Water Industry,,52.03294921607046,1.1650600695103228,East of England
AW4TF1789,,Anglian Water,Whitlingham(Norwich) STW,,627800.0,307700.0,East Anglia,Controlled Waters,Fluoranthene,0.1,0.2,Water Industry,Water Industry,,52.61924889217021,1.363855620576636,East of England
AW4TF1789,,Anglian Water,Whitlingham(Norwich) STW,,627800.0,307700.0,East Anglia,Controlled Waters,"Indeno(1,2,3-cd)pyrene",1.0,1.15,Water Industry,Water Industry,,52.61924889217021,1.363855620576636,East of England
AW4TF1789,,Anglian Water,Whitlingham(Norwich) STW,,627800.0,307700.0,East Anglia,Controlled Waters,Benzo(a)pyrene,1.0,0.0,Water Industry,Water Industry,,52.61924889217021,1.363855620576636,East of England
AW5NF5179,,Anglian Water,Corby STW,,490600.0,288900.0,Lincolnshire and Northamptonshire,Controlled Waters,Fluoranthene,0.1,0.0,Water Industry,Water Industry,,52.49050019877511,-0.6670770268978701,East Midlands
AW5NF5179,,Anglian Water,Corby STW,,490600.0,288900.0,Lincolnshire and Northamptonshire,Controlled Waters,"Indeno(1,2,3-cd)pyrene",1.0,0.0,Water Industry,Water Industry,,52.49050019877511,-0.6670770268978701,East Midlands
AW5NF5179,,Anglian Water,Corby STW,,490600.0,288900.0,Lincolnshire and Northamptonshire,Controlled Waters,Benzo(a)pyrene,1.0,0.0,Water Industry,Water Industry,,52.49050019877511,-0.6670770268978701,East Midlands
ANNNF2073,,Anglian Water,Lincoln(Canwick) STW,,499810.0,370880.0,Lincolnshire and Northamptonshire,Controlled Waters,Fluoranthene,0.1,0.0,Water Industry,Water Industry,,53.225598232515246,-0.5063982784808474,East Midlands
ANNNF2073,,Anglian Water,Lincoln(Canwick) STW,,499810.0,370880.0,Lincolnshire and Northamptonshire,Controlled Waters,"Indeno(1,2,3-cd)pyrene",1.0,0.0,Water Industry,Water Industry,,53.225598232515246,-0.5063982784808474,East Midlands
ANNNF2073,,Anglian Water,Lincoln(Canwick) STW,,499810.0,370880.0,Lincolnshire and Northamptonshire,Controlled Waters,Benzo(a)pyrene,1.0,0.0,Water Industry,Water Industry,,53.225598232515246,-0.5063982784808474,East Midlands
T/24/35514/R,,SEVERN TRENT WATER LTD,Claymills Chp Plant Meadow Lane Clay Mills Nr Burton Staffordshire,DE13 0DB,426270.0,325780.0,West Midlands,Controlled Waters,Fluoranthene,0.1,0.12,Water Industry,Water Industry,,52.82890968304119,-1.6115476620963551,West Midlands
T/24/35514/R,,SEVERN TRENT WATER LTD,Claymills Chp Plant Meadow Lane Clay Mills Nr Burton Staffordshire,DE13 0DB,426270.0,325780.0,West Midlands,Controlled Waters,"Indeno(1,2,3-cd)pyrene",1.0,0.0,Water Industry,Water Industry,,52.82890968304119,-1.6115476620963551,West Midlands
T/24/35514/R,,SEVERN TRENT WATER LTD,Claymills Chp Plant Meadow Lane Clay Mills Nr Burton Staffordshire,DE13 0DB,426270.0,325780.0,West Midlands,Controlled Waters,Benzo(a)pyrene,1.0,0.0,Water Industry,Water Industry,,52.82890968304119,-1.6115476620963551,West Midlands
AW3TS519,,Anglian Water,Pyewipe (Grimsby) STW,,528280.0,413140.0,Lincolnshire and Northamptonshire,Controlled Waters,Fluoranthene,0.1,0.14,Water Industry,Water Industry,,53.599134825406814,-0.06300357585157099,
AW3TS519,,Anglian Water,Pyewipe (Grimsby) STW,,528280.0,413140.0,Lincolnshire and Northamptonshire,Controlled Waters,"Indeno(1,2,3-cd)pyrene",1.0,0.0,Water Industry,Water Industry,,53.599134825406814,-0.06300357585157099,
AW3TS519,,Anglian Water,Pyewipe (Grimsby) STW,,528280.0,413140.0,Lincolnshire and Northamptonshire,Controlled Waters,Benzo(a)pyrene,1.0,0.0,Water Industry,Water Industry,,53.599134825406814,-0.06300357585157099,
GP3134HG,"COATING, PRINTING AND TEXTILES; PRE-TREATING BY WASHING ETC >10T/DAY",Westex (Carpets) Limited,Calder Bank Mills Calder Bank Road Dewsbury West Yorkshire,WF12 9QW,423910.0,421140.0,Yorkshire,Wastewater,Cypermethrin,0.005,0.0,Paper and textiles,Textiles,1.3e-05,53.68617184295809,-1.6394418783748281,Yorkshire and The Humber
CSSA.0362,,THAMES WATER UTILITIES LTD,Crossness Sewage Treatment Works Belvedere Road London Greater London,SE2 9AQ,549100.0,180670.0,"Kent, South London and East Sussex",Controlled Waters,Fluoranthene,0.1,1.74,Water Industry,Water Industry,,51.50529938596011,0.14692716332163996,London
CSSA.0362,,THAMES WATER UTILITIES LTD,Crossness Sewage Treatment Works Belvedere Road London Greater London,SE2 9AQ,549100.0,180670.0,"Kent, South London and East Sussex",Controlled Waters,"Indeno(1,2,3-cd)pyrene",1.0,9.93,Water Industry,Water Industry,,51.50529938596011,0.14692716332163996,London
CSSA.0362,,THAMES WATER UTILITIES LTD,Crossness Sewage Treatment Works Belvedere Road London Greater London,SE2 9AQ,549100.0,180670.0,"Kent, South London and East Sussex",Controlled Waters,Benzo(a)pyrene,1.0,7.68,Water Industry,Water Industry,,51.50529938596011,0.14692716332163996,London
AWNNF13052,,Anglian Water,Great Billing STW,,483280.0,261550.0,Lincolnshire and Northamptonshire,Controlled Waters,Fluoranthene,0.1,0.22,Water Industry,Water Industry,,52.2458410921532,-0.7816391496402058,East Midlands
AWNNF13052,,Anglian Water,Great Billing STW,,483280.0,261550.0,Lincolnshire and Northamptonshire,Controlled Waters,"Indeno(1,2,3-cd)pyrene",1.0,1.25,Water Industry,Water Industry,,52.2458410921532,-0.7816391496402058,East Midlands
AWNNF13052,,Anglian Water,Great Billing STW,,483280.0,261550.0,Lincolnshire and Northamptonshire,Controlled Waters,Benzo(a)pyrene,1.0,0.0,Water Industry,Water Industry,,52.2458410921532,-0.7816391496402058,East Midlands
254/1920,,NORTHUMBRIAN WATER LTD,Bran Sands Effluent Treatment Works Bran Sands Tees Dock Road Cleveland,TS6 6UE,456210.0,524290.0,North East,Controlled Waters,Fluoranthene,0.1,0.38,Water Industry,Water Industry,,54.61065168486329,-1.1312244597131602,North East
254/1920,,NORTHUMBRIAN WATER LTD,Bran Sands Effluent Treatment Works Bran Sands Tees Dock Road Cleveland,TS6 6UE,456210.0,524290.0,North East,Controlled Waters,"Indeno(1,2,3-cd)pyrene",1.0,2.13,Water Industry,Water Industry,,54.61065168486329,-1.1312244597131602,North East
254/1920,,NORTHUMBRIAN WATER LTD,Bran Sands Effluent Treatment Works Bran Sands Tees Dock Road Cleveland,TS6 6UE,456210.0,524290.0,North East,Controlled Waters,Benzo(a)pyrene,1.0,1.65,Water Industry,Water Industry,,54.61065168486329,-1.1312244597131602,North East
254/1966,,NORTHUMBRIAN WATER LTD,SEATON CAREW STW,,451929.0,527633.0,North East,Controlled Waters,Fluoranthene,0.1,0.0,Water Industry,Water Industry,,54.64114858402242,-1.1969077077554877,North East
254/1966,,NORTHUMBRIAN WATER LTD,SEATON CAREW STW,,451929.0,527633.0,North East,Controlled Waters,"Indeno(1,2,3-cd)pyrene",1.0,0.0,Water Industry,Water Industry,,54.64114858402242,-1.1969077077554877,North East
254/1966,,NORTHUMBRIAN WATER LTD,SEATON CAREW STW,,451929.0,527633.0,North East,Controlled Waters,Benzo(a)pyrene,1.0,0.0,Water Industry,Water Industry,,54.64114858402242,-1.1969077077554877,North East
NP3497NN,DISPOSAL OF > 50 T/D NON-HAZARDOUS WASTE (> 100 T/D IF ONLY AD) INVOLVING PHYSICO-CHEMICAL TREATMENT ,Viridor Waste (Thames) Limited,Maple Lodge Denham Way Maple Cross Hertfordshire,WD3 9SQ,505030.0,101920.0,Hertfordshire and North London,Wastewater,Fluoranthene,0.1,0.0,Biowaste,Biowaste Treatment,,50.80732427754657,-0.510740560734191,South East
25/04/1797,,NORTHUMBRIAN WATER LTD,Stressholme STW,UNKNOWN,428900.0,510400.0,North East,Controlled Waters,Fluoranthene,0.1,0.0,Water Industry,Water Industry,,54.48812311522736,-1.555398971427035,North East
25/04/1797,,NORTHUMBRIAN WATER LTD,Stressholme STW,UNKNOWN,428900.0,510400.0,North East,Controlled Waters,"Indeno(1,2,3-cd)pyrene",1.0,0.0,Water Industry,Water Industry,,54.48812311522736,-1.555398971427035,North East
25/04/1797,,NORTHUMBRIAN WATER LTD,Stressholme STW,UNKNOWN,428900.0,510400.0,North East,Controlled Waters,Benzo(a)pyrene,1.0,0.0,Water Industry,Water Industry,,54.48812311522736,-1.555398971427035,North East
CP3531RE,"WASTE LANDFILLING; >10 T/D WITH CAPACITY >25,000T EXCLUDING INERT WASTE",Commercial Recycling (Southern) Limited,Southwood Landfill Site Evercreech Somerset,BA4 6LX,363920.0,137020.0,Wessex,Controlled Waters,Benzo(a)pyrene,1.0,0.0,Landfill,Hazardous Landfill,,51.13131130304021,-2.517004785220547,South West
YP3834HE,"PAPER, PULP AND BOARD; PRODUCING PAPER/BOARD >20T/D",Arjowiggins Chartham Ltd,Chartham Paper Mill Station Road Chartham Kent,CT4 7JA,610770.0,155020.0,"Kent, South London and East Sussex",Controlled Waters,Cypermethrin,0.005,0.0,Paper and textiles,Paper & Pulp,1.3e-05,51.25537326867359,1.0191624620979873,South East
UP3639LY,"WASTE LANDFILLING; >10 T/D WITH CAPACITY >25,000T EXCLUDING INERT WASTE",3C Waste Limited,Danes Moss Landfill Site Gawsworth Macclesfield Cheshire,SK11 9QP,390500.0,371500.0,Greater Manchester Merseyside and Cheshire,Wastewater,Fluoranthene,0.1,0.0,Landfill,Non Hazardous Landfill,,53.240439462521046,-2.1438041690584186,North West
UP3639LY,"WASTE LANDFILLING; >10 T/D WITH CAPACITY >25,000T EXCLUDING INERT WASTE",3C Waste Limited,Danes Moss Landfill Site Gawsworth Macclesfield Cheshire,SK11 9QP,390500.0,371500.0,Greater Manchester Merseyside and Cheshire,Wastewater,Heptachlor,0.1,0.0,Landfill,Non Hazardous Landfill,,53.240439462521046,-2.1438041690584186,North West
UP3639LY,"WASTE LANDFILLING; >10 T/D WITH CAPACITY >25,000T EXCLUDING INERT WASTE",3C Waste Limited,Danes Moss Landfill Site Gawsworth Macclesfield Cheshire,SK11 9QP,390500.0,371500.0,Greater Manchester Merseyside and Cheshire,Wastewater,"Indeno(1,2,3-cd)pyrene",1.0,0.0,Landfill,Non Hazardous Landfill,,53.240439462521046,-2.1438041690584186,North West
UP3639LY,"WASTE LANDFILLING; >10 T/D WITH CAPACITY >25,000T EXCLUDING INERT WASTE",3C Waste Limited,Danes Moss Landfill Site Gawsworth Macclesfield Cheshire,SK11 9QP,390500.0,371500.0,Greater Manchester Merseyside and Cheshire,Wastewater,Benzo(a)pyrene,1.0,0.0,Landfill,Non Hazardous Landfill,,53.240439462521046,-2.1438041690584186,North West
UP3639LY,"WASTE LANDFILLING; >10 T/D WITH CAPACITY >25,000T EXCLUDING INERT WASTE",3C Waste Limited,Danes Moss Landfill Site Gawsworth Macclesfield Cheshire,SK11 9QP,390500.0,371500.0,Greater Manchester Merseyside and Cheshire,Wastewater,Cypermethrin,0.005,0.0,Landfill,Non Hazardous Landfill,1.3e-05,53.240439462521046,-2.1438041690584186,North West
FP3132UE,"PAPER, PULP AND BOARD; PRODUCING PULP FROM TIMBER ETC",Palm Paper Limited,Saddlebow Paper Mill Former British Sugar Site Poplar Avenue Kings Lynn Norfolk,PE34 3AL,561200.0,317800.0,East Anglia,Controlled Waters,Cypermethrin,0.005,0.058,Paper and textiles,Paper & Pulp,1.3e-05,52.73380913432685,0.38603079225081394,East of England
BL4940IU,"WASTE LANDFILLING; >10 T/D WITH CAPACITY >25,000T EXCLUDING INERT WASTE",Catplant Quarry Ltd,Hazel Lna Elandfill Hazel Lane Doncaster South Yorkshire,DN6 7EX,450100.0,410800.0,Yorkshire,Wastewater,Fluoranthene,0.1,0.0,Landfill,Non Hazardous Landfill,,53.59139288866498,-1.2445741366386425,Yorkshire and The Humber
BL4940IU,"WASTE LANDFILLING; >10 T/D WITH CAPACITY >25,000T EXCLUDING INERT WASTE",Catplant Quarry Ltd,Hazel Lna Elandfill Hazel Lane Doncaster South Yorkshire,DN6 7EX,450100.0,410800.0,Yorkshire,Wastewater,Heptachlor,0.1,0.0,Landfill,Non Hazardous Landfill,,53.59139288866498,-1.2445741366386425,Yorkshire and The Humber
BL4940IU,"WASTE LANDFILLING; >10 T/D WITH CAPACITY >25,000T EXCLUDING INERT WASTE",Catplant Quarry Ltd,Hazel Lna Elandfill Hazel Lane Doncaster South Yorkshire,DN6 7EX,450100.0,410800.0,Yorkshire,Wastewater,Benzo(a)pyrene,1.0,0.0,Landfill,Non Hazardous Landfill,,53.59139288866498,-1.2445741366386425,Yorkshire and The Humber
BL4940IU,"WASTE LANDFILLING; >10 T/D WITH CAPACITY >25,000T EXCLUDING INERT WASTE",Catplant Quarry Ltd,Hazel Lna Elandfill Hazel Lane Doncaster South Yorkshire,DN6 7EX,450100.0,410800.0,Yorkshire,Wastewater,Cypermethrin,0.005,0.0,Landfill,Non Hazardous Landfill,1.3e-05,53.59139288866498,-1.2445741366386425,Yorkshire and The Humber
LP3533LJ,LOADING/STORAGE/TREATMENT ETC OF CRUDE OIL,Crude Oil Terminals (Humber) Limited,Crude Oil terminals Ltd Tetney Oil Terminal Tetney Oil Terminal Tetney Lock Road Tetney Lincolnshire,DN36 5NX,532830.0,402210.0,Lincolnshire and Northamptonshire,Controlled Waters,"Indeno(1,2,3-cd)pyrene",1.0,0.0,Refineries & Fuel,Refineries & Fuel,,53.49982027580484,0.0010690700525111871,East Midlands
LP3533LJ,LOADING/STORAGE/TREATMENT ETC OF CRUDE OIL,Crude Oil Terminals (Humber) Limited,Crude Oil terminals Ltd Tetney Oil Terminal Tetney Oil Terminal Tetney Lock Road Tetney Lincolnshire,DN36 5NX,532830.0,402210.0,Lincolnshire and Northamptonshire,Controlled Waters,Fluoranthene,0.1,0.0,Refineries & Fuel,Refineries & Fuel,,53.49982027580484,0.0010690700525111871,East Midlands
LP3533LJ,LOADING/STORAGE/TREATMENT ETC OF CRUDE OIL,Crude Oil Terminals (Humber) Limited,Crude Oil terminals Ltd Tetney Oil Terminal Tetney Oil Terminal Tetney Lock Road Tetney Lincolnshire,DN36 5NX,532830.0,402210.0,Lincolnshire and Northamptonshire,Controlled Waters,Benzo(a)pyrene,1.0,0.0,Refineries & Fuel,Refineries & Fuel,,53.49982027580484,0.0010690700525111871,East Midlands
BP3530RC,"COATING, PRINTING AND TEXTILES; PRE-TREATING BY WASHING ETC >10T/DAY",Harrison Gardner Dyers and Winders Limited,Royds Hall Lane Site Buttershaw Bradford,BD6 2NE,414300.0,429150.0,Yorkshire,Wastewater,Cypermethrin,0.005,0.075,Paper and textiles,Textiles,1.3e-05,53.75851505830772,-1.7845835965070347,Yorkshire and The Humber
BK1449IK,"WASTE LANDFILLING; >10 T/D WITH CAPACITY >25,000T EXCLUDING INERT WASTE",Tarmac Aggregates Limited,Cotesbach Landfill Gibbet Lane Shawell Lutterworth Leicestershire,LE17 6AA,454000.0,280600.0,West Midlands,Wastewater,Heptachlor,0.1,0.0,Landfill,Non Hazardous Landfill,,52.420733504827595,-1.2073850649724642,East Midlands
PP3135SU,"WASTE LANDFILLING; >10 T/D WITH CAPACITY >25,000T EXCLUDING INERT WASTE",Tarmac Aggregates Limited,Brittons Hall Farm Landfill Site Chignal St James Chelmsford Essex,CM1 4LT,565960.0,210120.0,East Anglia,Wastewater,Heptachlor,0.1,0.0,Landfill,Non Hazardous Landfill,,51.76516490837623,0.40358913299333465,East of England
A569/H/90,,Southern Water,Peel Common STW,PO14 2LJ,456500.0,103300.0,Solent and South Downs,Controlled Waters,Fluoranthene,0.1,0.23,Water Industry,Water Industry,,50.82648980553852,-1.1991825375250997,South East
A569/H/90,,Southern Water,Peel Common STW,PO14 2LJ,456500.0,103300.0,Solent and South Downs,Controlled Waters,"Indeno(1,2,3-cd)pyrene",1.0,1.28,Water Industry,Water Industry,,50.82648980553852,-1.1991825375250997,South East
A569/H/90,,Southern Water,Peel Common STW,PO14 2LJ,456500.0,103300.0,Solent and South Downs,Controlled Waters,Benzo(a)pyrene,1.0,0.0,Water Industry,Water Industry,,50.82648980553852,-1.1991825375250997,South East
GP3037SJ,"WASTE LANDFILLING; >10 T/D WITH CAPACITY >25,000T EXCLUDING INERT WASTE",Fcc Recycling (Uk) Limited,"Lillyhall Waste Management Centre Joseph Noble Road Lillyhall Industrial Estate,Lillyhall Workington Cumbria",CA14 4JH,,,Cumbria and Lancashire,Wastewater,Heptachlor,0.1,0.0,Landfill,Non Hazardous Landfill,,inf,inf,
A726/IOW/97,,Southern Water,Sandown STW (Ventnor/Bembridge),PO36 8DE,460270.0,85220.0,Solent and South Downs,Controlled Waters,Fluoranthene,0.1,0.12,Water Industry,Water Industry,,50.663541553013175,-1.1486148651904486,South East
A726/IOW/97,,Southern Water,Sandown STW (Ventnor/Bembridge),PO36 8DE,460270.0,85220.0,Solent and South Downs,Controlled Waters,"Indeno(1,2,3-cd)pyrene",1.0,0.0,Water Industry,Water Industry,,50.663541553013175,-1.1486148651904486,South East
A726/IOW/97,,Southern Water,Sandown STW (Ventnor/Bembridge),PO36 8DE,460270.0,85220.0,Solent and South Downs,Controlled Waters,Benzo(a)pyrene,1.0,0.0,Water Industry,Water Industry,,50.663541553013175,-1.1486148651904486,South East
WP3331SK,DISPOSAL OR RECOVERY OF HAZARDOUS WASTE WITH A CAPACITY EXCEEDING 10 TONNES PER DAY INVOLVING PHYSICO-CHEMICAL TREATMENT,Collier Industrial Waste Limited,Trafford Park Waste Treatment Centre Nash Road Trafford Park Manchester Greater Manchester,M17 1SX,377400.0,397600.0,Greater Manchester Merseyside and Cheshire,Controlled Waters,"Indeno(1,2,3-cd)pyrene",1.0,0.0,Waste Treatment,Hazardous,,53.47463952157784,-2.341962978517913,North West
WP3331SK,DISPOSAL OR RECOVERY OF HAZARDOUS WASTE WITH A CAPACITY EXCEEDING 10 TONNES PER DAY INVOLVING PHYSICO-CHEMICAL TREATMENT,Collier Industrial Waste Limited,Trafford Park Waste Treatment Centre Nash Road Trafford Park Manchester Greater Manchester,M17 1SX,377400.0,397600.0,Greater Manchester Merseyside and Cheshire,Wastewater,"Indeno(1,2,3-cd)pyrene",1.0,0.0,Waste Treatment,Hazardous,,53.47463952157784,-2.341962978517913,North West
WP3331SK,DISPOSAL OR RECOVERY OF HAZARDOUS WASTE WITH A CAPACITY EXCEEDING 10 TONNES PER DAY INVOLVING PHYSICO-CHEMICAL TREATMENT,Collier Industrial Waste Limited,Trafford Park Waste Treatment Centre Nash Road Trafford Park Manchester Greater Manchester,M17 1SX,377400.0,397600.0,Greater Manchester Merseyside and Cheshire,Controlled Waters,Fluoranthene,0.1,0.0,Waste Treatment,Hazardous,,53.47463952157784,-2.341962978517913,North West
WP3331SK,DISPOSAL OR RECOVERY OF HAZARDOUS WASTE WITH A CAPACITY EXCEEDING 10 TONNES PER DAY INVOLVING PHYSICO-CHEMICAL TREATMENT,Collier Industrial Waste Limited,Trafford Park Waste Treatment Centre Nash Road Trafford Park Manchester Greater Manchester,M17 1SX,377400.0,397600.0,Greater Manchester Merseyside and Cheshire,Controlled Waters,Heptachlor,0.1,0.0,Waste Treatment,Hazardous,,53.47463952157784,-2.341962978517913,North West
WP3331SK,DISPOSAL OR RECOVERY OF HAZARDOUS WASTE WITH A CAPACITY EXCEEDING 10 TONNES PER DAY INVOLVING PHYSICO-CHEMICAL TREATMENT,Collier Industrial Waste Limited,Trafford Park Waste Treatment Centre Nash Road Trafford Park Manchester Greater Manchester,M17 1SX,377400.0,397600.0,Greater Manchester Merseyside and Cheshire,Controlled Waters,Benzo(a)pyrene,1.0,0.0,Waste Treatment,Hazardous,,53.47463952157784,-2.341962978517913,North West
WP3331SK,DISPOSAL OR RECOVERY OF HAZARDOUS WASTE WITH A CAPACITY EXCEEDING 10 TONNES PER DAY INVOLVING PHYSICO-CHEMICAL TREATMENT,Collier Industrial Waste Limited,Trafford Park Waste Treatment Centre Nash Road Trafford Park Manchester Greater Manchester,M17 1SX,377400.0,397600.0,Greater Manchester Merseyside and Cheshire,Wastewater,Benzo(a)pyrene,1.0,0.0,Waste Treatment,Hazardous,,53.47463952157784,-2.341962978517913,North West
WP3331SK,DISPOSAL OR RECOVERY OF HAZARDOUS WASTE WITH A CAPACITY EXCEEDING 10 TONNES PER DAY INVOLVING PHYSICO-CHEMICAL TREATMENT,Collier Industrial Waste Limited,Trafford Park Waste Treatment Centre Nash Road Trafford Park Manchester Greater Manchester,M17 1SX,377400.0,397600.0,Greater Manchester Merseyside and Cheshire,Wastewater,Cypermethrin,0.005,0.0,Waste Treatment,Hazardous,1.3e-05,53.47463952157784,-2.341962978517913,North West
WP3331SK,DISPOSAL OR RECOVERY OF HAZARDOUS WASTE WITH A CAPACITY EXCEEDING 10 TONNES PER DAY INVOLVING PHYSICO-CHEMICAL TREATMENT,Collier Industrial Waste Limited,Trafford Park Waste Treatment Centre Nash Road Trafford Park Manchester Greater Manchester,M17 1SX,377400.0,397600.0,Greater Manchester Merseyside and Cheshire,Controlled Waters,Cypermethrin,0.005,0.0,Waste Treatment,Hazardous,1.3e-05,53.47463952157784,-2.341962978517913,North West
WP3331SK,DISPOSAL OR RECOVERY OF HAZARDOUS WASTE WITH A CAPACITY EXCEEDING 10 TONNES PER DAY INVOLVING PHYSICO-CHEMICAL TREATMENT,Collier Industrial Waste Limited,Trafford Park Waste Treatment Centre Nash Road Trafford Park Manchester Greater Manchester,M17 1SX,377400.0,397600.0,Greater Manchester Merseyside and Cheshire,Wastewater,Fluoranthene,0.1,0.0,Waste Treatment,Hazardous,,53.47463952157784,-2.341962978517913,North West
WP3331SK,DISPOSAL OR RECOVERY OF HAZARDOUS WASTE WITH A CAPACITY EXCEEDING 10 TONNES PER DAY INVOLVING PHYSICO-CHEMICAL TREATMENT,Collier Industrial Waste Limited,Trafford Park Waste Treatment Centre Nash Road Trafford Park Manchester Greater Manchester,M17 1SX,377400.0,397600.0,Greater Manchester Merseyside and Cheshire,Wastewater,Heptachlor,0.1,0.0,Waste Treatment,Hazardous,,53.47463952157784,-2.341962978517913,North West
LP3439LK,DISPOSAL OF > 50 T/D NON-HAZARDOUS WASTE (> 100 T/D IF ONLY AD) INVOLVING BIOLOGICAL TREATMENT,NORTHUMBRIAN WATER LTD,Bran Sands Effluent Treatment Works Bran Sands Tees Dock Road Cleveland,TS6 6UE,456210.0,524290.0,North East,Controlled Waters,"Indeno(1,2,3-cd)pyrene",1.0,0.0,Waste Treatment,Hazardous,,54.61065168486329,-1.1312244597131602,North East
COPA/5586,,Southern Water,Millbrook STW,SO15 0HH,438850.0,112600.0,Solent and South Downs,Controlled Waters,Fluoranthene,0.1,0.13,Water Industry,Water Industry,,50.91156573195226,-1.4487767063232817,South East
COPA/5586,,Southern Water,Millbrook STW,SO15 0HH,438850.0,112600.0,Solent and South Downs,Controlled Waters,"Indeno(1,2,3-cd)pyrene",1.0,0.0,Water Industry,Water Industry,,50.91156573195226,-1.4487767063232817,South East
COPA/5586,,Southern Water,Millbrook STW,SO15 0HH,438850.0,112600.0,Solent and South Downs,Controlled Waters,Benzo(a)pyrene,1.0,0.0,Water Industry,Water Industry,,50.91156573195226,-1.4487767063232817,South East
A720/K/97,,Southern Water,Motney Hill STW,ME8 7UA,582950.0,168380.0,"Kent, South London and East Sussex",Controlled Waters,Fluoranthene,0.1,0.12,Water Industry,Water Industry,,51.38497550557988,0.6278084434090928,South East
A720/K/97,,Southern Water,Motney Hill STW,ME8 7UA,582950.0,168380.0,"Kent, South London and East Sussex",Controlled Waters,"Indeno(1,2,3-cd)pyrene",1.0,0.0,Water Industry,Water Industry,,51.38497550557988,0.6278084434090928,South East
A720/K/97,,Southern Water,Motney Hill STW,ME8 7UA,582950.0,168380.0,"Kent, South London and East Sussex",Controlled Waters,Benzo(a)pyrene,1.0,0.0,Water Industry,Water Industry,,51.38497550557988,0.6278084434090928,South East
001229,,SOUTH WEST WATER LTD,EXETER STW (Countess Wear),EX2 7AA,294800.0,89000.0,"Devon, Cornwall and the Isles of Scilly",Controlled Waters,Fluoranthene,0.1,0.13,Water Industry,Water Industry,,50.69110641761321,-3.4907104289958726,South West
001229,,SOUTH WEST WATER LTD,EXETER STW (Countess Wear),EX2 7AA,294800.0,89000.0,"Devon, Cornwall and the Isles of Scilly",Controlled Waters,"Indeno(1,2,3-cd)pyrene",1.0,0.0,Water Industry,Water Industry,,50.69110641761321,-3.4907104289958726,South West
001229,,SOUTH WEST WATER LTD,EXETER STW (Countess Wear),EX2 7AA,294800.0,89000.0,"Devon, Cornwall and the Isles of Scilly",Controlled Waters,Benzo(a)pyrene,1.0,0.0,Water Industry,Water Industry,,50.69110641761321,-3.4907104289958726,South West
016920130,,UNITED UTILITIES WATER PLC,ST HELENS,,353820.0,395900.0,Greater Manchester Merseyside and Cheshire,Controlled Waters,Fluoranthene,0.1,0.22,Water Industry,Water Industry,,53.457815001619835,-2.6969509558081435,North West
016920130,,UNITED UTILITIES WATER PLC,ST HELENS,,353820.0,395900.0,Greater Manchester Merseyside and Cheshire,Controlled Waters,"Indeno(1,2,3-cd)pyrene",1.0,1.25,Water Industry,Water Industry,,53.457815001619835,-2.6969509558081435,North West
016920130,,UNITED UTILITIES WATER PLC,ST HELENS,,353820.0,395900.0,Greater Manchester Merseyside and Cheshire,Controlled Waters,Benzo(a)pyrene,1.0,0.0,Water Industry,Water Industry,,53.457815001619835,-2.6969509558081435,North West
016940143,,UNITED UTILITIES WATER PLC,DAVYHULME,,374800.0,396460.0,Greater Manchester Merseyside and Cheshire,Controlled Waters,Fluoranthene,0.1,1.0,Water Industry,Water Industry,,53.46427432348601,-2.3810422309625947,North West
016940143,,UNITED UTILITIES WATER PLC,DAVYHULME,,374800.0,396460.0,Greater Manchester Merseyside and Cheshire,Controlled Waters,"Indeno(1,2,3-cd)pyrene",1.0,5.68,Water Industry,Water Industry,,53.46427432348601,-2.3810422309625947,North West
016940143,,UNITED UTILITIES WATER PLC,DAVYHULME,,374800.0,396460.0,Greater Manchester Merseyside and Cheshire,Controlled Waters,Benzo(a)pyrene,1.0,4.39,Water Industry,Water Industry,,53.46427432348601,-2.3810422309625947,North West
300454,,SOUTH WEST WATER LTD,Plymouth Central STW,PL4 OPX,249800.0,53930.0,"Devon, Cornwall and the Isles of Scilly",Controlled Waters,Fluoranthene,0.1,0.12,Water Industry,Water Industry,,50.36605365411117,-4.1132599121048035,South West
300454,,SOUTH WEST WATER LTD,Plymouth Central STW,PL4 OPX,249800.0,53930.0,"Devon, Cornwall and the Isles of Scilly",Controlled Waters,"Indeno(1,2,3-cd)pyrene",1.0,0.0,Water Industry,Water Industry,,50.36605365411117,-4.1132599121048035,South West
300454,,SOUTH WEST WATER LTD,Plymouth Central STW,PL4 OPX,249800.0,53930.0,"Devon, Cornwall and the Isles of Scilly",Controlled Waters,Benzo(a)pyrene,1.0,0.0,Water Industry,Water Industry,,50.36605365411117,-4.1132599121048035,South West
200976,,SOUTH WEST WATER LTD,Brokenbury STW (TORBAY),TQ5 0LL,289750.0,56310.0,"Devon, Cornwall and the Isles of Scilly",Controlled Waters,Fluoranthene,0.1,0.13,Water Industry,Water Industry,,50.39629958802472,-3.5524947785411247,South West
200976,,SOUTH WEST WATER LTD,Brokenbury STW (TORBAY),TQ5 0LL,289750.0,56310.0,"Devon, Cornwall and the Isles of Scilly",Controlled Waters,"Indeno(1,2,3-cd)pyrene",1.0,0.0,Water Industry,Water Industry,,50.39629958802472,-3.5524947785411247,South West
200976,,SOUTH WEST WATER LTD,Brokenbury STW (TORBAY),TQ5 0LL,289750.0,56310.0,"Devon, Cornwall and the Isles of Scilly",Controlled Waters,Benzo(a)pyrene,1.0,0.0,Water Industry,Water Industry,,50.39629958802472,-3.5524947785411247,South West
A74/S/87,,Southern Water,Portobello STW (Brighton),BN10 7BD,539300.0,101460.0,Solent and South Downs,Controlled Waters,Fluoranthene,0.1,0.18,Water Industry,Water Industry,,50.79597145410508,-0.02481221964020708,South East
A74/S/87,,Southern Water,Portobello STW (Brighton),BN10 7BD,539300.0,101460.0,Solent and South Downs,Controlled Waters,"Indeno(1,2,3-cd)pyrene",1.0,1.04,Water Industry,Water Industry,,50.79597145410508,-0.02481221964020708,South East
A74/S/87,,Southern Water,Portobello STW (Brighton),BN10 7BD,539300.0,101460.0,Solent and South Downs,Controlled Waters,Benzo(a)pyrene,1.0,0.0,Water Industry,Water Industry,,50.79597145410508,-0.02481221964020708,South East
CNTD.0024,,THAMES WATER UTILITIES LTD,CAMBERLEY STW,GU15 3DE,485800.0,159500.0,Thames,Controlled Waters,Fluoranthene,0.1,0.0,Water Industry,Water Industry,,51.32813662985067,-0.7699431370528544,South East
CNTD.0024,,THAMES WATER UTILITIES LTD,CAMBERLEY STW,GU15 3DE,485800.0,159500.0,Thames,Controlled Waters,"Indeno(1,2,3-cd)pyrene",1.0,0.0,Water Industry,Water Industry,,51.32813662985067,-0.7699431370528544,South East
CNTD.0024,,THAMES WATER UTILITIES LTD,CAMBERLEY STW,GU15 3DE,485800.0,159500.0,Thames,Controlled Waters,Benzo(a)pyrene,1.0,0.0,Water Industry,Water Industry,,51.32813662985067,-0.7699431370528544,South East
A805/K/98,,Southern Water,Ashford STW,TN25 9QB,602020.0,143250.0,"Kent, South London and East Sussex",Controlled Waters,"Indeno(1,2,3-cd)pyrene",1.0,0.0,Water Industry,Water Industry,,51.15283805587308,0.8873201093750889,South East
A805/K/98,,Southern Water,Ashford STW,TN25 9QB,602020.0,143250.0,"Kent, South London and East Sussex",Controlled Waters,Benzo(a)pyrene,1.0,0.0,Water Industry,Water Industry,,51.15283805587308,0.8873201093750889,South East
A805/K/98,,Southern Water,Ashford STW,TN25 9QB,602020.0,143250.0,"Kent, South London and East Sussex",Controlled Waters,Fluoranthene,0.1,0.0,Water Industry,Water Industry,,51.15283805587308,0.8873201093750889,South East
100334,,Wessex Water,WESTON SUPER MARE STW,BS24 0AP,331100.0,156900.0,Wessex,Controlled Waters,Fluoranthene,0.1,0.0,Water Industry,Water Industry,,51.30702900915634,-2.989811329637559,South West
100334,,Wessex Water,WESTON SUPER MARE STW,BS24 0AP,331100.0,156900.0,Wessex,Controlled Waters,"Indeno(1,2,3-cd)pyrene",1.0,0.0,Water Industry,Water Industry,,51.30702900915634,-2.989811329637559,South West
100334,,Wessex Water,WESTON SUPER MARE STW,BS24 0AP,331100.0,156900.0,Wessex,Controlled Waters,Benzo(a)pyrene,1.0,0.0,Water Industry,Water Industry,,51.30702900915634,-2.989811329637559,South West
EP3830LE,"WASTE LANDFILLING; >10 T/D WITH CAPACITY >25,000T EXCLUDING INERT WASTE",ALAB ENVIRONMENTAL SERVICES LIMITED,Seaton Meadows Tofts Farm West Industrial Estate E Brenda Road Hartlepool Cleveland,TS25 2BS,453560.0,527960.0,North East,Controlled Waters,"Indeno(1,2,3-cd)pyrene",1.0,0.0,Landfill,Non Hazardous Landfill,,54.64391679880124,-1.1715794836759792,North East
EP3830LE,"WASTE LANDFILLING; >10 T/D WITH CAPACITY >25,000T EXCLUDING INERT WASTE",ALAB ENVIRONMENTAL SERVICES LIMITED,Seaton Meadows Tofts Farm West Industrial Estate E Brenda Road Hartlepool Cleveland,TS25 2BS,453560.0,527960.0,North East,Wastewater,"Indeno(1,2,3-cd)pyrene",1.0,0.0,Landfill,Non Hazardous Landfill,,54.64391679880124,-1.1715794836759792,North East
EP3830LE,"WASTE LANDFILLING; >10 T/D WITH CAPACITY >25,000T EXCLUDING INERT WASTE",ALAB ENVIRONMENTAL SERVICES LIMITED,Seaton Meadows Tofts Farm West Industrial Estate E Brenda Road Hartlepool Cleveland,TS25 2BS,453560.0,527960.0,North East,Controlled Waters,Fluoranthene,0.1,0.0,Landfill,Non Hazardous Landfill,,54.64391679880124,-1.1715794836759792,North East
EP3830LE,"WASTE LANDFILLING; >10 T/D WITH CAPACITY >25,000T EXCLUDING INERT WASTE",ALAB ENVIRONMENTAL SERVICES LIMITED,Seaton Meadows Tofts Farm West Industrial Estate E Brenda Road Hartlepool Cleveland,TS25 2BS,453560.0,527960.0,North East,Controlled Waters,Heptachlor,0.1,0.0,Landfill,Non Hazardous Landfill,,54.64391679880124,-1.1715794836759792,North East
EP3830LE,"WASTE LANDFILLING; >10 T/D WITH CAPACITY >25,000T EXCLUDING INERT WASTE",ALAB ENVIRONMENTAL SERVICES LIMITED,Seaton Meadows Tofts Farm West Industrial Estate E Brenda Road Hartlepool Cleveland,TS25 2BS,453560.0,527960.0,North East,Controlled Waters,Benzo(a)pyrene,1.0,0.0,Landfill,Non Hazardous Landfill,,54.64391679880124,-1.1715794836759792,North East
EP3830LE,"WASTE LANDFILLING; >10 T/D WITH CAPACITY >25,000T EXCLUDING INERT WASTE",ALAB ENVIRONMENTAL SERVICES LIMITED,Seaton Meadows Tofts Farm West Industrial Estate E Brenda Road Hartlepool Cleveland,TS25 2BS,453560.0,527960.0,North East,Wastewater,Benzo(a)pyrene,1.0,0.0,Landfill,Non Hazardous Landfill,,54.64391679880124,-1.1715794836759792,North East
EP3830LE,"WASTE LANDFILLING; >10 T/D WITH CAPACITY >25,000T EXCLUDING INERT WASTE",ALAB ENVIRONMENTAL SERVICES LIMITED,Seaton Meadows Tofts Farm West Industrial Estate E Brenda Road Hartlepool Cleveland,TS25 2BS,453560.0,527960.0,North East,Wastewater,Cypermethrin,0.005,0.0,Landfill,Non Hazardous Landfill,1.3e-05,54.64391679880124,-1.1715794836759792,North East
EP3830LE,"WASTE LANDFILLING; >10 T/D WITH CAPACITY >25,000T EXCLUDING INERT WASTE",ALAB ENVIRONMENTAL SERVICES LIMITED,Seaton Meadows Tofts Farm West Industrial Estate E Brenda Road Hartlepool Cleveland,TS25 2BS,453560.0,527960.0,North East,Controlled Waters,Cypermethrin,0.005,0.0,Landfill,Non Hazardous Landfill,1.3e-05,54.64391679880124,-1.1715794836759792,North East
EP3830LE,"WASTE LANDFILLING; >10 T/D WITH CAPACITY >25,000T EXCLUDING INERT WASTE",ALAB ENVIRONMENTAL SERVICES LIMITED,Seaton Meadows Tofts Farm West Industrial Estate E Brenda Road Hartlepool Cleveland,TS25 2BS,453560.0,527960.0,North East,Wastewater,Fluoranthene,0.1,0.0,Landfill,Non Hazardous Landfill,,54.64391679880124,-1.1715794836759792,North East
EP3830LE,"WASTE LANDFILLING; >10 T/D WITH CAPACITY >25,000T EXCLUDING INERT WASTE",ALAB ENVIRONMENTAL SERVICES LIMITED,Seaton Meadows Tofts Farm West Industrial Estate E Brenda Road Hartlepool Cleveland,TS25 2BS,453560.0,527960.0,North East,Wastewater,Heptachlor,0.1,0.0,Landfill,Non Hazardous Landfill,,54.64391679880124,-1.1715794836759792,North East
RP26/73,,Southern Water,Aylesford STW,ME20 7DA,572100.0,159500.0,"Kent, South London and East Sussex",Controlled Waters,Fluoranthene,0.1,0.0,Water Industry,Water Industry,,51.308594581861044,0.4677519059627789,South East
RP26/73,,Southern Water,Aylesford STW,ME20 7DA,572100.0,159500.0,"Kent, South London and East Sussex",Controlled Waters,"Indeno(1,2,3-cd)pyrene",1.0,0.0,Water Industry,Water Industry,,51.308594581861044,0.4677519059627789,South East
RP26/73,,Southern Water,Aylesford STW,ME20 7DA,572100.0,159500.0,"Kent, South London and East Sussex",Controlled Waters,Benzo(a)pyrene,1.0,0.0,Water Industry,Water Industry,,51.308594581861044,0.4677519059627789,South East
A1107/S/CH/99,,Southern Water,East Worthing STW,BN11 2SA,516930.0,103610.0,Solent and South Downs,Controlled Waters,Fluoranthene,0.1,0.1,Water Industry,Water Industry,,50.82023809902321,-0.3413847912627039,South East
A1107/S/CH/99,,Southern Water,East Worthing STW,BN11 2SA,516930.0,103610.0,Solent and South Downs,Controlled Waters,"Indeno(1,2,3-cd)pyrene",1.0,0.0,Water Industry,Water Industry,,50.82023809902321,-0.3413847912627039,South East
A1107/S/CH/99,,Southern Water,East Worthing STW,BN11 2SA,516930.0,103610.0,Solent and South Downs,Controlled Waters,Benzo(a)pyrene,1.0,0.0,Water Industry,Water Industry,,50.82023809902321,-0.3413847912627039,South East
WACT/257,,Southern Water,Budds Farm STW,PO9 1JW,470800.0,105570.0,Solent and South Downs,Controlled Waters,Fluoranthene,0.1,0.34,Water Industry,Water Industry,,50.84533022631547,-0.9957435813310475,South East
WACT/257,,Southern Water,Budds Farm STW,PO9 1JW,470800.0,105570.0,Solent and South Downs,Controlled Waters,"Indeno(1,2,3-cd)pyrene",1.0,1.95,Water Industry,Water Industry,,50.84533022631547,-0.9957435813310475,South East
WACT/257,,Southern Water,Budds Farm STW,PO9 1JW,470800.0,105570.0,Solent and South Downs,Controlled Waters,Benzo(a)pyrene,1.0,1.5,Water Industry,Water Industry,,50.84533022631547,-0.9957435813310475,South East
BK6858ID,"WASTE LANDFILLING; >10 T/D WITH CAPACITY >25,000T EXCLUDING INERT WASTE",Viridor Waste Management Limited,Sands Farm Landfill Sand Pit Road Calne Wiltshire,SN11 8TR,401500.0,170900.0,Wessex,Wastewater,Fluoranthene,0.1,0.0,Landfill,Non Hazardous Landfill,,51.43709554715196,-1.979810203963303,South West
BK6858ID,"WASTE LANDFILLING; >10 T/D WITH CAPACITY >25,000T EXCLUDING INERT WASTE",Viridor Waste Management Limited,Sands Farm Landfill Sand Pit Road Calne Wiltshire,SN11 8TR,401500.0,170900.0,Wessex,Wastewater,Benzo(a)pyrene,1.0,0.0,Landfill,Non Hazardous Landfill,,51.43709554715196,-1.979810203963303,South West
DP3336SQ,"PAPER, PULP AND BOARD; PRODUCING PAPER/BOARD >20T/D",Vernacare Limited,Bolton Paper Mill Folds Road,BL1 2TX,372300.0,409800.0,Greater Manchester Merseyside and Cheshire,Wastewater,Cypermethrin,0.005,0.0,Paper and textiles,Paper & Pulp,1.3e-05,53.584049858318885,-2.4198821752427864,North West
T/64/45170/R,,SEVERN TRENT WATER LTD,Stoke Bardolph STW Nottingham,NG14 5HL,464730.0,342220.0,East Midlands,Controlled Waters,Fluoranthene,0.1,0.43,Water Industry,Water Industry,,52.97343472688653,-1.0375249549284704,East Midlands
T/64/45170/R,,SEVERN TRENT WATER LTD,Stoke Bardolph STW Nottingham,NG14 5HL,464730.0,342220.0,East Midlands,Controlled Waters,"Indeno(1,2,3-cd)pyrene",1.0,2.46,Water Industry,Water Industry,,52.97343472688653,-1.0375249549284704,East Midlands
T/64/45170/R,,SEVERN TRENT WATER LTD,Stoke Bardolph STW Nottingham,NG14 5HL,464730.0,342220.0,East Midlands,Controlled Waters,Benzo(a)pyrene,1.0,1.9,Water Industry,Water Industry,,52.97343472688653,-1.0375249549284704,East Midlands
017280252,,UNITED UTILITIES WATER PLC,Fleetwood Wwtw Jameson Road Fleetwood Lancashire,FY7 8TW,333090.0,446180.0,Cumbria and Lancashire,Controlled Waters,Fluoranthene,0.1,0.35,Water Industry,Water Industry,,53.90743793916987,-3.0199685283693034,North West
017280252,,UNITED UTILITIES WATER PLC,Fleetwood Wwtw Jameson Road Fleetwood Lancashire,FY7 8TW,333090.0,446180.0,Cumbria and Lancashire,Controlled Waters,"Indeno(1,2,3-cd)pyrene",1.0,1.99,Water Industry,Water Industry,,53.90743793916987,-3.0199685283693034,North West
017280252,,UNITED UTILITIES WATER PLC,Fleetwood Wwtw Jameson Road Fleetwood Lancashire,FY7 8TW,333090.0,446180.0,Cumbria and Lancashire,Controlled Waters,Benzo(a)pyrene,1.0,1.54,Water Industry,Water Industry,,53.90743793916987,-3.0199685283693034,North West
017670049,,UNITED UTILITIES WATER PLC,CARLISLE WILLOWHOLME INDUSTRIAL ESTATE CARLISLE CUMBRIA,CA2 5SH,338470.0,556520.0,Cumbria and Lancashire,Controlled Waters,Fluoranthene,0.1,0.23,Water Industry,Water Industry,,54.89959994285756,-2.960999993430974,North West
017670049,,UNITED UTILITIES WATER PLC,CARLISLE WILLOWHOLME INDUSTRIAL ESTATE CARLISLE CUMBRIA,CA2 5SH,338470.0,556520.0,Cumbria and Lancashire,Controlled Waters,"Indeno(1,2,3-cd)pyrene",1.0,1.3,Water Industry,Water Industry,,54.89959994285756,-2.960999993430974,North West
017670049,,UNITED UTILITIES WATER PLC,CARLISLE WILLOWHOLME INDUSTRIAL ESTATE CARLISLE CUMBRIA,CA2 5SH,338470.0,556520.0,Cumbria and Lancashire,Controlled Waters,Benzo(a)pyrene,1.0,1.0,Water Industry,Water Industry,,54.89959994285756,-2.960999993430974,North West
016983122,,UNITED UTILITIES WATER PLC,WARRINGTON NORTH,,358110.0,386960.0,Greater Manchester Merseyside and Cheshire,Controlled Waters,Fluoranthene,0.1,0.1,Water Industry,Water Industry,,53.37782195383272,-2.6311554534335007,North West
016983122,,UNITED UTILITIES WATER PLC,WARRINGTON NORTH,,358110.0,386960.0,Greater Manchester Merseyside and Cheshire,Controlled Waters,"Indeno(1,2,3-cd)pyrene",1.0,0.0,Water Industry,Water Industry,,53.37782195383272,-2.6311554534335007,North West
016983122,,UNITED UTILITIES WATER PLC,WARRINGTON NORTH,,358110.0,386960.0,Greater Manchester Merseyside and Cheshire,Controlled Waters,Benzo(a)pyrene,1.0,0.0,Water Industry,Water Industry,,53.37782195383272,-2.6311554534335007,North West
CSSA.0364,,THAMES WATER UTILITIES LTD,RIVERSIDE STW,RM13 8RL,551500.0,181900.0,Hertfordshire and North London,Controlled Waters,Fluoranthene,0.1,0.34,Water Industry,Water Industry,,51.515713120730595,0.18200906924859406,London
CSSA.0364,,THAMES WATER UTILITIES LTD,RIVERSIDE STW,RM13 8RL,551500.0,181900.0,Hertfordshire and North London,Controlled Waters,"Indeno(1,2,3-cd)pyrene",1.0,1.91,Water Industry,Water Industry,,51.515713120730595,0.18200906924859406,London
CSSA.0364,,THAMES WATER UTILITIES LTD,RIVERSIDE STW,RM13 8RL,551500.0,181900.0,Hertfordshire and North London,Controlled Waters,Benzo(a)pyrene,1.0,1.48,Water Industry,Water Industry,,51.515713120730595,0.18200906924859406,London
CNTD.0058,,THAMES WATER UTILITIES LTD,LITTLE MARLOW STW,SL7 3RT,487800.0,187000.0,Thames,Controlled Waters,Fluoranthene,0.1,0.17,Water Industry,Water Industry,,51.57503906157903,-0.7344294503116684,South East
CNTD.0058,,THAMES WATER UTILITIES LTD,LITTLE MARLOW STW,SL7 3RT,487800.0,187000.0,Thames,Controlled Waters,"Indeno(1,2,3-cd)pyrene",1.0,0.0,Water Industry,Water Industry,,51.57503906157903,-0.7344294503116684,South East
CNTD.0058,,THAMES WATER UTILITIES LTD,LITTLE MARLOW STW,SL7 3RT,487800.0,187000.0,Thames,Controlled Waters,Benzo(a)pyrene,1.0,0.0,Water Industry,Water Industry,,51.57503906157903,-0.7344294503116684,South East
CTCR.0709,,THAMES WATER UTILITIES LTD,OXFORD STW,OX4 4YU,454200.0,202200.0,Thames,Controlled Waters,Fluoranthene,0.1,0.15,Water Industry,Water Industry,,51.71591848737045,-1.2168679929874056,South East
CTCR.0709,,THAMES WATER UTILITIES LTD,OXFORD STW,OX4 4YU,454200.0,202200.0,Thames,Controlled Waters,"Indeno(1,2,3-cd)pyrene",1.0,0.0,Water Industry,Water Industry,,51.71591848737045,-1.2168679929874056,South East
CTCR.0709,,THAMES WATER UTILITIES LTD,OXFORD STW,OX4 4YU,454200.0,202200.0,Thames,Controlled Waters,Benzo(a)pyrene,1.0,0.0,Water Industry,Water Industry,,51.71591848737045,-1.2168679929874056,South East
COPA/5571,,Southern Water,"Eastleigh STW, Chickenhall Lane, Eastleigh",SO50 6RQ,446530.0,118170.0,Solent and South Downs,Controlled Waters,Fluoranthene,0.1,0.0,Water Industry,Water Industry,,50.961083178576914,-1.338835559952014,South East
COPA/5571,,Southern Water,"Eastleigh STW, Chickenhall Lane, Eastleigh",SO50 6RQ,446530.0,118170.0,Solent and South Downs,Controlled Waters,"Indeno(1,2,3-cd)pyrene",1.0,0.0,Water Industry,Water Industry,,50.961083178576914,-1.338835559952014,South East
COPA/5571,,Southern Water,"Eastleigh STW, Chickenhall Lane, Eastleigh",SO50 6RQ,446530.0,118170.0,Solent and South Downs,Controlled Waters,Benzo(a)pyrene,1.0,0.0,Water Industry,Water Industry,,50.961083178576914,-1.338835559952014,South East
BJ4302IZ,"PAPER, PULP AND BOARD; PRODUCING PAPER/BOARD >20T/D",Hollingsworth and Vose Company Limited,Winchcombe Paper Mill Postlip Mills Winchcombe Cheltenham Gloucestershire,GL54 5BB,400900.0,227100.0,West Midlands,Controlled Waters,Cypermethrin,0.005,0.0,Paper and textiles,Paper & Pulp,1.3e-05,51.94240051368775,-1.9883155764070104,South West
CSSC.0315,,THAMES WATER UTILITIES LTD,AYLESBURY STW,HP19 3RT,478900.0,214800.0,Thames,Controlled Waters,Fluoranthene,0.1,0.0,Water Industry,Water Industry,,51.826257725543016,-0.856547741555394,South East
CSSC.0315,,THAMES WATER UTILITIES LTD,AYLESBURY STW,HP19 3RT,478900.0,214800.0,Thames,Controlled Waters,"Indeno(1,2,3-cd)pyrene",1.0,0.0,Water Industry,Water Industry,,51.826257725543016,-0.856547741555394,South East
CSSC.0315,,THAMES WATER UTILITIES LTD,AYLESBURY STW,HP19 3RT,478900.0,214800.0,Thames,Controlled Waters,Benzo(a)pyrene,1.0,0.0,Water Industry,Water Industry,,51.826257725543016,-0.856547741555394,South East
CSSA.0360,,THAMES WATER UTILITIES LTD,BECKTON STW,IG11 0AD,545470.0,181670.0,Hertfordshire and North London,Controlled Waters,Fluoranthene,0.1,3.63,Water Industry,Water Industry,,51.51523004416228,0.09507429939023963,London
CSSA.0360,,THAMES WATER UTILITIES LTD,BECKTON STW,IG11 0AD,545470.0,181670.0,Hertfordshire and North London,Controlled Waters,"Indeno(1,2,3-cd)pyrene",1.0,20.7,Water Industry,Water Industry,,51.51523004416228,0.09507429939023963,London
CSSA.0360,,THAMES WATER UTILITIES LTD,BECKTON STW,IG11 0AD,545470.0,181670.0,Hertfordshire and North London,Controlled Waters,Benzo(a)pyrene,1.0,16.0,Water Industry,Water Industry,,51.51523004416228,0.09507429939023963,London
CNTD.0067,,THAMES WATER UTILITIES LTD,LONG REACH STW,DA1 5PP,555600.0,176700.0,"Kent, South London and East Sussex",Controlled Waters,Fluoranthene,0.1,0.66,Water Industry,Water Industry,,51.46787978063073,0.2387595087625488,South East
CNTD.0067,,THAMES WATER UTILITIES LTD,LONG REACH STW,DA1 5PP,555600.0,176700.0,"Kent, South London and East Sussex",Controlled Waters,"Indeno(1,2,3-cd)pyrene",1.0,3.76,Water Industry,Water Industry,,51.46787978063073,0.2387595087625488,South East
CNTD.0067,,THAMES WATER UTILITIES LTD,LONG REACH STW,DA1 5PP,555600.0,176700.0,"Kent, South London and East Sussex",Controlled Waters,Benzo(a)pyrene,1.0,2.91,Water Industry,Water Industry,,51.46787978063073,0.2387595087625488,South East
CNTW.0890,,Anglian Water,BASILDON,,573700.0,187400.0,East Anglia,Controlled Waters,Fluoranthene,0.1,0.0,Water Industry,Water Industry,,51.55873510304531,0.5043570910085773,
CNTW.0890,,Anglian Water,BASILDON,,573700.0,187400.0,East Anglia,Controlled Waters,"Indeno(1,2,3-cd)pyrene",1.0,0.0,Water Industry,Water Industry,,51.55873510304531,0.5043570910085773,
CNTW.0890,,Anglian Water,BASILDON,,573700.0,187400.0,East Anglia,Controlled Waters,Benzo(a)pyrene,1.0,0.0,Water Industry,Water Industry,,51.55873510304531,0.5043570910085773,
BJ7433IQ,"PAPER, PULP AND BOARD; PRODUCING PAPER/BOARD >20T/D",Smurfit Kappa UK Limited,Snodland Paper Mill Mill Street KENT,ME6 5AX,570780.0,161600.0,"Kent, South London and East Sussex",Controlled Waters,Cypermethrin,0.005,0.022,Paper and textiles,Paper & Pulp,1.3e-05,51.32785729236587,0.44983752235459606,South East
CNTM.2237,,THAMES WATER UTILITIES LTD,SLOUGH STW,SL1 9EB,494100.0,179200.0,Thames,Controlled Waters,Fluoranthene,0.1,0.22,Water Industry,Water Industry,,51.503910638290265,-0.6456287673436109,South East
CNTM.2237,,THAMES WATER UTILITIES LTD,SLOUGH STW,SL1 9EB,494100.0,179200.0,Thames,Controlled Waters,"Indeno(1,2,3-cd)pyrene",1.0,1.24,Water Industry,Water Industry,,51.503910638290265,-0.6456287673436109,South East
CNTM.2237,,THAMES WATER UTILITIES LTD,SLOUGH STW,SL1 9EB,494100.0,179200.0,Thames,Controlled Waters,Benzo(a)pyrene,1.0,0.0,Water Industry,Water Industry,,51.503910638290265,-0.6456287673436109,South East
LP3232ZM,"PAPER, PULP AND BOARD; PRODUCING PAPER/BOARD >20T/D",Northwood Tissue (Lancaster) Limited,Np. Lancaster Tissue Lansil Way Lansil Industrial Estate,LA1 3QY,348510.0,463390.0,Cumbria and Lancashire,Wastewater,Cypermethrin,0.005,0.0,Paper and textiles,Paper & Pulp,1.3e-05,54.06386589165328,-2.788194076139218,North West
XP3533WY,INORGANIC CHEMICALS; SALTS EG AMMONIUM CHLORIDE,Arch Timber Protection Limited,Huddersfield Chemical Industry PO Box A521 Leeds Road Huddersfield West Yorkshire,HD2 1FG,414540.0,416860.0,Yorkshire,Wastewater,Cypermethrin,0.005,0.0,Chemicals,Chemicals,1.3e-05,53.64804554955977,-1.7815156220250792,Yorkshire and The Humber
LP3832NM,"WASTE LANDFILLING; >10 T/D WITH CAPACITY >25,000T EXCLUDING INERT WASTE",Durham County Council,Joint Stocks Landfill Joint Stocks Quarry Coxhoe Durham,DH6 4RT,433100.0,536500.0,North East,Wastewater,Fluoranthene,0.1,0.0,Landfill,Non Hazardous Landfill,,54.72241213125292,-1.4876334453559477,North East
LP3832NM,"WASTE LANDFILLING; >10 T/D WITH CAPACITY >25,000T EXCLUDING INERT WASTE",Durham County Council,Joint Stocks Landfill Joint Stocks Quarry Coxhoe Durham,DH6 4RT,433100.0,536500.0,North East,Wastewater,Heptachlor,0.1,0.0,Landfill,Non Hazardous Landfill,,54.72241213125292,-1.4876334453559477,North East
LP3832NM,"WASTE LANDFILLING; >10 T/D WITH CAPACITY >25,000T EXCLUDING INERT WASTE",Durham County Council,Joint Stocks Landfill Joint Stocks Quarry Coxhoe Durham,DH6 4RT,433100.0,536500.0,North East,Wastewater,Benzo(a)pyrene,1.0,0.0,Landfill,Non Hazardous Landfill,,54.72241213125292,-1.4876334453559477,North East
BP3731ZS,"COATING, PRINTING AND TEXTILES; PRE-TREATING BY WASHING ETC >10T/DAY",Lawton Yarns Limited,Ravens Ing Mills Netherfield Road Dewsbury West Yorkshire,WF13 3JE,422960.0,420450.0,Yorkshire,Wastewater,Cypermethrin,0.005,0.0,Paper and textiles,Textiles,1.3e-05,53.680012549495565,-1.6538768802807502,Yorkshire and The Humber
S/07/56066/R,,SEVERN TRENT WATER LTD,Worcester STW,WR2 4ZP,384361.0,253530.0,West Midlands,Controlled Waters,Fluoranthene,0.1,0.0,Water Industry,Water Industry,,52.17979766833557,-2.2301339588886964,West Midlands
S/07/56066/R,,SEVERN TRENT WATER LTD,Worcester STW,WR2 4ZP,384361.0,253530.0,West Midlands,Controlled Waters,"Indeno(1,2,3-cd)pyrene",1.0,0.0,Water Industry,Water Industry,,52.17979766833557,-2.2301339588886964,West Midlands
S/07/56066/R,,SEVERN TRENT WATER LTD,Worcester STW,WR2 4ZP,384361.0,253530.0,West Midlands,Controlled Waters,Benzo(a)pyrene,1.0,0.0,Water Industry,Water Industry,,52.17979766833557,-2.2301339588886964,West Midlands
BM6093IS,"WASTE LANDFILLING; >10 T/D WITH CAPACITY >25,000T EXCLUDING INERT WASTE",Fcc Waste Services (Uk) Limited,Bennett Bank Landfill Thwaite Flat Barrow in Furness Cumbria,LA14 4QH,321500.0,475000.0,Cumbria and Lancashire,Wastewater,Heptachlor,0.1,0.0,Landfill,Non Hazardous Landfill,,54.16477532005344,-3.2038092552016577,North West
LP3434HA,"WASTE LANDFILLING; >10 T/D WITH CAPACITY >25,000T EXCLUDING INERT WASTE",Bradley Park Waste Management Limited,Bradley Park Landfill Lower Quarry Road Huddersfield West Yorkshire,HD2 1FN,416350.0,421350.0,Yorkshire,Wastewater,Fluoranthene,0.1,0.0,Landfill,Non Hazardous Landfill,,53.68834894210262,-1.7538996405163412,Yorkshire and The Humber
LP3434HA,"WASTE LANDFILLING; >10 T/D WITH CAPACITY >25,000T EXCLUDING INERT WASTE",Bradley Park Waste Management Limited,Bradley Park Landfill Lower Quarry Road Huddersfield West Yorkshire,HD2 1FN,416350.0,421350.0,Yorkshire,Wastewater,Heptachlor,0.1,0.0,Landfill,Non Hazardous Landfill,,53.68834894210262,-1.7538996405163412,Yorkshire and The Humber
LP3434HA,"WASTE LANDFILLING; >10 T/D WITH CAPACITY >25,000T EXCLUDING INERT WASTE",Bradley Park Waste Management Limited,Bradley Park Landfill Lower Quarry Road Huddersfield West Yorkshire,HD2 1FN,416350.0,421350.0,Yorkshire,Controlled Waters,Heptachlor,0.1,0.0,Landfill,Non Hazardous Landfill,,53.68834894210262,-1.7538996405163412,Yorkshire and The Humber
LP3434HA,"WASTE LANDFILLING; >10 T/D WITH CAPACITY >25,000T EXCLUDING INERT WASTE",Bradley Park Waste Management Limited,Bradley Park Landfill Lower Quarry Road Huddersfield West Yorkshire,HD2 1FN,416350.0,421350.0,Yorkshire,Controlled Waters,Benzo(a)pyrene,1.0,0.0,Landfill,Non Hazardous Landfill,,53.68834894210262,-1.7538996405163412,Yorkshire and The Humber
LP3434HA,"WASTE LANDFILLING; >10 T/D WITH CAPACITY >25,000T EXCLUDING INERT WASTE",Bradley Park Waste Management Limited,Bradley Park Landfill Lower Quarry Road Huddersfield West Yorkshire,HD2 1FN,416350.0,421350.0,Yorkshire,Wastewater,Benzo(a)pyrene,1.0,0.0,Landfill,Non Hazardous Landfill,,53.68834894210262,-1.7538996405163412,Yorkshire and The Humber
BR4977IH,"COATING, PRINTING AND TEXTILES; PRE-TREATING BY WASHING ETC >10T/DAY",Bulmer and Lumb Group Ltd,Buttershaw Textiles ROYDS HALL LANE BUTTERSHAW WEST YORKSHIRE,BD6 2NE,414340.0,429240.0,Yorkshire,Wastewater,Cypermethrin,0.005,0.0529,Paper and textiles,Textiles,1.3e-05,53.75932288343611,-1.7839727532399492,Yorkshire and The Humber
016993399,,UNITED UTILITIES WATER PLC,BIRKENHEAD,,332800.0,389400.0,Greater Manchester Merseyside and Cheshire,Controlled Waters,Fluoranthene,0.1,0.18,Water Industry,Water Industry,,53.3971324575507,-3.012083267411799,North West
016993399,,UNITED UTILITIES WATER PLC,BIRKENHEAD,,332800.0,389400.0,Greater Manchester Merseyside and Cheshire,Controlled Waters,"Indeno(1,2,3-cd)pyrene",1.0,0.0,Water Industry,Water Industry,,53.3971324575507,-3.012083267411799,North West
016993399,,UNITED UTILITIES WATER PLC,BIRKENHEAD,,332800.0,389400.0,Greater Manchester Merseyside and Cheshire,Controlled Waters,Benzo(a)pyrene,1.0,0.0,Water Industry,Water Industry,,53.3971324575507,-3.012083267411799,North West
T/01/21819/R,,SEVERN TRENT WATER LTD,Strongford Sewage Treatment Works Barlaston Old Road Barlaston Stoke On Trent Staffordshire,ST12 9EX,387930.0,339120.0,West Midlands,Controlled Waters,Fluoranthene,0.1,0.38,Water Industry,Water Industry,,52.94932370402649,-2.1810843207600032,West Midlands
T/01/21819/R,,SEVERN TRENT WATER LTD,Strongford Sewage Treatment Works Barlaston Old Road Barlaston Stoke On Trent Staffordshire,ST12 9EX,387930.0,339120.0,West Midlands,Controlled Waters,"Indeno(1,2,3-cd)pyrene",1.0,2.17,Water Industry,Water Industry,,52.94932370402649,-2.1810843207600032,West Midlands
T/01/21819/R,,SEVERN TRENT WATER LTD,Strongford Sewage Treatment Works Barlaston Old Road Barlaston Stoke On Trent Staffordshire,ST12 9EX,387930.0,339120.0,West Midlands,Controlled Waters,Benzo(a)pyrene,1.0,1.67,Water Industry,Water Industry,,52.94932370402649,-2.1810843207600032,West Midlands
S/06/55227/R,,SEVERN TRENT WATER LTD,Barnhurst STW,WV95HN,390000.0,301650.0,West Midlands,Controlled Waters,Fluoranthene,0.1,0.14,Water Industry,Water Industry,,52.61253137355055,-2.149118878174962,West Midlands
S/06/55227/R,,SEVERN TRENT WATER LTD,Barnhurst STW,WV95HN,390000.0,301650.0,West Midlands,Controlled Waters,"Indeno(1,2,3-cd)pyrene",1.0,0.0,Water Industry,Water Industry,,52.61253137355055,-2.149118878174962,West Midlands
S/06/55227/R,,SEVERN TRENT WATER LTD,Barnhurst STW,WV95HN,390000.0,301650.0,West Midlands,Controlled Waters,Benzo(a)pyrene,1.0,0.0,Water Industry,Water Industry,,52.61253137355055,-2.149118878174962,West Midlands
T/10/35431/R,,SEVERN TRENT WATER LTD,Minworth Final ASP Effluent,B76 9BE,417150.0,291950.0,West Midlands,Controlled Waters,Fluoranthene,0.1,1.54,Water Industry,Water Industry,,52.52515798528092,-1.7486529341897021,West Midlands
T/10/35431/R,,SEVERN TRENT WATER LTD,Minworth Final ASP Effluent,B76 9BE,417150.0,291950.0,West Midlands,Controlled Waters,"Indeno(1,2,3-cd)pyrene",1.0,8.78,Water Industry,Water Industry,,52.52515798528092,-1.7486529341897021,West Midlands
T/10/35431/R,,SEVERN TRENT WATER LTD,Minworth Final ASP Effluent,B76 9BE,417150.0,291950.0,West Midlands,Controlled Waters,Benzo(a)pyrene,1.0,6.78,Water Industry,Water Industry,,52.52515798528092,-1.7486529341897021,West Midlands
235/1695,,NORTHUMBRIAN WATER LTD,Howdon Sewage Treatment Works Northumberland Dock Road Wallsend Tyne And Wear,NE28 0QD,433340.0,566290.0,North East,Controlled Waters,Fluoranthene,0.1,0.84,Water Industry,Water Industry,,54.990089316955455,-1.4804801697261554,North East
235/1695,,NORTHUMBRIAN WATER LTD,Howdon Sewage Treatment Works Northumberland Dock Road Wallsend Tyne And Wear,NE28 0QD,433340.0,566290.0,North East,Controlled Waters,"Indeno(1,2,3-cd)pyrene",1.0,4.79,Water Industry,Water Industry,,54.990089316955455,-1.4804801697261554,North East
235/1695,,NORTHUMBRIAN WATER LTD,Howdon Sewage Treatment Works Northumberland Dock Road Wallsend Tyne And Wear,NE28 0QD,433340.0,566290.0,North East,Controlled Waters,Benzo(a)pyrene,1.0,3.7,Water Industry,Water Industry,,54.990089316955455,-1.4804801697261554,North East
T/48/12074/R,,SEVERN TRENT WATER LTD,Derby Sewage Treatment Works Chp Plant Megaloughton Lane Spondon Derby Derbyshire,DE21 7BR,438830.0,343470.0,East Midlands,Controlled Waters,Fluoranthene,0.1,0.25,Water Industry,Water Industry,,52.98716656830344,-1.42303516929143,East Midlands
T/48/12074/R,,SEVERN TRENT WATER LTD,Derby Sewage Treatment Works Chp Plant Megaloughton Lane Spondon Derby Derbyshire,DE21 7BR,438830.0,343470.0,East Midlands,Controlled Waters,"Indeno(1,2,3-cd)pyrene",1.0,1.44,Water Industry,Water Industry,,52.98716656830344,-1.42303516929143,East Midlands
T/48/12074/R,,SEVERN TRENT WATER LTD,Derby Sewage Treatment Works Chp Plant Megaloughton Lane Spondon Derby Derbyshire,DE21 7BR,438830.0,343470.0,East Midlands,Controlled Waters,Benzo(a)pyrene,1.0,1.11,Water Industry,Water Industry,,52.98716656830344,-1.42303516929143,East Midlands
T/22/35463/R,,SEVERN TRENT WATER LTD,Tamworth STW,B79 8NN,418560.0,306760.0,West Midlands,Controlled Waters,Fluoranthene,0.1,0.0,Water Industry,Water Industry,,52.65824931884184,-1.7270456772332867,West Midlands
T/22/35463/R,,SEVERN TRENT WATER LTD,Tamworth STW,B79 8NN,418560.0,306760.0,West Midlands,Controlled Waters,"Indeno(1,2,3-cd)pyrene",1.0,0.0,Water Industry,Water Industry,,52.65824931884184,-1.7270456772332867,West Midlands
T/22/35463/R,,SEVERN TRENT WATER LTD,Tamworth STW,B79 8NN,418560.0,306760.0,West Midlands,Controlled Waters,Benzo(a)pyrene,1.0,0.0,Water Industry,Water Industry,,52.65824931884184,-1.7270456772332867,West Midlands
010005,,Wessex Water,BATH (SALTFORD) STW,BS31 3ER,368900.0,168800.0,Wessex,Controlled Waters,Fluoranthene,0.1,0.1,Water Industry,Water Industry,,51.41735547857703,-2.448613053184618,South West
010005,,Wessex Water,BATH (SALTFORD) STW,BS31 3ER,368900.0,168800.0,Wessex,Controlled Waters,"Indeno(1,2,3-cd)pyrene",1.0,0.0,Water Industry,Water Industry,,51.41735547857703,-2.448613053184618,South West
010005,,Wessex Water,BATH (SALTFORD) STW,BS31 3ER,368900.0,168800.0,Wessex,Controlled Waters,Benzo(a)pyrene,1.0,0.0,Water Industry,Water Industry,,51.41735547857703,-2.448613053184618,South West
T/12/35338/R,,SEVERN TRENT WATER LTD,Coleshill STW,B46 1NX,419000.0,291000.0,West Midlands,Controlled Waters,Fluoranthene,0.1,0.2,Water Industry,Water Industry,,52.51655670471135,-1.721439707484814,West Midlands
T/12/35338/R,,SEVERN TRENT WATER LTD,Coleshill STW,B46 1NX,419000.0,291000.0,West Midlands,Controlled Waters,"Indeno(1,2,3-cd)pyrene",1.0,1.14,Water Industry,Water Industry,,52.51655670471135,-1.721439707484814,West Midlands
T/12/35338/R,,SEVERN TRENT WATER LTD,Coleshill STW,B46 1NX,419000.0,291000.0,West Midlands,Controlled Waters,Benzo(a)pyrene,1.0,0.0,Water Industry,Water Industry,,52.51655670471135,-1.721439707484814,West Midlands
T/08/09076/R,,SEVERN TRENT WATER LTD,Ray Hall Sand Filters STW,B43 6JE,402900.0,293700.0,West Midlands,Controlled Waters,Fluoranthene,0.1,0.12,Water Industry,Water Industry,,52.54114944865429,-1.9586717376025498,West Midlands
T/08/09076/R,,SEVERN TRENT WATER LTD,Ray Hall Sand Filters STW,B43 6JE,402900.0,293700.0,West Midlands,Controlled Waters,"Indeno(1,2,3-cd)pyrene",1.0,0.0,Water Industry,Water Industry,,52.54114944865429,-1.9586717376025498,West Midlands
T/08/09076/R,,SEVERN TRENT WATER LTD,Ray Hall Sand Filters STW,B43 6JE,402900.0,293700.0,West Midlands,Controlled Waters,Benzo(a)pyrene,1.0,0.0,Water Industry,Water Industry,,52.54114944865429,-1.9586717376025498,West Midlands
T/08/35452/R,,SEVERN TRENT WATER LTD,Goscote STW,WS3 4DW,402190.0,301920.0,West Midlands,Controlled Waters,Fluoranthene,0.1,0.0,Water Industry,Water Industry,,52.615048826782534,-1.9690888796685821,West Midlands
T/08/35452/R,,SEVERN TRENT WATER LTD,Goscote STW,WS3 4DW,402190.0,301920.0,West Midlands,Controlled Waters,"Indeno(1,2,3-cd)pyrene",1.0,0.0,Water Industry,Water Industry,,52.615048826782534,-1.9690888796685821,West Midlands
T/08/35452/R,,SEVERN TRENT WATER LTD,Goscote STW,WS3 4DW,402190.0,301920.0,West Midlands,Controlled Waters,Benzo(a)pyrene,1.0,0.0,Water Industry,Water Industry,,52.615048826782534,-1.9690888796685821,West Midlands
CP3936LL,DISPOSAL OR RECOVERY OF HAZARDOUS WASTE WITH A CAPACITY EXCEEDING 10 TONNES PER DAY INVOLVING PHYSICO-CHEMICAL TREATMENT,Viridor Waste (Thames) Ltd,Camberley Treatment Plant Camberley Sewage Treatment Works Doman Road Surrey,GU15 3DF,486230.0,159750.0,Thames,Wastewater,Fluoranthene,0.1,0.0,Waste Treatment,Hazardous,,51.33031908852395,-0.7637126811636438,South East
CP3936LL,DISPOSAL OR RECOVERY OF HAZARDOUS WASTE WITH A CAPACITY EXCEEDING 10 TONNES PER DAY INVOLVING PHYSICO-CHEMICAL TREATMENT,Viridor Waste (Thames) Ltd,Camberley Treatment Plant Camberley Sewage Treatment Works Doman Road Surrey,GU15 3DF,486230.0,159750.0,Thames,Wastewater,Benzo(a)pyrene,1.0,0.0,Waste Treatment,Hazardous,,51.33031908852395,-0.7637126811636438,South East
QP3230LE,"WASTE LANDFILLING; >10 T/D WITH CAPACITY >25,000T EXCLUDING INERT WASTE",WESTCOMBE WASTE LTD,WHISCOMBE HILL LANDFILL SITE WESTCOMBE HILL SOMERTONFIELD ROAD SOMERSET,TA11 6PZ,346500.0,129300.0,Wessex,Wastewater,Benzo(a)pyrene,1.0,0.0,Landfill,Non Hazardous Landfill,,51.060532638772195,-2.7647909338182863,South West
BK0205IE,"PAPER, PULP AND BOARD; PRODUCING PAPER/BOARD >20T/D",SCA Hygiene Products UK Limited,PRUDHOE MILL PRINCESS WAY NORTHUMBERLAND,NE42 6HE,409470.0,563760.0,North East,Controlled Waters,Cypermethrin,0.005,0.01,Paper and textiles,Paper & Pulp,1.3e-05,54.968374615253325,-1.853610607877221,North East
JP3030DD,TAR AND BITUMEN; DISTILLING >5 T/A  IN CONNECTION WITH MANUFACTURE,Industrial Chemicals Limited,Port Clarence Works Huntsman Bridge Port Clarence Middlesbrough Cleveland,TS2 1SD,451200.0,521300.0,North East,Controlled Waters,"Indeno(1,2,3-cd)pyrene",1.0,0.0,Chemicals,Chemicals,,54.584315376904016,-1.209305506178323,North East
JP3030DD,TAR AND BITUMEN; DISTILLING >5 T/A  IN CONNECTION WITH MANUFACTURE,Industrial Chemicals Limited,Port Clarence Works Huntsman Bridge Port Clarence Middlesbrough Cleveland,TS2 1SD,451200.0,521300.0,North East,Controlled Waters,Benzo(a)pyrene,1.0,0.0,Chemicals,Chemicals,,54.584315376904016,-1.209305506178323,North East
BR5035IT,"COATING, PRINTING AND TEXTILES; PRE-TREATING BY WASHING ETC >10T/DAY",Calder Textiles Limited,ANCHOR HOUSE DEWSBURY MILLS THORNHILL ROAD WEST YORKSHIRE,WF12 9QE,424000.0,420500.0,Yorkshire,Wastewater,Cypermethrin,0.005,0.012,Paper and textiles,Textiles,1.3e-05,53.68041544900611,-1.638128447226507,Yorkshire and The Humber
BR4705IR,"COATING, PRINTING AND TEXTILES; PRE-TREATING BY WASHING ETC >10T/DAY",Standard Wool (UK) Limited,Eastfield Mills EASTFIELD MILLS WEST YORKSHIRE,WF12 8EH,424900.0,421400.0,Yorkshire,Wastewater,Cypermethrin,0.005,3.269,Paper and textiles,Textiles,1.3e-05,53.68846267924885,-1.6244313027457664,Yorkshire and The Humber
BV0627IL,"WASTE LANDFILLING; >10 T/D WITH CAPACITY >25,000T EXCLUDING INERT WASTE",North Lincolnshire Council,Conesby Quarry Landfill Normanby Road Scunthorpe North Lincolnshire,DN15 8QZ,489850.0,414500.0,Lincolnshire and Northamptonshire,Wastewater,Fluoranthene,0.1,0.0,Landfill,Non Hazardous Landfill,,53.61934413448165,-0.6431195830322438,Yorkshire and The Humber
BV0627IL,"WASTE LANDFILLING; >10 T/D WITH CAPACITY >25,000T EXCLUDING INERT WASTE",North Lincolnshire Council,Conesby Quarry Landfill Normanby Road Scunthorpe North Lincolnshire,DN15 8QZ,489850.0,414500.0,Lincolnshire and Northamptonshire,Wastewater,Benzo(a)pyrene,1.0,0.0,Landfill,Non Hazardous Landfill,,53.61934413448165,-0.6431195830322438,Yorkshire and The Humber
BU3485IS,ORGANIC CHEMICALS; HALOGEN CONTAINING COMPOUNDS EG HALOCARBONS,F2 CHEMICALS LTD,F2 Chemicals Limited Lea Lane Preston Lancashire,PR4 0RZ,347550.0,431250.0,Cumbria and Lancashire,Wastewater,Fluoranthene,0.1,0.0,Chemicals,Chemicals,,53.774930076533344,-2.797335665259419,North West
JP3338ST,"WASTE LANDFILLING; >10 T/D WITH CAPACITY >25,000T EXCLUDING INERT WASTE",Woods Waste Limited,Westby Landfill Site Annas Road Lancashire,FY4 5JY,335810.0,431170.0,Cumbria and Lancashire,Controlled Waters,"Indeno(1,2,3-cd)pyrene",1.0,0.0,Landfill,Non Hazardous Landfill,,53.77289393648737,-2.9754312375126735,North West
JP3338ST,"WASTE LANDFILLING; >10 T/D WITH CAPACITY >25,000T EXCLUDING INERT WASTE",Woods Waste Limited,Westby Landfill Site Annas Road Lancashire,FY4 5JY,335810.0,431170.0,Cumbria and Lancashire,Controlled Waters,Fluoranthene,0.1,0.0,Landfill,Non Hazardous Landfill,,53.77289393648737,-2.9754312375126735,North West
JP3338ST,"WASTE LANDFILLING; >10 T/D WITH CAPACITY >25,000T EXCLUDING INERT WASTE",Woods Waste Limited,Westby Landfill Site Annas Road Lancashire,FY4 5JY,335810.0,431170.0,Cumbria and Lancashire,Controlled Waters,Heptachlor,0.1,0.0,Landfill,Non Hazardous Landfill,,53.77289393648737,-2.9754312375126735,North West
JP3338ST,"WASTE LANDFILLING; >10 T/D WITH CAPACITY >25,000T EXCLUDING INERT WASTE",Woods Waste Limited,Westby Landfill Site Annas Road Lancashire,FY4 5JY,335810.0,431170.0,Cumbria and Lancashire,Controlled Waters,Benzo(a)pyrene,1.0,0.0,Landfill,Non Hazardous Landfill,,53.77289393648737,-2.9754312375126735,North West
JP3338ST,"WASTE LANDFILLING; >10 T/D WITH CAPACITY >25,000T EXCLUDING INERT WASTE",Woods Waste Limited,Westby Landfill Site Annas Road Lancashire,FY4 5JY,335810.0,431170.0,Cumbria and Lancashire,Controlled Waters,Cypermethrin,0.005,0.0,Landfill,Non Hazardous Landfill,1.3e-05,53.77289393648737,-2.9754312375126735,North West
RP3231XX,"WASTE LANDFILLING; >10 T/D WITH CAPACITY >25,000T EXCLUDING INERT WASTE",Tudor Griffiths Ltd,Wood Lane Landfill Wood Lane Ellesmere Shropshire,SY12 0HY,342200.0,332560.0,West Midlands,Wastewater,Fluoranthene,0.1,0.0,Landfill,Non Hazardous Landfill,,52.88737383010713,-2.8604618471665026,West Midlands
RP3231XX,"WASTE LANDFILLING; >10 T/D WITH CAPACITY >25,000T EXCLUDING INERT WASTE",Tudor Griffiths Ltd,Wood Lane Landfill Wood Lane Ellesmere Shropshire,SY12 0HY,342200.0,332560.0,West Midlands,Wastewater,Heptachlor,0.1,0.0,Landfill,Non Hazardous Landfill,,52.88737383010713,-2.8604618471665026,West Midlands
RP3231XX,"WASTE LANDFILLING; >10 T/D WITH CAPACITY >25,000T EXCLUDING INERT WASTE",Tudor Griffiths Ltd,Wood Lane Landfill Wood Lane Ellesmere Shropshire,SY12 0HY,342200.0,332560.0,West Midlands,Wastewater,"Indeno(1,2,3-cd)pyrene",1.0,0.0,Landfill,Non Hazardous Landfill,,52.88737383010713,-2.8604618471665026,West Midlands
RP3231XX,"WASTE LANDFILLING; >10 T/D WITH CAPACITY >25,000T EXCLUDING INERT WASTE",Tudor Griffiths Ltd,Wood Lane Landfill Wood Lane Ellesmere Shropshire,SY12 0HY,342200.0,332560.0,West Midlands,Wastewater,Benzo(a)pyrene,1.0,0.0,Landfill,Non Hazardous Landfill,,52.88737383010713,-2.8604618471665026,West Midlands
RP3231XX,"WASTE LANDFILLING; >10 T/D WITH CAPACITY >25,000T EXCLUDING INERT WASTE",Tudor Griffiths Ltd,Wood Lane Landfill Wood Lane Ellesmere Shropshire,SY12 0HY,342200.0,332560.0,West Midlands,Wastewater,Cypermethrin,0.005,0.0,Landfill,Non Hazardous Landfill,1.3e-05,52.88737383010713,-2.8604618471665026,West Midlands
AP3634FT,TREATMENT AND PROCESSING (OTHER THAN PACKAGING) OF ONLY VEGETABLE RAW MATERIALS WITH A FINISHED PRODUCT CAPACITY > 300 T/D (OR 600 T/D FOR OPERATIONS LESS THAN 90 CONSECUTIVE DAYS IN ANY YEAR_,Princes Limited,Food Factory Lynn Road Wisbech Lynn Road Wisbech Cambridgeshire,PE13 3DG,546900.0,310500.0,Lincolnshire and Northamptonshire,Wastewater,Heptachlor,0.1,0.0,Food & Drink,Food & Drink,,52.67230217933072,0.1711552406707043,East of England
AP3634FT,TREATMENT AND PROCESSING (OTHER THAN PACKAGING) OF ONLY VEGETABLE RAW MATERIALS WITH A FINISHED PRODUCT CAPACITY > 300 T/D (OR 600 T/D FOR OPERATIONS LESS THAN 90 CONSECUTIVE DAYS IN ANY YEAR_,Princes Limited,Food Factory Lynn Road Wisbech Lynn Road Wisbech Cambridgeshire,PE13 3DG,546900.0,310500.0,Lincolnshire and Northamptonshire,Wastewater,Cypermethrin,0.005,0.0,Food & Drink,Food & Drink,1.3e-05,52.67230217933072,0.1711552406707043,East of England
BP3734YG,"PAPER, PULP AND BOARD; PRODUCING PAPER/BOARD >20T/D",Sidcot Group Ltd,SCA Chesterfield Paper Mill Goyt Side Road Derbyshire,S40 2PH,436850.0,370600.0,Yorkshire,Wastewater,Cypermethrin,0.005,0.0,Paper and textiles,Paper & Pulp,1.3e-05,53.23116628377147,-1.4494234747766208,East Midlands
UP3230LR,"GASIFICATION, LIQUIFAC. AND REFINING; COAL/LIGNITE GASIFICATION",Phillips 66 Limited,Humber Oil Refinery Eastfield Road South Killingholme Immingham South Humberside,DN40 3DW,516210.0,416450.0,Lincolnshire and Northamptonshire,Controlled Waters,"Indeno(1,2,3-cd)pyrene",1.0,0.0,Refineries & Fuel,Refineries & Fuel,,53.63168418109031,-0.24406362336294868,Yorkshire and The Humber
UP3230LR,"GASIFICATION, LIQUIFAC. AND REFINING; COAL/LIGNITE GASIFICATION",Phillips 66 Limited,Humber Oil Refinery Eastfield Road South Killingholme Immingham South Humberside,DN40 3DW,516210.0,416450.0,Lincolnshire and Northamptonshire,Controlled Waters,Fluoranthene,0.1,0.0,Refineries & Fuel,Refineries & Fuel,,53.63168418109031,-0.24406362336294868,Yorkshire and The Humber
UP3230LR,"GASIFICATION, LIQUIFAC. AND REFINING; COAL/LIGNITE GASIFICATION",Phillips 66 Limited,Humber Oil Refinery Eastfield Road South Killingholme Immingham South Humberside,DN40 3DW,516210.0,416450.0,Lincolnshire and Northamptonshire,Controlled Waters,Benzo(a)pyrene,1.0,0.0,Refineries & Fuel,Refineries & Fuel,,53.63168418109031,-0.24406362336294868,Yorkshire and The Humber
CM0017801,,DWR CYMRU CYFYNGEDIG LTD,"SEALAND ROAD, CHESTER",CH1 4LD,339300.0,366600.0,Greater Manchester Merseyside and Cheshire,Controlled Waters,Fluoranthene,0.1,0.11,Water Industry,Water Industry,,53.19300443763266,-2.909977265000588,North West
CM0017801,,DWR CYMRU CYFYNGEDIG LTD,"SEALAND ROAD, CHESTER",CH1 4LD,339300.0,366600.0,Greater Manchester Merseyside and Cheshire,Controlled Waters,"Indeno(1,2,3-cd)pyrene",1.0,0.0,Water Industry,Water Industry,,53.19300443763266,-2.909977265000588,North West
CM0017801,,DWR CYMRU CYFYNGEDIG LTD,"SEALAND ROAD, CHESTER",CH1 4LD,339300.0,366600.0,Greater Manchester Merseyside and Cheshire,Controlled Waters,Benzo(a)pyrene,1.0,0.0,Water Industry,Water Industry,,53.19300443763266,-2.909977265000588,North West
EP3431FL,"PAPER, PULP AND BOARD; PRODUCING PAPER/BOARD >20T/D",Higher Kings Mill Limited,Higher Kings Mill Devon,EX15 1QJ,303100.0,108190.0,"Devon, Cornwall and the Isles of Scilly",Controlled Waters,Cypermethrin,0.005,0.0,Paper and textiles,Paper & Pulp,1.3e-05,50.865067701844225,-3.3783060580514905,South West
HP3736AW,"FERROUS METALS; HANDLING ETC >500,000 TONNES/12 MONTHS",Longs Steel UK Limited,Scunthopre Integrated Iron and Steel Works Brigg Road Scunthorpe North Lincolnshire,DN16 1AU,491460.0,410290.0,East Midlands,Controlled Waters,"Indeno(1,2,3-cd)pyrene",1.0,6.6,Metals,Ferrous,,53.58123627531577,-0.6200207318898112,Yorkshire and The Humber
HP3736AW,"FERROUS METALS; HANDLING ETC >500,000 TONNES/12 MONTHS",Longs Steel UK Limited,Scunthopre Integrated Iron and Steel Works Brigg Road Scunthorpe North Lincolnshire,DN16 1AU,491460.0,410290.0,East Midlands,Controlled Waters,Fluoranthene,0.1,5.3,Metals,Ferrous,,53.58123627531577,-0.6200207318898112,Yorkshire and The Humber
HP3736AW,"FERROUS METALS; HANDLING ETC >500,000 TONNES/12 MONTHS",Longs Steel UK Limited,Scunthopre Integrated Iron and Steel Works Brigg Road Scunthorpe North Lincolnshire,DN16 1AU,491460.0,410290.0,East Midlands,Controlled Waters,Benzo(a)pyrene,1.0,8.5,Metals,Ferrous,,53.58123627531577,-0.6200207318898112,Yorkshire and The Humber
BX4054ID,"WASTE LANDFILLING; >10 T/D WITH CAPACITY >25,000T EXCLUDING INERT WASTE",VIRIDOR WASTE MANAGEMENT LTD,Trigon Landfill Bere-Regis To Wareham Road Nr Wareham Dorset,BH20 7PB,389600.0,89400.0,Wessex,Wastewater,Fluoranthene,0.1,0.0,Landfill,Non Hazardous Landfill,,50.70414373942738,-2.148637222180651,South West
BX4054ID,"WASTE LANDFILLING; >10 T/D WITH CAPACITY >25,000T EXCLUDING INERT WASTE",VIRIDOR WASTE MANAGEMENT LTD,Trigon Landfill Bere-Regis To Wareham Road Nr Wareham Dorset,BH20 7PB,389600.0,89400.0,Wessex,Wastewater,Benzo(a)pyrene,1.0,0.0,Landfill,Non Hazardous Landfill,,50.70414373942738,-2.148637222180651,South West
NP3032WQ,"COATING, PRINTING AND TEXTILES; PRE-TREATING BY WASHING ETC >10T/DAY",Huddersfield Dyeing Company Limited,Canal Bank Dyeworks Canal Street Leeds Road West Yorkshire,HD1 6NY,415180.0,417860.0,Yorkshire,Wastewater,Cypermethrin,0.005,0.0187,Paper and textiles,Textiles,1.3e-05,53.65701561624113,-1.771785386059623,Yorkshire and The Humber
NP3135SL,"WASTE LANDFILLING; >10 T/D WITH CAPACITY >25,000T EXCLUDING INERT WASTE",Cory Environmental (Central) Limited,Highfields South Landfill Site Lichfield Road Walsall West Midlands,WS9 9AH,404200.0,302500.0,West Midlands,Wastewater,Fluoranthene,0.1,0.0,Landfill,Non Hazardous Landfill,,52.62025147820991,-1.9393953069252712,West Midlands
A1112/K/00,,Southern Water,"Broomfield Bank WTW, Folkestone Road, Church Hougham, Dover, Kent",CT15 7AB,628500.0,140100.0,"Kent, South London and East Sussex",Controlled Waters,Fluoranthene,0.1,0.0,Water Industry,Water Industry,,51.114608629871924,1.2633435941591,South East
A1112/K/00,,Southern Water,"Broomfield Bank WTW, Folkestone Road, Church Hougham, Dover, Kent",CT15 7AB,628500.0,140100.0,"Kent, South London and East Sussex",Controlled Waters,"Indeno(1,2,3-cd)pyrene",1.0,0.0,Water Industry,Water Industry,,51.114608629871924,1.2633435941591,South East
A1112/K/00,,Southern Water,"Broomfield Bank WTW, Folkestone Road, Church Hougham, Dover, Kent",CT15 7AB,628500.0,140100.0,"Kent, South London and East Sussex",Controlled Waters,Benzo(a)pyrene,1.0,0.0,Water Industry,Water Industry,,51.114608629871924,1.2633435941591,South East
TP3039RN,DISPOSAL OR RECOVERY OF HAZ WASTE WITH CAPACITY EXCEEDING 10 TONNES PER DAY INVOLVING BLENDING OR MIXING PRIOR TO SUBMISSION TO ANY OF THE OTHER ACTIVITIES LISTED IN THIS SECTION OR IN SECTION 5.1,Biffa Waste Services Limited,Sheffield Waste Management Centre Holbrook Rise Holbrook Industrial Estate Sheffield South Yorkshire,S20 3FG,443960.0,381520.0,Yorkshire,Controlled Waters,Cypermethrin,0.005,0.0,Waste Treatment,Hazardous,1.3e-05,53.3287775516293,-1.3414119869477663,Yorkshire and The Humber
BS7722ID,"WASTE LANDFILLING; >10 T/D WITH CAPACITY >25,000T EXCLUDING INERT WASTE",3C Waste Limited,Maw Green Landfill Maw Green Lane Crewe,CW1 5NG,371700.0,357500.0,Greater Manchester Merseyside and Cheshire,Wastewater,"Indeno(1,2,3-cd)pyrene",1.0,0.0,Landfill,Non Hazardous Landfill,,53.11392517003427,-2.424249100452073,North West
BS7722ID,"WASTE LANDFILLING; >10 T/D WITH CAPACITY >25,000T EXCLUDING INERT WASTE",3C Waste Limited,Maw Green Landfill Maw Green Lane Crewe,CW1 5NG,371700.0,357500.0,Greater Manchester Merseyside and Cheshire,Wastewater,Benzo(a)pyrene,1.0,0.0,Landfill,Non Hazardous Landfill,,53.11392517003427,-2.424249100452073,North West
BS7722ID,"WASTE LANDFILLING; >10 T/D WITH CAPACITY >25,000T EXCLUDING INERT WASTE",3C Waste Limited,Maw Green Landfill Maw Green Lane Crewe,CW1 5NG,371700.0,357500.0,Greater Manchester Merseyside and Cheshire,Wastewater,Cypermethrin,0.005,0.0,Landfill,Non Hazardous Landfill,1.3e-05,53.11392517003427,-2.424249100452073,North West
BS7722ID,"WASTE LANDFILLING; >10 T/D WITH CAPACITY >25,000T EXCLUDING INERT WASTE",3C Waste Limited,Maw Green Landfill Maw Green Lane Crewe,CW1 5NG,371700.0,357500.0,Greater Manchester Merseyside and Cheshire,Wastewater,Fluoranthene,0.1,0.0,Landfill,Non Hazardous Landfill,,53.11392517003427,-2.424249100452073,North West
BS7722ID,"WASTE LANDFILLING; >10 T/D WITH CAPACITY >25,000T EXCLUDING INERT WASTE",3C Waste Limited,Maw Green Landfill Maw Green Lane Crewe,CW1 5NG,371700.0,357500.0,Greater Manchester Merseyside and Cheshire,Wastewater,Heptachlor,0.1,0.0,Landfill,Non Hazardous Landfill,,53.11392517003427,-2.424249100452073,North West
E15,,Yorkshire Water Services Limited,Mitchell Laithes WwTW CHP Plant Long Lane Dewsbury West Yorkshire,WF12 8LL,426030.0,419980.0,Yorkshire,Controlled Waters,Cypermethrin,0.005,8.92,Water Industry,Water Industry,1.3e-05,53.67564500308029,-1.6074394637051335,Yorkshire and The Humber
AW1NF2460,,Anglian Water,Bedford STW,,508500.0,249600.0,East Anglia,Controlled Waters,Fluoranthene,0.1,0.12,Water Industry,Water Industry,,52.134058637941244,-0.41620486681391833,East of England
AW1NF2460,,Anglian Water,Bedford STW,,508500.0,249600.0,East Anglia,Controlled Waters,"Indeno(1,2,3-cd)pyrene",1.0,0.0,Water Industry,Water Industry,,52.134058637941244,-0.41620486681391833,East of England
AW1NF2460,,Anglian Water,Bedford STW,,508500.0,249600.0,East Anglia,Controlled Waters,Benzo(a)pyrene,1.0,0.0,Water Industry,Water Industry,,52.134058637941244,-0.41620486681391833,East of England
AENTS13068,,Anglian Water,Wisbech W.Walton STW,,545800.0,314100.0,Lincolnshire and Northamptonshire,Controlled Waters,Fluoranthene,0.1,0.0,Water Industry,Water Industry,,52.704938704382336,0.1564924306730247,
AENTS13068,,Anglian Water,Wisbech W.Walton STW,,545800.0,314100.0,Lincolnshire and Northamptonshire,Controlled Waters,"Indeno(1,2,3-cd)pyrene",1.0,0.0,Water Industry,Water Industry,,52.704938704382336,0.1564924306730247,
AENTS13068,,Anglian Water,Wisbech W.Walton STW,,545800.0,314100.0,Lincolnshire and Northamptonshire,Controlled Waters,Benzo(a)pyrene,1.0,0.0,Water Industry,Water Industry,,52.704938704382336,0.1564924306730247,
AW5NF5178,,Anglian Water,Flag Fen STW,,522140.0,298140.0,Lincolnshire and Northamptonshire,Controlled Waters,Fluoranthene,0.1,0.18,Water Industry,Water Industry,,52.56738396341251,-0.19938126113462898,East of England
AW5NF5178,,Anglian Water,Flag Fen STW,,522140.0,298140.0,Lincolnshire and Northamptonshire,Controlled Waters,"Indeno(1,2,3-cd)pyrene",1.0,1.01,Water Industry,Water Industry,,52.56738396341251,-0.19938126113462898,East of England
AW5NF5178,,Anglian Water,Flag Fen STW,,522140.0,298140.0,Lincolnshire and Northamptonshire,Controlled Waters,Benzo(a)pyrene,1.0,0.0,Water Industry,Water Industry,,52.56738396341251,-0.19938126113462898,East of England
T/53/45014/R,,SEVERN TRENT WATER LTD,Wanlip Sewage Treatment Works Fillingate Wanlip Leicester Leicestershire,LE7 4PF,459760.0,311500.0,East Midlands,Controlled Waters,Fluoranthene,0.1,0.47,Water Industry,Water Industry,,52.69788886015215,-1.1171407605839059,East Midlands
T/53/45014/R,,SEVERN TRENT WATER LTD,Wanlip Sewage Treatment Works Fillingate Wanlip Leicester Leicestershire,LE7 4PF,459760.0,311500.0,East Midlands,Controlled Waters,"Indeno(1,2,3-cd)pyrene",1.0,2.68,Water Industry,Water Industry,,52.69788886015215,-1.1171407605839059,East Midlands
T/53/45014/R,,SEVERN TRENT WATER LTD,Wanlip Sewage Treatment Works Fillingate Wanlip Leicester Leicestershire,LE7 4PF,459760.0,311500.0,East Midlands,Controlled Waters,Benzo(a)pyrene,1.0,2.07,Water Industry,Water Industry,,52.69788886015215,-1.1171407605839059,East Midlands
S/04/55141/R,,SEVERN TRENT WATER LTD,Rushmoor (Telford) STW,TF6 5EX,361300.0,313700.0,West Midlands,Controlled Waters,Fluoranthene,0.1,0.0,Water Industry,Water Industry,,52.719558826707015,-2.5743799002968255,West Midlands
S/04/55141/R,,SEVERN TRENT WATER LTD,Rushmoor (Telford) STW,TF6 5EX,361300.0,313700.0,West Midlands,Controlled Waters,"Indeno(1,2,3-cd)pyrene",1.0,0.0,Water Industry,Water Industry,,52.719558826707015,-2.5743799002968255,West Midlands
S/04/55141/R,,SEVERN TRENT WATER LTD,Rushmoor (Telford) STW,TF6 5EX,361300.0,313700.0,West Midlands,Controlled Waters,Benzo(a)pyrene,1.0,0.0,Water Industry,Water Industry,,52.719558826707015,-2.5743799002968255,West Midlands
WRA6925,,Yorkshire Water Services Limited,BRADFORD ESHOLT STW,BD10 0PB,419030.0,439081.0,Yorkshire,Controlled Waters,Cypermethrin,0.005,0.14,Water Industry,Water Industry,1.3e-05,53.84762301892852,-1.7122320086876062,Yorkshire and The Humber
016930112,,UNITED UTILITIES WATER PLC,FAZAKERLEY,,339370.0,396600.0,Greater Manchester Merseyside and Cheshire,Controlled Waters,Fluoranthene,0.1,0.2,Water Industry,Water Industry,,53.46263823290822,-2.9146804259264933,North West
016930112,,UNITED UTILITIES WATER PLC,FAZAKERLEY,,339370.0,396600.0,Greater Manchester Merseyside and Cheshire,Controlled Waters,"Indeno(1,2,3-cd)pyrene",1.0,1.12,Water Industry,Water Industry,,53.46263823290822,-2.9146804259264933,North West
016930112,,UNITED UTILITIES WATER PLC,FAZAKERLEY,,339370.0,396600.0,Greater Manchester Merseyside and Cheshire,Controlled Waters,Benzo(a)pyrene,1.0,0.0,Water Industry,Water Industry,,53.46263823290822,-2.9146804259264933,North West
ASETS1046,,Anglian Water,Colchester(Haven) STW,,602250.0,223620.0,East Anglia,Controlled Waters,Fluoranthene,0.1,0.0,Water Industry,Water Industry,,51.874464238124666,0.9366818210860293,East of England
ASETS1046,,Anglian Water,Colchester(Haven) STW,,602250.0,223620.0,East Anglia,Controlled Waters,"Indeno(1,2,3-cd)pyrene",1.0,0.0,Water Industry,Water Industry,,51.874464238124666,0.9366818210860293,East of England
ASETS1046,,Anglian Water,Colchester(Haven) STW,,602250.0,223620.0,East Anglia,Controlled Waters,Benzo(a)pyrene,1.0,0.0,Water Industry,Water Industry,,51.874464238124666,0.9366818210860293,East of England
AW2TSE9961-2,,Anglian Water,Chelmsford(Brookend) STW,,584000.0,208200.0,East Anglia,Controlled Waters,Fluoranthene,0.1,0.1,Water Industry,Water Industry,,51.74228838586037,0.6637086916015041,East of England
AW2TSE9961-2,,Anglian Water,Chelmsford(Brookend) STW,,584000.0,208200.0,East Anglia,Controlled Waters,"Indeno(1,2,3-cd)pyrene",1.0,0.0,Water Industry,Water Industry,,51.74228838586037,0.6637086916015041,East of England
AW2TSE9961-2,,Anglian Water,Chelmsford(Brookend) STW,,584000.0,208200.0,East Anglia,Controlled Waters,Benzo(a)pyrene,1.0,0.0,Water Industry,Water Industry,,51.74228838586037,0.6637086916015041,East of England
016810030,,UNITED UTILITIES WATER PLC,ELLESMERE PORT,,343200.0,374650.0,Greater Manchester Merseyside and Cheshire,Controlled Waters,Fluoranthene,0.1,0.0,Water Industry,Water Industry,,53.26578798251581,-2.8530490908029025,North West
016810030,,UNITED UTILITIES WATER PLC,ELLESMERE PORT,,343200.0,374650.0,Greater Manchester Merseyside and Cheshire,Controlled Waters,"Indeno(1,2,3-cd)pyrene",1.0,0.0,Water Industry,Water Industry,,53.26578798251581,-2.8530490908029025,North West
016810030,,UNITED UTILITIES WATER PLC,ELLESMERE PORT,,343200.0,374650.0,Greater Manchester Merseyside and Cheshire,Controlled Waters,Benzo(a)pyrene,1.0,0.0,Water Industry,Water Industry,,53.26578798251581,-2.8530490908029025,North West
CNTD.0017,,THAMES WATER UTILITIES LTD,SWINDON STW,SN2 2DP,412700.0,185800.0,Thames,Controlled Waters,Fluoranthene,0.1,0.17,Water Industry,Water Industry,,51.57092949123404,-1.8181517865047485,South West
CNTD.0017,,THAMES WATER UTILITIES LTD,SWINDON STW,SN2 2DP,412700.0,185800.0,Thames,Controlled Waters,"Indeno(1,2,3-cd)pyrene",1.0,0.0,Water Industry,Water Industry,,51.57092949123404,-1.8181517865047485,South West
CNTD.0017,,THAMES WATER UTILITIES LTD,SWINDON STW,SN2 2DP,412700.0,185800.0,Thames,Controlled Waters,Benzo(a)pyrene,1.0,0.0,Water Industry,Water Industry,,51.57092949123404,-1.8181517865047485,South West
GP3896CS,DISPOSAL OR RECOVERY OF HAZARDOUS WASTE WITH A CAPACITY EXCEEDING 10 TONNES PER DAY INVOLVING PHYSICO-CHEMICAL TREATMENT,G. M. P. Baird Limited,Tonge Bridge Off Hypatia Street Bury Road Lancashire,BL2 6AA,372840.0,409390.0,Greater Manchester Merseyside and Cheshire,Wastewater,Benzo(a)pyrene,1.0,0.0,Waste Treatment,Metals Recycling,,53.58039312161927,-2.411689852154811,North West
AWCNF10296,,Anglian Water,Cotton Valley STW,,488630.0,241460.0,East Anglia,Controlled Waters,Fluoranthene,0.1,0.21,Water Industry,Water Industry,,52.06443452129644,-0.7085359599756176,South East
AWCNF10296,,Anglian Water,Cotton Valley STW,,488630.0,241460.0,East Anglia,Controlled Waters,"Indeno(1,2,3-cd)pyrene",1.0,1.2,Water Industry,Water Industry,,52.06443452129644,-0.7085359599756176,South East
AWCNF10296,,Anglian Water,Cotton Valley STW,,488630.0,241460.0,East Anglia,Controlled Waters,Benzo(a)pyrene,1.0,0.0,Water Industry,Water Industry,,52.06443452129644,-0.7085359599756176,South East
ASCNF1033,,Anglian Water,Cambridge STW,,548350.0,261540.0,East Anglia,Controlled Waters,Fluoranthene,0.1,0.15,Water Industry,Water Industry,,52.23207645870105,0.1708411736842626,East of England
ASCNF1033,,Anglian Water,Cambridge STW,,548350.0,261540.0,East Anglia,Controlled Waters,"Indeno(1,2,3-cd)pyrene",1.0,0.0,Water Industry,Water Industry,,52.23207645870105,0.1708411736842626,East of England
ASCNF1033,,Anglian Water,Cambridge STW,,548350.0,261540.0,East Anglia,Controlled Waters,Benzo(a)pyrene,1.0,0.0,Water Industry,Water Industry,,52.23207645870105,0.1708411736842626,East of England
AEECS12290,,Anglian Water,Caister (Great Yarmouth) STW,,654620.0,309850.0,East Anglia,Controlled Waters,Fluoranthene,0.1,0.0,Water Industry,Water Industry,,52.62663561476223,1.7608432729944696,
AEECS12290,,Anglian Water,Caister (Great Yarmouth) STW,,654620.0,309850.0,East Anglia,Controlled Waters,"Indeno(1,2,3-cd)pyrene",1.0,0.0,Water Industry,Water Industry,,52.62663561476223,1.7608432729944696,
AEECS12290,,Anglian Water,Caister (Great Yarmouth) STW,,654620.0,309850.0,East Anglia,Controlled Waters,Benzo(a)pyrene,1.0,0.0,Water Industry,Water Industry,,52.62663561476223,1.7608432729944696,
WRA7409,,Yorkshire Water Services Limited,HUDDERSFIELD STW,HD2 1FG,417124.0,419244.0,Yorkshire,Controlled Waters,Cypermethrin,0.005,0.06,Water Industry,Water Industry,1.3e-05,53.6693954953469,-1.742295056114122,Yorkshire and The Humber
AWNNF13399,,Anglian Water,Broadholme STW,,494150.0,268750.0,Lincolnshire and Northamptonshire,Controlled Waters,Fluoranthene,0.1,0.15,Water Industry,Water Industry,,52.30880249617189,-0.6204684010696924,East Midlands
AWNNF13399,,Anglian Water,Broadholme STW,,494150.0,268750.0,Lincolnshire and Northamptonshire,Controlled Waters,"Indeno(1,2,3-cd)pyrene",1.0,0.0,Water Industry,Water Industry,,52.30880249617189,-0.6204684010696924,East Midlands
AWNNF13399,,Anglian Water,Broadholme STW,,494150.0,268750.0,Lincolnshire and Northamptonshire,Controlled Waters,Benzo(a)pyrene,1.0,0.0,Water Industry,Water Industry,,52.30880249617189,-0.6204684010696924,East Midlands
CSSV.0382,,THAMES WATER UTILITIES LTD,BEDDINGTON STW,CR0 4TH,529520.0,166318.0,"Kent, South London and East Sussex",Controlled Waters,Fluoranthene,0.1,0.34,Water Industry,Water Industry,,51.38114353693676,-0.14026756827141423,London
CSSV.0382,,THAMES WATER UTILITIES LTD,BEDDINGTON STW,CR0 4TH,529520.0,166318.0,"Kent, South London and East Sussex",Controlled Waters,"Indeno(1,2,3-cd)pyrene",1.0,1.96,Water Industry,Water Industry,,51.38114353693676,-0.14026756827141423,London
CSSV.0382,,THAMES WATER UTILITIES LTD,BEDDINGTON STW,CR0 4TH,529520.0,166318.0,"Kent, South London and East Sussex",Controlled Waters,Benzo(a)pyrene,1.0,1.51,Water Industry,Water Industry,,51.38114353693676,-0.14026756827141423,London
BS3590IE,ORGANIC CHEMICALS; HYDROCARBONS EG AROMATICS,Sabic UK Petrochemicals Limited,Wilton Olefins Installation Olefins Offices Wilton International Redcar,TS10 4RF,458200.0,521200.0,North East,Controlled Waters,Fluoranthene,0.1,0.0,Chemicals,Chemicals,,54.582661121205405,-1.101029346484906,North East
QP3538XB,"COATING, PRINTING AND TEXTILES; PRE-TREATING BY WASHING ETC >10T/DAY",W.T.Johnson and Sons (Huddersfield) Ltd,Bankfield Mills Wakefield Road Moldgreen West Yorkshire,HD5 9BB,415560.0,416260.0,Yorkshire,Controlled Waters,Cypermethrin,0.005,0.0,Paper and textiles,Textiles,1.3e-05,53.64262356653264,-1.7661151285136858,Yorkshire and The Humber
S/13/25443/R,,SEVERN TRENT WATER LTD,Warwick STW,CV34 6QW,427770.0,262900.0,West Midlands,Controlled Waters,Fluoranthene,0.1,0.12,Water Industry,Water Industry,,52.263566941302074,-1.594524975099739,West Midlands
S/13/25443/R,,SEVERN TRENT WATER LTD,Warwick STW,CV34 6QW,427770.0,262900.0,West Midlands,Controlled Waters,"Indeno(1,2,3-cd)pyrene",1.0,0.0,Water Industry,Water Industry,,52.263566941302074,-1.594524975099739,West Midlands
S/13/25443/R,,SEVERN TRENT WATER LTD,Warwick STW,CV34 6QW,427770.0,262900.0,West Midlands,Controlled Waters,Benzo(a)pyrene,1.0,0.0,Water Industry,Water Industry,,52.263566941302074,-1.594524975099739,West Midlands
S/20/25430/R,,SEVERN TRENT WATER LTD,Cheltenham STW,GL51 0TH,389930.0,224860.0,West Midlands,Controlled Waters,Fluoranthene,0.1,0.12,Water Industry,Water Industry,,51.92216852088476,-2.147834358765615,South West
S/20/25430/R,,SEVERN TRENT WATER LTD,Cheltenham STW,GL51 0TH,389930.0,224860.0,West Midlands,Controlled Waters,"Indeno(1,2,3-cd)pyrene",1.0,0.0,Water Industry,Water Industry,,51.92216852088476,-2.147834358765615,South West
S/20/25430/R,,SEVERN TRENT WATER LTD,Cheltenham STW,GL51 0TH,389930.0,224860.0,West Midlands,Controlled Waters,Benzo(a)pyrene,1.0,0.0,Water Industry,Water Industry,,51.92216852088476,-2.147834358765615,South West
CLCR.0048,,THAMES WATER UTILITIES LTD,Rye Meads Combined Heat And Power Plant Off Rye Road Stanstead Abbotts Hertfordshire,SG12 8JY,539260.0,210400.0,Hertfordshire and North London,Controlled Waters,Fluoranthene,0.1,0.29,Water Industry,Water Industry,,51.77495262466496,0.017064528820277147,East of England
CLCR.0048,,THAMES WATER UTILITIES LTD,Rye Meads Combined Heat And Power Plant Off Rye Road Stanstead Abbotts Hertfordshire,SG12 8JY,539260.0,210400.0,Hertfordshire and North London,Controlled Waters,"Indeno(1,2,3-cd)pyrene",1.0,1.66,Water Industry,Water Industry,,51.77495262466496,0.017064528820277147,East of England
CLCR.0048,,THAMES WATER UTILITIES LTD,Rye Meads Combined Heat And Power Plant Off Rye Road Stanstead Abbotts Hertfordshire,SG12 8JY,539260.0,210400.0,Hertfordshire and North London,Controlled Waters,Benzo(a)pyrene,1.0,1.28,Water Industry,Water Industry,,51.77495262466496,0.017064528820277147,East of England
CTCR.1340,,THAMES WATER UTILITIES LTD,CRAWLEY STW,RH10 3NW,528800.0,140200.0,"Kent, South London and East Sussex",Controlled Waters,Fluoranthene,0.1,0.12,Water Industry,Water Industry,,51.14658044206405,-0.16000559745613768,South East
CTCR.1340,,THAMES WATER UTILITIES LTD,CRAWLEY STW,RH10 3NW,528800.0,140200.0,"Kent, South London and East Sussex",Controlled Waters,"Indeno(1,2,3-cd)pyrene",1.0,0.0,Water Industry,Water Industry,,51.14658044206405,-0.16000559745613768,South East
CTCR.1340,,THAMES WATER UTILITIES LTD,CRAWLEY STW,RH10 3NW,528800.0,140200.0,"Kent, South London and East Sussex",Controlled Waters,Benzo(a)pyrene,1.0,0.0,Water Industry,Water Industry,,51.14658044206405,-0.16000559745613768,South East
CNTD.0044,,THAMES WATER UTILITIES LTD,ESHER STW,KT10 8AU,513500.0,166000.0,"Kent, South London and East Sussex",Controlled Waters,Fluoranthene,0.1,0.1,Water Industry,Water Industry,,51.38171143148741,-0.37045925744865815,South East
CNTD.0044,,THAMES WATER UTILITIES LTD,ESHER STW,KT10 8AU,513500.0,166000.0,"Kent, South London and East Sussex",Controlled Waters,"Indeno(1,2,3-cd)pyrene",1.0,0.0,Water Industry,Water Industry,,51.38171143148741,-0.37045925744865815,South East
CNTD.0044,,THAMES WATER UTILITIES LTD,ESHER STW,KT10 8AU,513500.0,166000.0,"Kent, South London and East Sussex",Controlled Waters,Benzo(a)pyrene,1.0,0.0,Water Industry,Water Industry,,51.38171143148741,-0.37045925744865815,South East
BJ7310IZ,"PAPER, PULP AND BOARD; PRODUCING PULP FROM TIMBER ETC",De La Rue plc,Overton Mill Overton,RG25 3JG,451900.0,151000.0,"Kent, South London and East Sussex",Controlled Waters,Cypermethrin,0.005,0.01223,Paper and textiles,Paper & Pulp,1.3e-05,51.25581054405935,-1.2576668767203043,South East
016950032,,UNITED UTILITIES WATER PLC,BOLTON,,376950.0,404520.0,Greater Manchester Merseyside and Cheshire,Controlled Waters,Fluoranthene,0.1,0.34,Water Industry,Water Industry,,53.536818464081755,-2.349253891884259,North West
016950032,,UNITED UTILITIES WATER PLC,BOLTON,,376950.0,404520.0,Greater Manchester Merseyside and Cheshire,Controlled Waters,"Indeno(1,2,3-cd)pyrene",1.0,1.93,Water Industry,Water Industry,,53.536818464081755,-2.349253891884259,North West
016950032,,UNITED UTILITIES WATER PLC,BOLTON,,376950.0,404520.0,Greater Manchester Merseyside and Cheshire,Controlled Waters,Benzo(a)pyrene,1.0,1.49,Water Industry,Water Industry,,53.536818464081755,-2.349253891884259,North West
016950033,,UNITED UTILITIES WATER PLC,BURY,,380450.0,408050.0,Greater Manchester Merseyside and Cheshire,Controlled Waters,Fluoranthene,0.1,0.24,Water Industry,Water Industry,,53.568689506182324,-2.296668001953978,North West
016950033,,UNITED UTILITIES WATER PLC,BURY,,380450.0,408050.0,Greater Manchester Merseyside and Cheshire,Controlled Waters,"Indeno(1,2,3-cd)pyrene",1.0,1.36,Water Industry,Water Industry,,53.568689506182324,-2.296668001953978,North West
016950033,,UNITED UTILITIES WATER PLC,BURY,,380450.0,408050.0,Greater Manchester Merseyside and Cheshire,Controlled Waters,Benzo(a)pyrene,1.0,1.05,Water Industry,Water Industry,,53.568689506182324,-2.296668001953978,North West
T/81/45102/R,,SEVERN TRENT WATER LTD,Scunthorpe STW Yaddlethorpe,DN17 3PS,487292.0,405965.0,East Midlands,Controlled Waters,"Indeno(1,2,3-cd)pyrene",1.0,0.0,Water Industry,Water Industry,,53.54308142261132,-0.6841639168426618,Yorkshire and The Humber
T/81/45102/R,,SEVERN TRENT WATER LTD,Scunthorpe STW Yaddlethorpe,DN17 3PS,487292.0,405965.0,East Midlands,Controlled Waters,Benzo(a)pyrene,1.0,0.0,Water Industry,Water Industry,,53.54308142261132,-0.6841639168426618,Yorkshire and The Humber
T/81/45102/R,,SEVERN TRENT WATER LTD,Scunthorpe STW Yaddlethorpe,DN17 3PS,487292.0,405965.0,East Midlands,Controlled Waters,Fluoranthene,0.1,0.0,Water Industry,Water Industry,,53.54308142261132,-0.6841639168426618,Yorkshire and The Humber
017160064,,UNITED UTILITIES WATER PLC,PRESTON,,345450.0,427850.0,Cumbria and Lancashire,Controlled Waters,Fluoranthene,0.1,0.44,Water Industry,Water Industry,,53.744157847609756,-2.828594718178692,
017160064,,UNITED UTILITIES WATER PLC,PRESTON,,345450.0,427850.0,Cumbria and Lancashire,Controlled Waters,"Indeno(1,2,3-cd)pyrene",1.0,2.53,Water Industry,Water Industry,,53.744157847609756,-2.828594718178692,
017160064,,UNITED UTILITIES WATER PLC,PRESTON,,345450.0,427850.0,Cumbria and Lancashire,Controlled Waters,Benzo(a)pyrene,1.0,1.95,Water Industry,Water Industry,,53.744157847609756,-2.828594718178692,
016940151,,UNITED UTILITIES WATER PLC,STOCKPORT,,386520.0,389820.0,Greater Manchester Merseyside and Cheshire,Controlled Waters,Fluoranthene,0.1,0.18,Water Industry,Water Industry,,53.40502394305661,-2.2042249143718937,North West
016940151,,UNITED UTILITIES WATER PLC,STOCKPORT,,386520.0,389820.0,Greater Manchester Merseyside and Cheshire,Controlled Waters,"Indeno(1,2,3-cd)pyrene",1.0,1.04,Water Industry,Water Industry,,53.40502394305661,-2.2042249143718937,North West
016940151,,UNITED UTILITIES WATER PLC,STOCKPORT,,386520.0,389820.0,Greater Manchester Merseyside and Cheshire,Controlled Waters,Benzo(a)pyrene,1.0,0.0,Water Industry,Water Industry,,53.40502394305661,-2.2042249143718937,North West
017160008,,UNITED UTILITIES WATER PLC,HYNDBURN,,375750.0,433550.0,Cumbria and Lancashire,Controlled Waters,Fluoranthene,0.1,0.23,Water Industry,Water Industry,,53.79768483713117,-2.3696373594073914,North West
017160008,,UNITED UTILITIES WATER PLC,HYNDBURN,,375750.0,433550.0,Cumbria and Lancashire,Controlled Waters,"Indeno(1,2,3-cd)pyrene",1.0,1.28,Water Industry,Water Industry,,53.79768483713117,-2.3696373594073914,North West
017160008,,UNITED UTILITIES WATER PLC,HYNDBURN,,375750.0,433550.0,Cumbria and Lancashire,Controlled Waters,Benzo(a)pyrene,1.0,0.0,Water Industry,Water Industry,,53.79768483713117,-2.3696373594073914,North West
017081316,,UNITED UTILITIES WATER PLC,WIGAN,,348170.0,412020.0,Greater Manchester Merseyside and Cheshire,Controlled Waters,Fluoranthene,0.1,0.32,Water Industry,Water Industry,,53.602167032712885,-2.784707855761451,North West
017081316,,UNITED UTILITIES WATER PLC,WIGAN,,348170.0,412020.0,Greater Manchester Merseyside and Cheshire,Controlled Waters,"Indeno(1,2,3-cd)pyrene",1.0,1.84,Water Industry,Water Industry,,53.602167032712885,-2.784707855761451,North West
017081316,,UNITED UTILITIES WATER PLC,WIGAN,,348170.0,412020.0,Greater Manchester Merseyside and Cheshire,Controlled Waters,Benzo(a)pyrene,1.0,1.42,Water Industry,Water Industry,,53.602167032712885,-2.784707855761451,North West
017160024,,UNITED UTILITIES WATER PLC,BLACKBURN,,360470.0,429410.0,Cumbria and Lancashire,Controlled Waters,Fluoranthene,0.1,0.25,Water Industry,Water Industry,,53.75953685781403,-2.601070202815933,North West
017160024,,UNITED UTILITIES WATER PLC,BLACKBURN,,360470.0,429410.0,Cumbria and Lancashire,Controlled Waters,"Indeno(1,2,3-cd)pyrene",1.0,1.44,Water Industry,Water Industry,,53.75953685781403,-2.601070202815933,North West
017160024,,UNITED UTILITIES WATER PLC,BLACKBURN,,360470.0,429410.0,Cumbria and Lancashire,Controlled Waters,Benzo(a)pyrene,1.0,1.11,Water Industry,Water Industry,,53.75953685781403,-2.601070202815933,North West
016950038,,UNITED UTILITIES WATER PLC,OLDHAM,,389260.0,404300.0,Greater Manchester Merseyside and Cheshire,Controlled Waters,Fluoranthene,0.1,0.19,Water Industry,Water Industry,,53.53523963672918,-2.163511580117871,North West
016950038,,UNITED UTILITIES WATER PLC,OLDHAM,,389260.0,404300.0,Greater Manchester Merseyside and Cheshire,Controlled Waters,"Indeno(1,2,3-cd)pyrene",1.0,1.06,Water Industry,Water Industry,,53.53523963672918,-2.163511580117871,North West
016950038,,UNITED UTILITIES WATER PLC,OLDHAM,,389260.0,404300.0,Greater Manchester Merseyside and Cheshire,Controlled Waters,Benzo(a)pyrene,1.0,0.0,Water Industry,Water Industry,,53.53523963672918,-2.163511580117871,North West
016950041,,UNITED UTILITIES WATER PLC,ROCHDALE,,388160.0,412370.0,Greater Manchester Merseyside and Cheshire,Controlled Waters,Fluoranthene,0.1,0.28,Water Industry,Water Industry,,53.60775095500724,-2.1804168232172088,North West
016950041,,UNITED UTILITIES WATER PLC,ROCHDALE,,388160.0,412370.0,Greater Manchester Merseyside and Cheshire,Controlled Waters,"Indeno(1,2,3-cd)pyrene",1.0,1.58,Water Industry,Water Industry,,53.60775095500724,-2.1804168232172088,North West
016950041,,UNITED UTILITIES WATER PLC,ROCHDALE,,388160.0,412370.0,Greater Manchester Merseyside and Cheshire,Controlled Waters,Benzo(a)pyrene,1.0,1.22,Water Industry,Water Industry,,53.60775095500724,-2.1804168232172088,North West
UP3330ZF,REFINING MINERAL OILS,Morzine (UK Branch) Ltd,Thames Oilport The Manorway Coryton,SS17 9LL,575260.0,182580.0,East Anglia,Controlled Waters,Fluoranthene,0.1,0.0,Refineries & Fuel,Refineries & Fuel,,51.51495651020539,0.5244402548437682,East of England
UP3330ZF,REFINING MINERAL OILS,Morzine (UK Branch) Ltd,Thames Oilport The Manorway Coryton,SS17 9LL,575260.0,182580.0,East Anglia,Controlled Waters,Benzo(a)pyrene,1.0,0.0,Refineries & Fuel,Refineries & Fuel,,51.51495651020539,0.5244402548437682,East of England
JP3638HM,"FERROUS METALS; PRODUCING, MELTING OR REFINING",Sahaviriya Steel Industries UK Limited,Teeside Integrated Iron and Steelworks Steel House Redcar Cleveland,TS10 5QW,457690.0,524150.0,North East,Wastewater,Fluoranthene,0.1,0.0,Metals,Ferrous,,54.609227171624504,-1.1083403642506415,North East
JP3638HM,"FERROUS METALS; PRODUCING, MELTING OR REFINING",Sahaviriya Steel Industries UK Limited,Teeside Integrated Iron and Steelworks Steel House Redcar Cleveland,TS10 5QW,457690.0,524150.0,North East,Controlled Waters,"Indeno(1,2,3-cd)pyrene",1.0,0.0,Metals,Ferrous,,54.609227171624504,-1.1083403642506415,North East
JP3638HM,"FERROUS METALS; PRODUCING, MELTING OR REFINING",Sahaviriya Steel Industries UK Limited,Teeside Integrated Iron and Steelworks Steel House Redcar Cleveland,TS10 5QW,457690.0,524150.0,North East,Wastewater,"Indeno(1,2,3-cd)pyrene",1.0,0.0,Metals,Ferrous,,54.609227171624504,-1.1083403642506415,North East
JP3638HM,"FERROUS METALS; PRODUCING, MELTING OR REFINING",Sahaviriya Steel Industries UK Limited,Teeside Integrated Iron and Steelworks Steel House Redcar Cleveland,TS10 5QW,457690.0,524150.0,North East,Controlled Waters,Fluoranthene,0.1,0.72,Metals,Ferrous,,54.609227171624504,-1.1083403642506415,North East
JP3638HM,"FERROUS METALS; PRODUCING, MELTING OR REFINING",Sahaviriya Steel Industries UK Limited,Teeside Integrated Iron and Steelworks Steel House Redcar Cleveland,TS10 5QW,457690.0,524150.0,North East,Controlled Waters,Benzo(a)pyrene,1.0,0.0,Metals,Ferrous,,54.609227171624504,-1.1083403642506415,North East
JP3638HM,"FERROUS METALS; PRODUCING, MELTING OR REFINING",Sahaviriya Steel Industries UK Limited,Teeside Integrated Iron and Steelworks Steel House Redcar Cleveland,TS10 5QW,457690.0,524150.0,North East,Wastewater,Benzo(a)pyrene,1.0,0.0,Metals,Ferrous,,54.609227171624504,-1.1083403642506415,North East
CNTW.0531,,Anglian Water,TILBURY STW,,565670.0,175350.0,East Anglia,Controlled Waters,Fluoranthene,0.1,0.13,Water Industry,Water Industry,,51.4528958108943,0.38297313813412337,East of England
CNTW.0531,,Anglian Water,TILBURY STW,,565670.0,175350.0,East Anglia,Controlled Waters,"Indeno(1,2,3-cd)pyrene",1.0,0.0,Water Industry,Water Industry,,51.4528958108943,0.38297313813412337,East of England
CNTW.0531,,Anglian Water,TILBURY STW,,565670.0,175350.0,East Anglia,Controlled Waters,Benzo(a)pyrene,1.0,0.0,Water Industry,Water Industry,,51.4528958108943,0.38297313813412337,East of England
BR6996IC,"GASIFICATION, LIQUIFAC. AND REFINING; COAL/LIGNITE GASIFICATION",Esso Petroleum Company Ltd,Fawley Refinery Esso Petroleum Company Esso refinery Southampton Hampshire,SO45 1TX,445500.0,104300.0,Solent and South Downs,Controlled Waters,Fluoranthene,0.1,19.8,Refineries & Fuel,Refineries & Fuel,,50.836448656650745,-1.3552246018400003,South East
BR6996IC,"GASIFICATION, LIQUIFAC. AND REFINING; COAL/LIGNITE GASIFICATION",Esso Petroleum Company Ltd,Fawley Refinery Esso Petroleum Company Esso refinery Southampton Hampshire,SO45 1TX,445500.0,104300.0,Solent and South Downs,Controlled Waters,Benzo(a)pyrene,1.0,16.87,Refineries & Fuel,Refineries & Fuel,,50.836448656650745,-1.3552246018400003,South East
CP3536XG,"WASTE LANDFILLING; >10 T/D WITH CAPACITY >25,000T EXCLUDING INERT WASTE",Mick George Ltd,"Oakley Road,Rushton Landfill Rushton Northamptonshire",NN14 1RS,485450.0,283760.0,Lincolnshire and Northamptonshire,Wastewater,Fluoranthene,0.1,0.0,Landfill,Non Hazardous Landfill,,52.445132690394345,-0.7442208910104406,East Midlands
