AUTHORISATION ID / PERMIT ID,ACTIVITY DESCRIPTION,OPERATOR NAME,SITE ADDRESS,SITE POSTCODE,EASTING,NORTHING,EA AREA NAME,ROUTE NAME,SUBSTANCE NAME,REPORTING THRESHOLD (kg),QUANTITY RELEASED (kg),REGULATED INDUSTRY SECTOR,REGULATED INDUSTRY SUB SECTOR,PNEC (Âµg/L),Latitude,Longitude,REGION
UP3639LY,"WASTE LANDFILLING; >10 T/D WITH CAPACITY >25,000T EXCLUDING INERT WASTE",3C Waste Limited,Danes Moss Landfill Site Gawsworth Macclesfield Cheshire,SK11 9QP,390500.0,371500.0,Greater Manchester Merseyside and Cheshire,Wastewater,"Indeno(1,2,3-cd)pyrene",1.0,0.0,Landfill,Non Hazardous Landfill,,53.240439462521046,-2.1438041690584186,North West
UP3639LY,"WASTE LANDFILLING; >10 T/D WITH CAPACITY >25,000T EXCLUDING INERT WASTE",3C Waste Limited,Danes Moss Landfill Site Gawsworth Macclesfield Cheshire,SK11 9QP,390500.0,371500.0,Greater Manchester Merseyside and Cheshire,Wastewater,Benzo(a)pyrene,1.0,0.0,Landfill,Non Hazardous Landfill,,53.240439462521046,-2.1438041690584186,North West
UP3639LY,"WASTE LANDFILLING; >10 T/D WITH CAPACITY >25,000T EXCLUDING INERT WASTE",3C Waste Limited,Danes Moss Landfill Site Gawsworth Macclesfield Cheshire,SK11 9QP,390500.0,371500.0,Greater Manchester Merseyside and Cheshire,Wastewater,Cypermethrin,0.005,0.0,Landfill,Non Hazardous Landfill,1.3e-05,53.240439462521046,-2.1438041690584186,North West
UP3639LY,"WASTE LANDFILLING; >10 T/D WITH CAPACITY >25,000T EXCLUDING INERT WASTE",3C Waste Limited,Danes Moss Landfill Site Gawsworth Macclesfield Cheshire,SK11 9QP,390500.0,371500.0,Greater Manchester Merseyside and Cheshire,Wastewater,Fluoranthene,0.1,0.0,Landfill,Non Hazardous Landfill,,53.240439462521046,-2.1438041690584186,North West
UP3639LY,"WASTE LANDFILLING; >10 T/D WITH CAPACITY >25,000T EXCLUDING INERT WASTE",3C Waste Limited,Danes Moss Landfill Site Gawsworth Macclesfield Cheshire,SK11 9QP,390500.0,371500.0,Greater Manchester Merseyside and Cheshire,Wastewater,Heptachlor,0.1,0.0,Landfill,Non Hazardous Landfill,,53.240439462521046,-2.1438041690584186,North West
VP3838LP,DISPOSAL OR RECOVERY OF HAZARDOUS WASTE WITH A CAPACITY EXCEEDING 10 TONNES PER DAY INVOLVING PHYSICO-CHEMICAL TREATMENT,Oikos Storage Limited,"Hole Haven Wharf,Oikos Stoarge Ltd Haven Road Essex",SS8 0NR,577850.0,182090.0,East Anglia,Controlled Waters,"Indeno(1,2,3-cd)pyrene",1.0,0.0,Hazardous Waste,Hazardous Waste,,51.509746369185514,0.5614803064348728,East of England
VP3838LP,DISPOSAL OR RECOVERY OF HAZARDOUS WASTE WITH A CAPACITY EXCEEDING 10 TONNES PER DAY INVOLVING PHYSICO-CHEMICAL TREATMENT,Oikos Storage Limited,"Hole Haven Wharf,Oikos Stoarge Ltd Haven Road Essex",SS8 0NR,577850.0,182090.0,East Anglia,Controlled Waters,Fluoranthene,0.1,0.0,Hazardous Waste,Hazardous Waste,,51.509746369185514,0.5614803064348728,East of England
VP3838LP,DISPOSAL OR RECOVERY OF HAZARDOUS WASTE WITH A CAPACITY EXCEEDING 10 TONNES PER DAY INVOLVING PHYSICO-CHEMICAL TREATMENT,Oikos Storage Limited,"Hole Haven Wharf,Oikos Stoarge Ltd Haven Road Essex",SS8 0NR,577850.0,182090.0,East Anglia,Controlled Waters,Heptachlor,0.1,0.0,Hazardous Waste,Hazardous Waste,,51.509746369185514,0.5614803064348728,East of England
VP3838LP,DISPOSAL OR RECOVERY OF HAZARDOUS WASTE WITH A CAPACITY EXCEEDING 10 TONNES PER DAY INVOLVING PHYSICO-CHEMICAL TREATMENT,Oikos Storage Limited,"Hole Haven Wharf,Oikos Stoarge Ltd Haven Road Essex",SS8 0NR,577850.0,182090.0,East Anglia,Controlled Waters,Benzo(a)pyrene,1.0,0.0,Hazardous Waste,Hazardous Waste,,51.509746369185514,0.5614803064348728,East of England
VP3838LP,DISPOSAL OR RECOVERY OF HAZARDOUS WASTE WITH A CAPACITY EXCEEDING 10 TONNES PER DAY INVOLVING PHYSICO-CHEMICAL TREATMENT,Oikos Storage Limited,"Hole Haven Wharf,Oikos Stoarge Ltd Haven Road Essex",SS8 0NR,577850.0,182090.0,East Anglia,Controlled Waters,Cypermethrin,0.005,0.0,Hazardous Waste,Hazardous Waste,1.3e-05,51.509746369185514,0.5614803064348728,East of England
DP3333KT,"WASTE LANDFILLING; >10 T/D WITH CAPACITY >25,000T EXCLUDING INERT WASTE",Saint-Gobain Construction Products UK Limited,Kirkby Thore Works Landfill Site Kirkby Thore Works Kirkby Thore Cumbria,CA10 1XU,364126.0,527191.0,Cumbria and Lancashire,Controlled Waters,Fluoranthene,0.1,0.0,Landfill,Non Hazardous Landfill,,54.638553647685825,-2.5573250178566926,North West
DP3333KT,"WASTE LANDFILLING; >10 T/D WITH CAPACITY >25,000T EXCLUDING INERT WASTE",Saint-Gobain Construction Products UK Limited,Kirkby Thore Works Landfill Site Kirkby Thore Works Kirkby Thore Cumbria,CA10 1XU,364126.0,527191.0,Cumbria and Lancashire,Wastewater,Fluoranthene,0.1,0.0,Landfill,Non Hazardous Landfill,,54.638553647685825,-2.5573250178566926,North West
016993399,,UNITED UTILITIES WATER PLC,BIRKENHEAD,,332800.0,389400.0,Greater Manchester Merseyside and Cheshire,Controlled Waters,"Indeno(1,2,3-cd)pyrene",1.0,0.0,Water Industry,Water Industry,,53.3971324575507,-3.012083267411799,North West
016993399,,UNITED UTILITIES WATER PLC,BIRKENHEAD,,332800.0,389400.0,Greater Manchester Merseyside and Cheshire,Controlled Waters,Benzo(a)pyrene,1.0,0.0,Water Industry,Water Industry,,53.3971324575507,-3.012083267411799,North West
UP3230LR,Refining Mineral Oil (Secondary operations - oil movements and blending,Phillips 66 Limited,Humber Refinery Eastfield Road North Lincolnshire,DN40 3DW,516340.0,416480.0,Lincolnshire and Northamptonshire,Controlled Waters,"Indeno(1,2,3-cd)pyrene",1.0,0.0,Refineries & Fuel,Refineries & Fuel,,53.63192485822344,-0.24208748245039757,Yorkshire and The Humber
UP3230LR,Refining Mineral Oil (Secondary operations - oil movements and blending,Phillips 66 Limited,Humber Refinery Eastfield Road North Lincolnshire,DN40 3DW,516340.0,416480.0,Lincolnshire and Northamptonshire,Controlled Waters,Benzo(a)pyrene,1.0,0.0,Refineries & Fuel,Refineries & Fuel,,53.63192485822344,-0.24208748245039757,Yorkshire and The Humber
BV2204IZ,"WASTE LANDFILLING; >10 T/D WITH CAPACITY >25,000T EXCLUDING INERT WASTE",Viridor Waste Management Limited,Lean Quarry Landfill Site,PL14 3QD,226700.0,61300.0,"Devon, Cornwall and the Isles of Scilly",Wastewater,Benzo(a)pyrene,1.0,0.0,Landfill,Non Hazardous Landfill,,50.42592043619004,-4.441169245393684,South West
BV2204IZ,"WASTE LANDFILLING; >10 T/D WITH CAPACITY >25,000T EXCLUDING INERT WASTE",Viridor Waste Management Limited,Lean Quarry Landfill Site,PL14 3QD,226700.0,61300.0,"Devon, Cornwall and the Isles of Scilly",Wastewater,Fluoranthene,0.1,0.0,Landfill,Non Hazardous Landfill,,50.42592043619004,-4.441169245393684,South West
BV2204IZ,"WASTE LANDFILLING; >10 T/D WITH CAPACITY >25,000T EXCLUDING INERT WASTE",Viridor Waste Management Limited,Lean Quarry Landfill Site,PL14 3QD,226700.0,61300.0,"Devon, Cornwall and the Isles of Scilly",Wastewater,Heptachlor,0.1,0.0,Landfill,Non Hazardous Landfill,,50.42592043619004,-4.441169245393684,South West
BR4977IH,"COATING, PRINTING AND TEXTILES; PRE-TREATING BY WASHING ETC >10T/DAY",Bulmer and Lumb Group Ltd,Buttershaw Textiles ROYDS HALL LANE BUTTERSHAW WEST YORKSHIRE,BD6 2NE,414340.0,429240.0,Yorkshire,Wastewater,Cypermethrin,0.005,0.0,Paper and textiles,Textiles,1.3e-05,53.75932288343611,-1.7839727532399492,Yorkshire and The Humber
BK1244IA,"WASTE LANDFILLING; >10 T/D WITH CAPACITY >25,000T EXCLUDING INERT WASTE",Suez Recycling and Recovery Southern Ltd,Fair Oak Landfill Off Mortimers Lane Fair Oak Hampshire,SO50 7EA,450770.0,118260.0,Solent and South Downs,Wastewater,"Indeno(1,2,3-cd)pyrene",1.0,0.0,Landfill,Non Hazardous Landfill,,50.961535236967585,-1.2784548872001056,South East
BK1244IA,"WASTE LANDFILLING; >10 T/D WITH CAPACITY >25,000T EXCLUDING INERT WASTE",Suez Recycling and Recovery Southern Ltd,Fair Oak Landfill Off Mortimers Lane Fair Oak Hampshire,SO50 7EA,450770.0,118260.0,Solent and South Downs,Wastewater,Benzo(a)pyrene,1.0,0.0,Landfill,Non Hazardous Landfill,,50.961535236967585,-1.2784548872001056,South East
BK1244IA,"WASTE LANDFILLING; >10 T/D WITH CAPACITY >25,000T EXCLUDING INERT WASTE",Suez Recycling and Recovery Southern Ltd,Fair Oak Landfill Off Mortimers Lane Fair Oak Hampshire,SO50 7EA,450770.0,118260.0,Solent and South Downs,Wastewater,Fluoranthene,0.1,0.0,Landfill,Non Hazardous Landfill,,50.961535236967585,-1.2784548872001056,South East
S/06/55227/R,,SEVERN TRENT WATER LTD,Barnhurst STW,WV95HN,390000.0,301650.0,West Midlands,Controlled Waters,"Indeno(1,2,3-cd)pyrene",1.0,0.0,Water Industry,Water Industry,,52.61253137355055,-2.149118878174962,West Midlands
S/06/55227/R,,SEVERN TRENT WATER LTD,Barnhurst STW,WV95HN,390000.0,301650.0,West Midlands,Controlled Waters,Benzo(a)pyrene,1.0,0.0,Water Industry,Water Industry,,52.61253137355055,-2.149118878174962,West Midlands
T/08/35452/R,,SEVERN TRENT WATER LTD,Goscote STW,WS3 4DW,402190.0,301920.0,West Midlands,Controlled Waters,Fluoranthene,0.1,0.0,Water Industry,Water Industry,,52.615048826782534,-1.9690888796685821,West Midlands
T/08/35452/R,,SEVERN TRENT WATER LTD,Goscote STW,WS3 4DW,402190.0,301920.0,West Midlands,Controlled Waters,"Indeno(1,2,3-cd)pyrene",1.0,0.0,Water Industry,Water Industry,,52.615048826782534,-1.9690888796685821,West Midlands
T/08/35452/R,,SEVERN TRENT WATER LTD,Goscote STW,WS3 4DW,402190.0,301920.0,West Midlands,Controlled Waters,Benzo(a)pyrene,1.0,0.0,Water Industry,Water Industry,,52.615048826782534,-1.9690888796685821,West Midlands
BU3485IS,ORGANIC CHEMICALS; HALOGEN CONTAINING COMPOUNDS EG HALOCARBONS,F2 CHEMICALS LTD,F2 Chemicals Limited Lea Lane Preston Lancashire,PR4 0RZ,347550.0,431250.0,Cumbria and Lancashire,Wastewater,Fluoranthene,0.1,0.0,Chemicals,Chemicals,,53.774930076533344,-2.797335665259419,North West
BV0627IL,"WASTE LANDFILLING; >10 T/D WITH CAPACITY >25,000T EXCLUDING INERT WASTE",North Lincolnshire Council,Conesby Quarry Landfill Normanby Road Scunthorpe North Lincolnshire,DN15 8QZ,489850.0,414500.0,Lincolnshire and Northamptonshire,Wastewater,Benzo(a)pyrene,1.0,0.0,Landfill,Non Hazardous Landfill,,53.61934413448165,-0.6431195830322438,Yorkshire and The Humber
BV0627IL,"WASTE LANDFILLING; >10 T/D WITH CAPACITY >25,000T EXCLUDING INERT WASTE",North Lincolnshire Council,Conesby Quarry Landfill Normanby Road Scunthorpe North Lincolnshire,DN15 8QZ,489850.0,414500.0,Lincolnshire and Northamptonshire,Wastewater,Fluoranthene,0.1,0.0,Landfill,Non Hazardous Landfill,,53.61934413448165,-0.6431195830322438,Yorkshire and The Humber
BP3731ZS,"COATING, PRINTING AND TEXTILES; PRE-TREATING BY WASHING ETC >10T/DAY",Lawton Yarns Limited,Ravens Ing Mills Netherfield Road Dewsbury West Yorkshire,WF13 3JE,422960.0,420450.0,Yorkshire,Wastewater,Cypermethrin,0.005,0.0,Paper and textiles,Textiles,1.3e-05,53.680012549495565,-1.6538768802807502,Yorkshire and The Humber
UP3937FW,Animal vegetable and food treating etc vegetable,Cawingredients Limited,Caw House Conygarth Way Leeming Bar Business Park Leeming Bar North Yorkshire,DL7 9FD,428230.0,490060.0,Yorkshire,Controlled Waters,"Indeno(1,2,3-cd)pyrene",1.0,0.0,Food & Drink,Food & Drink,,54.305369215400624,-1.567666100663004,Yorkshire and The Humber
UP3937FW,Animal vegetable and food treating etc vegetable,Cawingredients Limited,Caw House Conygarth Way Leeming Bar Business Park Leeming Bar North Yorkshire,DL7 9FD,428230.0,490060.0,Yorkshire,Controlled Waters,Fluoranthene,0.1,0.0,Food & Drink,Food & Drink,,54.305369215400624,-1.567666100663004,Yorkshire and The Humber
UP3937FW,Animal vegetable and food treating etc vegetable,Cawingredients Limited,Caw House Conygarth Way Leeming Bar Business Park Leeming Bar North Yorkshire,DL7 9FD,428230.0,490060.0,Yorkshire,Controlled Waters,Heptachlor,0.1,0.0,Food & Drink,Food & Drink,,54.305369215400624,-1.567666100663004,Yorkshire and The Humber
UP3937FW,Animal vegetable and food treating etc vegetable,Cawingredients Limited,Caw House Conygarth Way Leeming Bar Business Park Leeming Bar North Yorkshire,DL7 9FD,428230.0,490060.0,Yorkshire,Controlled Waters,Benzo(a)pyrene,1.0,0.0,Food & Drink,Food & Drink,,54.305369215400624,-1.567666100663004,Yorkshire and The Humber
LP3832NM,"WASTE LANDFILLING; >10 T/D WITH CAPACITY >25,000T EXCLUDING INERT WASTE",Durham County Council,Joint Stocks Landfill Joint Stocks Quarry Coxhoe Durham,DH6 4RT,433100.0,536500.0,North East,Wastewater,Fluoranthene,0.1,0.0,Landfill,Non Hazardous Landfill,,54.72241213125292,-1.4876334453559477,North East
LP3832NM,"WASTE LANDFILLING; >10 T/D WITH CAPACITY >25,000T EXCLUDING INERT WASTE",Durham County Council,Joint Stocks Landfill Joint Stocks Quarry Coxhoe Durham,DH6 4RT,433100.0,536500.0,North East,Wastewater,Benzo(a)pyrene,1.0,0.0,Landfill,Non Hazardous Landfill,,54.72241213125292,-1.4876334453559477,North East
LP3232ZM,"PAPER, PULP AND BOARD; PRODUCING PAPER/BOARD >20T/D",Northwood Tissue (Lancaster) Limited,Np. Lancaster Tissue Lansil Way Lansil Industrial Estate,LA1 3QY,348510.0,463390.0,Cumbria and Lancashire,Wastewater,Cypermethrin,0.005,0.0,Paper and textiles,Paper & Pulp,1.3e-05,54.06386589165328,-2.788194076139218,North West
RP3738ZK,DISPOSAL OF > 50 T/D NON-HAZARDOUS WASTE (> 100 T/D IF ONLY AD) INVOLVING PHYSICO-CHEMICAL TREATMENT,Suez Recycling And Recovery Uk Ltd,"Enderby Leachate Treatment Plant,Enderby Landfill Site Mill Hill Leicestershire",LE9 5AL,453800.0,302600.0,East Midlands,Wastewater,"Indeno(1,2,3-cd)pyrene",1.0,0.0,Landfill,other,,52.61851203664004,-1.2067729163542416,East Midlands
RP3738ZK,DISPOSAL OF > 50 T/D NON-HAZARDOUS WASTE (> 100 T/D IF ONLY AD) INVOLVING PHYSICO-CHEMICAL TREATMENT,Suez Recycling And Recovery Uk Ltd,"Enderby Leachate Treatment Plant,Enderby Landfill Site Mill Hill Leicestershire",LE9 5AL,453800.0,302600.0,East Midlands,Wastewater,Benzo(a)pyrene,1.0,0.0,Landfill,other,,52.61851203664004,-1.2067729163542416,East Midlands
RP3738ZK,DISPOSAL OF > 50 T/D NON-HAZARDOUS WASTE (> 100 T/D IF ONLY AD) INVOLVING PHYSICO-CHEMICAL TREATMENT,Suez Recycling And Recovery Uk Ltd,"Enderby Leachate Treatment Plant,Enderby Landfill Site Mill Hill Leicestershire",LE9 5AL,453800.0,302600.0,East Midlands,Wastewater,Fluoranthene,0.1,0.0,Landfill,other,,52.61851203664004,-1.2067729163542416,East Midlands
RP3738ZK,DISPOSAL OF > 50 T/D NON-HAZARDOUS WASTE (> 100 T/D IF ONLY AD) INVOLVING PHYSICO-CHEMICAL TREATMENT,Suez Recycling And Recovery Uk Ltd,"Enderby Leachate Treatment Plant,Enderby Landfill Site Mill Hill Leicestershire",LE9 5AL,453800.0,302600.0,East Midlands,Wastewater,Heptachlor,0.1,0.0,Landfill,other,,52.61851203664004,-1.2067729163542416,East Midlands
S/07/56066/R,,SEVERN TRENT WATER LTD,Worcester STW,WR2 4ZP,384361.0,253530.0,West Midlands,Controlled Waters,"Indeno(1,2,3-cd)pyrene",1.0,0.0,Water Industry,Water Industry,,52.17979766833557,-2.2301339588886964,West Midlands
S/07/56066/R,,SEVERN TRENT WATER LTD,Worcester STW,WR2 4ZP,384361.0,253530.0,West Midlands,Controlled Waters,Benzo(a)pyrene,1.0,0.0,Water Industry,Water Industry,,52.17979766833557,-2.2301339588886964,West Midlands
XP3533WY,INORGANIC CHEMICALS; SALTS EG AMMONIUM CHLORIDE,Arch Timber Protection Limited,Huddersfield Chemical Industry PO Box A521 Leeds Road Huddersfield West Yorkshire,HD2 1FG,414540.0,416860.0,Yorkshire,Wastewater,Cypermethrin,0.005,0.0,Chemicals,Chemicals,1.3e-05,53.64804554955977,-1.7815156220250792,Yorkshire and The Humber
BM6093IS,"WASTE LANDFILLING; >10 T/D WITH CAPACITY >25,000T EXCLUDING INERT WASTE",FCC Waste Services (UK) Limited,Bennett Bank Landfill Thwaite Flat Barrow in Furness Cumbria,LA14 4QH,321500.0,475000.0,Cumbria and Lancashire,Wastewater,Heptachlor,0.1,0.0,Landfill,Non Hazardous Landfill,,54.16477532005344,-3.2038092552016577,North West
MP3435KP,"WASTE LANDFILLING; >10 T/D WITH CAPACITY >25,000T EXCLUDING INERT WASTE",Viridor Waste Management Limited,Elsenham Landfill HALL ROAD,CM22 6DJ,555000.0,227200.0,Hertfordshire and North London,Wastewater,Heptachlor,0.1,0.0,Landfill,Non Hazardous Landfill,,51.92175040518109,0.25254845878665255,East of England
RP3739QB,"WASTE LANDFILLING; >10 T/D WITH CAPACITY >25,000T EXCLUDING INERT WASTE",Potters (Midlands) Limited,Granville Landfill Site Grange Lane Redhill Telford Shropshire,TF2 9PB,372460.0,311820.0,West Midlands,Wastewater,Fluoranthene,0.1,0.0,Landfill,Non Hazardous Landfill,,52.70334431038852,-2.409006747730222,West Midlands
RP3739QB,"WASTE LANDFILLING; >10 T/D WITH CAPACITY >25,000T EXCLUDING INERT WASTE",Potters (Midlands) Limited,Granville Landfill Site Grange Lane Redhill Telford Shropshire,TF2 9PB,372460.0,311820.0,West Midlands,Wastewater,Heptachlor,0.1,0.0,Landfill,Non Hazardous Landfill,,52.70334431038852,-2.409006747730222,West Midlands
RP3739QB,"WASTE LANDFILLING; >10 T/D WITH CAPACITY >25,000T EXCLUDING INERT WASTE",Potters (Midlands) Limited,Granville Landfill Site Grange Lane Redhill Telford Shropshire,TF2 9PB,372460.0,311820.0,West Midlands,Wastewater,Benzo(a)pyrene,1.0,0.0,Landfill,Non Hazardous Landfill,,52.70334431038852,-2.409006747730222,West Midlands
LP3434HA,"WASTE LANDFILLING; >10 T/D WITH CAPACITY >25,000T EXCLUDING INERT WASTE",Bradley Park Waste Management Limited,Bradley Park Landfill Site Lower Quarry Road Huddersfield West Yorkshire,HD2 1FN,416350.0,421350.0,Yorkshire,Controlled Waters,Fluoranthene,0.1,0.0,Landfill,Non Hazardous Landfill,,53.68834894210262,-1.7538996405163412,Yorkshire and The Humber
LP3434HA,"WASTE LANDFILLING; >10 T/D WITH CAPACITY >25,000T EXCLUDING INERT WASTE",Bradley Park Waste Management Limited,Bradley Park Landfill Site Lower Quarry Road Huddersfield West Yorkshire,HD2 1FN,416350.0,421350.0,Yorkshire,Controlled Waters,Heptachlor,0.1,0.0,Landfill,Non Hazardous Landfill,,53.68834894210262,-1.7538996405163412,Yorkshire and The Humber
LP3434HA,"WASTE LANDFILLING; >10 T/D WITH CAPACITY >25,000T EXCLUDING INERT WASTE",Bradley Park Waste Management Limited,Bradley Park Landfill Site Lower Quarry Road Huddersfield West Yorkshire,HD2 1FN,416350.0,421350.0,Yorkshire,Controlled Waters,Benzo(a)pyrene,1.0,0.0,Landfill,Non Hazardous Landfill,,53.68834894210262,-1.7538996405163412,Yorkshire and The Humber
LP3434HA,"WASTE LANDFILLING; >10 T/D WITH CAPACITY >25,000T EXCLUDING INERT WASTE",Bradley Park Waste Management Limited,Bradley Park Landfill Site Lower Quarry Road Huddersfield West Yorkshire,HD2 1FN,416350.0,421350.0,Yorkshire,Wastewater,Benzo(a)pyrene,1.0,0.0,Landfill,Non Hazardous Landfill,,53.68834894210262,-1.7538996405163412,Yorkshire and The Humber
LP3434HA,"WASTE LANDFILLING; >10 T/D WITH CAPACITY >25,000T EXCLUDING INERT WASTE",Bradley Park Waste Management Limited,Bradley Park Landfill Site Lower Quarry Road Huddersfield West Yorkshire,HD2 1FN,416350.0,421350.0,Yorkshire,Wastewater,Cypermethrin,0.005,0.0,Landfill,Non Hazardous Landfill,1.3e-05,53.68834894210262,-1.7538996405163412,Yorkshire and The Humber
LP3434HA,"WASTE LANDFILLING; >10 T/D WITH CAPACITY >25,000T EXCLUDING INERT WASTE",Bradley Park Waste Management Limited,Bradley Park Landfill Site Lower Quarry Road Huddersfield West Yorkshire,HD2 1FN,416350.0,421350.0,Yorkshire,Controlled Waters,Cypermethrin,0.005,0.0,Landfill,Non Hazardous Landfill,1.3e-05,53.68834894210262,-1.7538996405163412,Yorkshire and The Humber
LP3434HA,"WASTE LANDFILLING; >10 T/D WITH CAPACITY >25,000T EXCLUDING INERT WASTE",Bradley Park Waste Management Limited,Bradley Park Landfill Site Lower Quarry Road Huddersfield West Yorkshire,HD2 1FN,416350.0,421350.0,Yorkshire,Wastewater,Heptachlor,0.1,0.0,Landfill,Non Hazardous Landfill,,53.68834894210262,-1.7538996405163412,Yorkshire and The Humber
BM5941IH,"WASTE LANDFILLING; >10 T/D WITH CAPACITY >25,000T EXCLUDING INERT WASTE",Lakeland Waste Management,Flusco Landfill Site Newbiggin Nr Penrith Cumbria,CA11 0JB,346500.0,529200.0,Cumbria and Lancashire,Wastewater,Fluoranthene,0.1,0.0,Landfill,Non Hazardous Landfill,,54.655041109597946,-2.8307521635332864,North West
BX4054ID,"WASTE LANDFILLING; >10 T/D WITH CAPACITY >25,000T EXCLUDING INERT WASTE",Viridor Waste Management Limited,Trigon Hill Landfill Site Bere-Regis to Wareham Road Dorset,BH20 7PB,389600.0,89400.0,Wessex,Wastewater,Benzo(a)pyrene,1.0,0.0,Landfill,Non Hazardous Landfill,,50.70414373942738,-2.148637222180651,South West
BX4054ID,"WASTE LANDFILLING; >10 T/D WITH CAPACITY >25,000T EXCLUDING INERT WASTE",Viridor Waste Management Limited,Trigon Hill Landfill Site Bere-Regis to Wareham Road Dorset,BH20 7PB,389600.0,89400.0,Wessex,Wastewater,Fluoranthene,0.1,0.0,Landfill,Non Hazardous Landfill,,50.70414373942738,-2.148637222180651,South West
TP3039RN,DISPOSAL OR RECOVERY OF HAZ WASTE WITH CAPACITY EXCEEDING 10 TONNES PER DAY INVOLVING BLENDING OR MIXING PRIOR TO SUBMISSION TO ANY OF THE OTHER ACTIVITIES LISTED IN THIS SECTION OR IN SECTION 5.1,Biffa Waste Services Limited,Sheffield Waste Management Centre Holbrook Rise Holbrook Industrial Estate Sheffield South Yorkshire,S20 3FG,443960.0,381520.0,Yorkshire,Wastewater,Fluoranthene,0.1,0.0,Hazardous Waste,Hazardous Waste,,53.3287775516293,-1.3414119869477663,Yorkshire and The Humber
TP3039RN,DISPOSAL OR RECOVERY OF HAZ WASTE WITH CAPACITY EXCEEDING 10 TONNES PER DAY INVOLVING BLENDING OR MIXING PRIOR TO SUBMISSION TO ANY OF THE OTHER ACTIVITIES LISTED IN THIS SECTION OR IN SECTION 5.1,Biffa Waste Services Limited,Sheffield Waste Management Centre Holbrook Rise Holbrook Industrial Estate Sheffield South Yorkshire,S20 3FG,443960.0,381520.0,Yorkshire,Wastewater,Benzo(a)pyrene,1.0,0.0,Hazardous Waste,Hazardous Waste,,53.3287775516293,-1.3414119869477663,Yorkshire and The Humber
CNTW.0531,,Anglian Water,TILBURY STW,,565670.0,175350.0,East Anglia,Controlled Waters,"Indeno(1,2,3-cd)pyrene",1.0,0.0,Water Industry,Water Industry,,51.4528958108943,0.38297313813412337,East of England
CNTW.0531,,Anglian Water,TILBURY STW,,565670.0,175350.0,East Anglia,Controlled Waters,Benzo(a)pyrene,1.0,0.0,Water Industry,Water Industry,,51.4528958108943,0.38297313813412337,East of England
KP3036LW,DISPOSAL OF > 50 T/D NON-HAZARDOUS WASTE (> 100 T/D IF ONLY AD) INVOLVING PHYSICO-CHEMICAL TREATMENT,Yorkshire Water Services Limited,Lemonroyd Wwtw Fleet Lane Oulton West Yorkshire,LS26 8AB,437930.0,427930.0,Yorkshire,Controlled Waters,"Indeno(1,2,3-cd)pyrene",1.0,0.0,Biowaste Treatment,Biowaste Treatment,,53.746371245686454,-1.4263373657801721,Yorkshire and The Humber
A1112/K/00,,Southern Water,"Broomfield Bank WTW, Folkestone Road, Church Hougham, Dover, Kent",CT15 7AB,628500.0,140100.0,"Kent, South London and East Sussex",Controlled Waters,"Indeno(1,2,3-cd)pyrene",1.0,0.0,Water Industry,Water Industry,,51.114608629871924,1.2633435941591,South East
A1112/K/00,,Southern Water,"Broomfield Bank WTW, Folkestone Road, Church Hougham, Dover, Kent",CT15 7AB,628500.0,140100.0,"Kent, South London and East Sussex",Controlled Waters,Benzo(a)pyrene,1.0,0.0,Water Industry,Water Industry,,51.114608629871924,1.2633435941591,South East
CNTM.2237,,THAMES WATER UTILITIES LTD,SLOUGH STW,SL1 9EB,494100.0,179200.0,Thames,Controlled Waters,Benzo(a)pyrene,1.0,0.0,Water Industry,Water Industry,,51.503910638290265,-0.6456287673436109,South East
CTCR.0709,,THAMES WATER UTILITIES LTD,OXFORD STW,OX4 4YU,454200.0,202200.0,Thames,Controlled Waters,"Indeno(1,2,3-cd)pyrene",1.0,0.0,Water Industry,Water Industry,,51.71591848737045,-1.2168679929874056,South East
CTCR.0709,,THAMES WATER UTILITIES LTD,OXFORD STW,OX4 4YU,454200.0,202200.0,Thames,Controlled Waters,Benzo(a)pyrene,1.0,0.0,Water Industry,Water Industry,,51.71591848737045,-1.2168679929874056,South East
CNTD.0058,,THAMES WATER UTILITIES LTD,LITTLE MARLOW STW,SL7 3RT,487800.0,187000.0,Thames,Controlled Waters,Benzo(a)pyrene,1.0,0.0,Water Industry,Water Industry,,51.57503906157903,-0.7344294503116684,South East
AEECS12290,,Anglian Water,Caister (Great Yarmouth) STW,,654620.0,309850.0,East Anglia,Controlled Waters,Fluoranthene,0.1,0.0,Water Industry,Water Industry,,52.62663561476223,1.7608432729944696,
AEECS12290,,Anglian Water,Caister (Great Yarmouth) STW,,654620.0,309850.0,East Anglia,Controlled Waters,"Indeno(1,2,3-cd)pyrene",1.0,0.0,Water Industry,Water Industry,,52.62663561476223,1.7608432729944696,
AEECS12290,,Anglian Water,Caister (Great Yarmouth) STW,,654620.0,309850.0,East Anglia,Controlled Waters,Benzo(a)pyrene,1.0,0.0,Water Industry,Water Industry,,52.62663561476223,1.7608432729944696,
CNTD.0017,,THAMES WATER UTILITIES LTD,SWINDON STW,SN2 2DP,412700.0,185800.0,Thames,Controlled Waters,Benzo(a)pyrene,1.0,0.0,Water Industry,Water Industry,,51.57092949123404,-1.8181517865047485,South West
T/08/09076/R,,SEVERN TRENT WATER LTD,Ray Hall Sand Filters STW,B43 6JE,402900.0,293700.0,West Midlands,Controlled Waters,Fluoranthene,0.1,0.0,Water Industry,Water Industry,,52.54114944865429,-1.9586717376025498,West Midlands
T/08/09076/R,,SEVERN TRENT WATER LTD,Ray Hall Sand Filters STW,B43 6JE,402900.0,293700.0,West Midlands,Controlled Waters,"Indeno(1,2,3-cd)pyrene",1.0,0.0,Water Industry,Water Industry,,52.54114944865429,-1.9586717376025498,West Midlands
T/08/09076/R,,SEVERN TRENT WATER LTD,Ray Hall Sand Filters STW,B43 6JE,402900.0,293700.0,West Midlands,Controlled Waters,Benzo(a)pyrene,1.0,0.0,Water Industry,Water Industry,,52.54114944865429,-1.9586717376025498,West Midlands
ASCNF1033,,Anglian Water,Cambridge STW,,548350.0,261540.0,East Anglia,Controlled Waters,"Indeno(1,2,3-cd)pyrene",1.0,0.0,Water Industry,Water Industry,,52.23207645870105,0.1708411736842626,East of England
ASCNF1033,,Anglian Water,Cambridge STW,,548350.0,261540.0,East Anglia,Controlled Waters,Benzo(a)pyrene,1.0,0.0,Water Industry,Water Industry,,52.23207645870105,0.1708411736842626,East of England
E25,,Yorkshire Water Services Limited,BLACKBURN MEADOWS STW,S9 1HF,439535.0,391549.0,Yorkshire,Controlled Waters,"Indeno(1,2,3-cd)pyrene",1.0,0.0,Water Industry,Water Industry,,53.41926740910813,-1.4065972640579893,Yorkshire and The Humber
WRA6925,,Yorkshire Water Services Limited,BRADFORD ESHOLT STW,BD10 0PB,419030.0,439081.0,Yorkshire,Controlled Waters,"Indeno(1,2,3-cd)pyrene",1.0,0.0,Water Industry,Water Industry,,53.84762301892852,-1.7122320086876062,Yorkshire and The Humber
T/12/35338/R,,SEVERN TRENT WATER LTD,Coleshill STW,B46 1NX,419000.0,291000.0,West Midlands,Controlled Waters,Benzo(a)pyrene,1.0,0.0,Water Industry,Water Industry,,52.51655670471135,-1.721439707484814,West Midlands
S/13/25443/R,,SEVERN TRENT WATER LTD,Warwick STW,CV34 6QW,427770.0,262900.0,West Midlands,Controlled Waters,"Indeno(1,2,3-cd)pyrene",1.0,0.0,Water Industry,Water Industry,,52.263566941302074,-1.594524975099739,West Midlands
S/13/25443/R,,SEVERN TRENT WATER LTD,Warwick STW,CV34 6QW,427770.0,262900.0,West Midlands,Controlled Waters,Benzo(a)pyrene,1.0,0.0,Water Industry,Water Industry,,52.263566941302074,-1.594524975099739,West Midlands
WRA7409,,Yorkshire Water Services Limited,HUDDERSFIELD STW,HD2 1FG,417124.0,419244.0,Yorkshire,Controlled Waters,"Indeno(1,2,3-cd)pyrene",1.0,0.0,Water Industry,Water Industry,,53.6693954953469,-1.742295056114122,Yorkshire and The Humber
ASETS1046,,Anglian Water,Colchester(Haven) STW,,602250.0,223620.0,East Anglia,Controlled Waters,Fluoranthene,0.1,0.0,Water Industry,Water Industry,,51.874464238124666,0.9366818210860293,East of England
ASETS1046,,Anglian Water,Colchester(Haven) STW,,602250.0,223620.0,East Anglia,Controlled Waters,"Indeno(1,2,3-cd)pyrene",1.0,0.0,Water Industry,Water Industry,,51.874464238124666,0.9366818210860293,East of England
ASETS1046,,Anglian Water,Colchester(Haven) STW,,602250.0,223620.0,East Anglia,Controlled Waters,Benzo(a)pyrene,1.0,0.0,Water Industry,Water Industry,,51.874464238124666,0.9366818210860293,East of England
016930112,,UNITED UTILITIES WATER PLC,FAZAKERLEY,,339370.0,396600.0,Greater Manchester Merseyside and Cheshire,Controlled Waters,Benzo(a)pyrene,1.0,0.0,Water Industry,Water Industry,,53.46263823290822,-2.9146804259264933,North West
010005,,Wessex Water,BATH (SALTFORD) STW,BS31 3ER,368900.0,168800.0,Wessex,Controlled Waters,Fluoranthene,0.1,0.0,Water Industry,Water Industry,,51.41735547857703,-2.448613053184618,South West
010005,,Wessex Water,BATH (SALTFORD) STW,BS31 3ER,368900.0,168800.0,Wessex,Controlled Waters,"Indeno(1,2,3-cd)pyrene",1.0,0.0,Water Industry,Water Industry,,51.41735547857703,-2.448613053184618,South West
010005,,Wessex Water,BATH (SALTFORD) STW,BS31 3ER,368900.0,168800.0,Wessex,Controlled Waters,Benzo(a)pyrene,1.0,0.0,Water Industry,Water Industry,,51.41735547857703,-2.448613053184618,South West
AW2TSE9961-2,,Anglian Water,Chelmsford(Brookend) STW,,584000.0,208200.0,East Anglia,Controlled Waters,Fluoranthene,0.1,0.0,Water Industry,Water Industry,,51.74228838586037,0.6637086916015041,East of England
AW2TSE9961-2,,Anglian Water,Chelmsford(Brookend) STW,,584000.0,208200.0,East Anglia,Controlled Waters,"Indeno(1,2,3-cd)pyrene",1.0,0.0,Water Industry,Water Industry,,51.74228838586037,0.6637086916015041,East of England
AW2TSE9961-2,,Anglian Water,Chelmsford(Brookend) STW,,584000.0,208200.0,East Anglia,Controlled Waters,Benzo(a)pyrene,1.0,0.0,Water Industry,Water Industry,,51.74228838586037,0.6637086916015041,East of England
WRA6756,,Yorkshire Water Services Limited,OLD WHITTINGTON STW,S41 9QU,439164.0,374345.0,Yorkshire,Controlled Waters,"Indeno(1,2,3-cd)pyrene",1.0,0.0,Water Industry,Water Industry,,53.26466246382615,-1.4143010347470408,East Midlands
E15,,Yorkshire Water Services Limited,Mitchell Laithes WwTW CHP Plant Long Lane Dewsbury West Yorkshire,WF12 8LL,426030.0,419980.0,Yorkshire,Controlled Waters,"Indeno(1,2,3-cd)pyrene",1.0,0.0,Water Industry,Water Industry,,53.67564500308029,-1.6074394637051335,Yorkshire and The Humber
AENTS13068,,Anglian Water,Wisbech W.Walton STW,,545800.0,314100.0,Lincolnshire and Northamptonshire,Controlled Waters,Fluoranthene,0.1,0.0,Water Industry,Water Industry,,52.704938704382336,0.1564924306730247,
AENTS13068,,Anglian Water,Wisbech W.Walton STW,,545800.0,314100.0,Lincolnshire and Northamptonshire,Controlled Waters,"Indeno(1,2,3-cd)pyrene",1.0,0.0,Water Industry,Water Industry,,52.704938704382336,0.1564924306730247,
AENTS13068,,Anglian Water,Wisbech W.Walton STW,,545800.0,314100.0,Lincolnshire and Northamptonshire,Controlled Waters,Benzo(a)pyrene,1.0,0.0,Water Industry,Water Industry,,52.704938704382336,0.1564924306730247,
AW5NF5178,,Anglian Water,Flag Fen STW,,522140.0,298140.0,Lincolnshire and Northamptonshire,Controlled Waters,Benzo(a)pyrene,1.0,0.0,Water Industry,Water Industry,,52.56738396341251,-0.19938126113462898,East of England
S/04/55141/R,,SEVERN TRENT WATER LTD,Rushmoor (Telford) STW,TF6 5EX,361300.0,313700.0,West Midlands,Controlled Waters,Fluoranthene,0.1,0.0,Water Industry,Water Industry,,52.719558826707015,-2.5743799002968255,West Midlands
S/04/55141/R,,SEVERN TRENT WATER LTD,Rushmoor (Telford) STW,TF6 5EX,361300.0,313700.0,West Midlands,Controlled Waters,"Indeno(1,2,3-cd)pyrene",1.0,0.0,Water Industry,Water Industry,,52.719558826707015,-2.5743799002968255,West Midlands
S/04/55141/R,,SEVERN TRENT WATER LTD,Rushmoor (Telford) STW,TF6 5EX,361300.0,313700.0,West Midlands,Controlled Waters,Benzo(a)pyrene,1.0,0.0,Water Industry,Water Industry,,52.719558826707015,-2.5743799002968255,West Midlands
C3967,,Yorkshire Water Services Limited,CALDER VALE STW,WF1 5PJ,434600.0,420300.0,Yorkshire,Controlled Waters,"Indeno(1,2,3-cd)pyrene",1.0,0.0,Water Industry,Water Industry,,53.67802592261884,-1.4776782373177137,Yorkshire and The Humber
AWNNF13399,,Anglian Water,Broadholme STW,,494150.0,268750.0,Lincolnshire and Northamptonshire,Controlled Waters,"Indeno(1,2,3-cd)pyrene",1.0,0.0,Water Industry,Water Industry,,52.30880249617189,-0.6204684010696924,East Midlands
AWNNF13399,,Anglian Water,Broadholme STW,,494150.0,268750.0,Lincolnshire and Northamptonshire,Controlled Waters,Benzo(a)pyrene,1.0,0.0,Water Industry,Water Industry,,52.30880249617189,-0.6204684010696924,East Midlands
AW1NF2460,,Anglian Water,Bedford STW,,508500.0,249600.0,East Anglia,Controlled Waters,"Indeno(1,2,3-cd)pyrene",1.0,0.0,Water Industry,Water Industry,,52.134058637941244,-0.41620486681391833,East of England
AW1NF2460,,Anglian Water,Bedford STW,,508500.0,249600.0,East Anglia,Controlled Waters,Benzo(a)pyrene,1.0,0.0,Water Industry,Water Industry,,52.134058637941244,-0.41620486681391833,East of England
WRA7510,,Yorkshire Water Services Limited,HALIFAX STW,HX3 0QJ,409200.0,422400.0,Yorkshire,Controlled Waters,"Indeno(1,2,3-cd)pyrene",1.0,0.0,Water Industry,Water Industry,,53.697959699645374,-1.8621360078317546,Yorkshire and The Humber
AWCNF10296,,Anglian Water,Cotton Valley STW,,488630.0,241460.0,East Anglia,Controlled Waters,Benzo(a)pyrene,1.0,0.0,Water Industry,Water Industry,,52.06443452129644,-0.7085359599756176,South East
BL4940IU,"WASTE LANDFILLING; >10 T/D WITH CAPACITY >25,000T EXCLUDING INERT WASTE",Catplant Quarry Ltd,Hazel Lane Quarry Hazel Lane Hampole Doncaster,DN6 7EX,450100.0,410800.0,Yorkshire,Wastewater,Fluoranthene,0.1,0.0,Landfill,Non Hazardous Landfill,,53.59139288866498,-1.2445741366386425,Yorkshire and The Humber
BL4940IU,"WASTE LANDFILLING; >10 T/D WITH CAPACITY >25,000T EXCLUDING INERT WASTE",Catplant Quarry Ltd,Hazel Lane Quarry Hazel Lane Hampole Doncaster,DN6 7EX,450100.0,410800.0,Yorkshire,Wastewater,Heptachlor,0.1,0.0,Landfill,Non Hazardous Landfill,,53.59139288866498,-1.2445741366386425,Yorkshire and The Humber
BL4940IU,"WASTE LANDFILLING; >10 T/D WITH CAPACITY >25,000T EXCLUDING INERT WASTE",Catplant Quarry Ltd,Hazel Lane Quarry Hazel Lane Hampole Doncaster,DN6 7EX,450100.0,410800.0,Yorkshire,Wastewater,"Indeno(1,2,3-cd)pyrene",1.0,0.0,Landfill,Non Hazardous Landfill,,53.59139288866498,-1.2445741366386425,Yorkshire and The Humber
BL4940IU,"WASTE LANDFILLING; >10 T/D WITH CAPACITY >25,000T EXCLUDING INERT WASTE",Catplant Quarry Ltd,Hazel Lane Quarry Hazel Lane Hampole Doncaster,DN6 7EX,450100.0,410800.0,Yorkshire,Wastewater,Benzo(a)pyrene,1.0,0.0,Landfill,Non Hazardous Landfill,,53.59139288866498,-1.2445741366386425,Yorkshire and The Humber
BL4940IU,"WASTE LANDFILLING; >10 T/D WITH CAPACITY >25,000T EXCLUDING INERT WASTE",Catplant Quarry Ltd,Hazel Lane Quarry Hazel Lane Hampole Doncaster,DN6 7EX,450100.0,410800.0,Yorkshire,Wastewater,Cypermethrin,0.005,0.0,Landfill,Non Hazardous Landfill,1.3e-05,53.59139288866498,-1.2445741366386425,Yorkshire and The Humber
BW0991IX,"WASTE LANDFILLING; >10 T/D WITH CAPACITY >25,000T EXCLUDING INERT WASTE",Valencia Waste Management Limited,Erin Landfill Markham Lane Duckmanton,S44 5HS,444900.0,373000.0,Yorkshire,Wastewater,Benzo(a)pyrene,1.0,0.0,Landfill,Non Hazardous Landfill,,53.252120201307484,-1.3285005620986647,East Midlands
BW0991IX,"WASTE LANDFILLING; >10 T/D WITH CAPACITY >25,000T EXCLUDING INERT WASTE",Valencia Waste Management Limited,Erin Landfill Markham Lane Duckmanton,S44 5HS,444900.0,373000.0,Yorkshire,Wastewater,Fluoranthene,0.1,0.0,Landfill,Non Hazardous Landfill,,53.252120201307484,-1.3285005620986647,East Midlands
KP3536LL,DISPOSAL OF > 50 T/D NON-HAZARDOUS WASTE (> 100 T/D IF ONLY AD) INVOLVING PHYSICO-CHEMICAL TREATMENT,Yorkshire Water Services Limited,Neily Wwtw New Mill Road Holmfirth West Yorkshire,HD9 7AZ,414690.0,411650.0,Yorkshire,Controlled Waters,"Indeno(1,2,3-cd)pyrene",1.0,0.0,Biowaste Treatment,Biowaste Treatment,,53.601213129365455,-1.7794903945205673,Yorkshire and The Humber
BU5500IC,"TEMPORARY STORAGE OF HAZ WASTE NOT UNDER S 5.2 PENDING ACTIVITIES LISTED IN S 5.1, 5.2, 5.3 AND PARAGRAPH (B) OF THIS SECTION WITH A TOTAL CAPACITY > 50 TONNES, EXCL TEMP STORAGE WHERE GENERATED",Veolia ES Cleanaway (UK) Limited,Preston Waste Management Centre Units 4 and 5 Redscar Industrial Estate Longridge Road,PR2 5NQ,357500.0,431800.0,Cumbria and Lancashire,Wastewater,Heptachlor,0.1,0.0,Hazardous Waste,Hazardous Waste,,53.78078238033476,-2.646446137113076,North West
GP3896CS,DISPOSAL OR RECOVERY OF HAZARDOUS WASTE WITH A CAPACITY EXCEEDING 10 TONNES PER DAY INVOLVING PHYSICO-CHEMICAL TREATMENT,G. M. P. Baird Limited,Tonge Bridge Off Hypatia Street Bury Road Lancashire,BL2 6AA,372840.0,409390.0,Greater Manchester Merseyside and Cheshire,Wastewater,Benzo(a)pyrene,1.0,0.0,Metals Recycling,Metals Recycling,,53.58039312161927,-2.411689852154811,North West
040415,,Wessex Water,BOURNEMOUTH (Holdenhurst) STW,BH7 7ES,413300.0,95230.0,Wessex,Controlled Waters,"Indeno(1,2,3-cd)pyrene",1.0,0.0,Water Industry,Water Industry,,50.75651622422837,-1.8128154360805653,South West
040415,,Wessex Water,BOURNEMOUTH (Holdenhurst) STW,BH7 7ES,413300.0,95230.0,Wessex,Controlled Waters,Benzo(a)pyrene,1.0,0.0,Water Industry,Water Industry,,50.75651622422837,-1.8128154360805653,South West
100334,,Wessex Water,WESTON SUPER MARE STW,BS24 0AP,331100.0,156900.0,Wessex,Controlled Waters,"Indeno(1,2,3-cd)pyrene",1.0,0.0,Water Industry,Water Industry,,51.30702900915634,-2.989811329637559,South West
100334,,Wessex Water,WESTON SUPER MARE STW,BS24 0AP,331100.0,156900.0,Wessex,Controlled Waters,Benzo(a)pyrene,1.0,0.0,Water Industry,Water Industry,,51.30702900915634,-2.989811329637559,South West
COPA/5571,,Southern Water,"Eastleigh STW, Chickenhall Lane, Eastleigh",SO50 6RQ,446530.0,118170.0,Solent and South Downs,Controlled Waters,Fluoranthene,0.1,0.0,Water Industry,Water Industry,,50.961083178576914,-1.338835559952014,South East
COPA/5571,,Southern Water,"Eastleigh STW, Chickenhall Lane, Eastleigh",SO50 6RQ,446530.0,118170.0,Solent and South Downs,Controlled Waters,"Indeno(1,2,3-cd)pyrene",1.0,0.0,Water Industry,Water Industry,,50.961083178576914,-1.338835559952014,South East
COPA/5571,,Southern Water,"Eastleigh STW, Chickenhall Lane, Eastleigh",SO50 6RQ,446530.0,118170.0,Solent and South Downs,Controlled Waters,Benzo(a)pyrene,1.0,0.0,Water Industry,Water Industry,,50.961083178576914,-1.338835559952014,South East
BV4541IR,"WASTE LANDFILLING; >10 T/D WITH CAPACITY >25,000T EXCLUDING INERT WASTE",Severn Trent Water Limited,"Minworth Landfill,Minworth Sewage Treatment Works Kingsbury Road Minworth",B76 9DP,417400.0,291900.0,West Midlands,Wastewater,"Indeno(1,2,3-cd)pyrene",1.0,0.0,Landfill,Hazardous Landfill,,52.52470062167675,-1.7449707725951387,West Midlands
BV4541IR,"WASTE LANDFILLING; >10 T/D WITH CAPACITY >25,000T EXCLUDING INERT WASTE",Severn Trent Water Limited,"Minworth Landfill,Minworth Sewage Treatment Works Kingsbury Road Minworth",B76 9DP,417400.0,291900.0,West Midlands,Wastewater,Benzo(a)pyrene,1.0,0.0,Landfill,Hazardous Landfill,,52.52470062167675,-1.7449707725951387,West Midlands
BV4541IR,"WASTE LANDFILLING; >10 T/D WITH CAPACITY >25,000T EXCLUDING INERT WASTE",Severn Trent Water Limited,"Minworth Landfill,Minworth Sewage Treatment Works Kingsbury Road Minworth",B76 9DP,417400.0,291900.0,West Midlands,Wastewater,Fluoranthene,0.1,0.0,Landfill,Hazardous Landfill,,52.52470062167675,-1.7449707725951387,West Midlands
BW1785IH,"WASTE LANDFILLING; >10 T/D WITH CAPACITY >25,000T EXCLUDING INERT WASTE",Integrated Waste Management Limited,Winterton South Landfill Site Coleby Road West Halton Lincolnshire,DN15 9AP,491200.0,420200.0,Lincolnshire and Northamptonshire,Wastewater,"Indeno(1,2,3-cd)pyrene",1.0,0.0,Landfill,Hazardous Landfill,,53.670328947130734,-0.6210469629017034,Yorkshire and The Humber
BW1785IH,"WASTE LANDFILLING; >10 T/D WITH CAPACITY >25,000T EXCLUDING INERT WASTE",Integrated Waste Management Limited,Winterton South Landfill Site Coleby Road West Halton Lincolnshire,DN15 9AP,491200.0,420200.0,Lincolnshire and Northamptonshire,Wastewater,Benzo(a)pyrene,1.0,0.0,Landfill,Hazardous Landfill,,53.670328947130734,-0.6210469629017034,Yorkshire and The Humber
BW1785IH,"WASTE LANDFILLING; >10 T/D WITH CAPACITY >25,000T EXCLUDING INERT WASTE",Integrated Waste Management Limited,Winterton South Landfill Site Coleby Road West Halton Lincolnshire,DN15 9AP,491200.0,420200.0,Lincolnshire and Northamptonshire,Wastewater,Cypermethrin,0.005,0.0,Landfill,Hazardous Landfill,1.3e-05,53.670328947130734,-0.6210469629017034,Yorkshire and The Humber
BW1785IH,"WASTE LANDFILLING; >10 T/D WITH CAPACITY >25,000T EXCLUDING INERT WASTE",Integrated Waste Management Limited,Winterton South Landfill Site Coleby Road West Halton Lincolnshire,DN15 9AP,491200.0,420200.0,Lincolnshire and Northamptonshire,Wastewater,Fluoranthene,0.1,0.0,Landfill,Hazardous Landfill,,53.670328947130734,-0.6210469629017034,Yorkshire and The Humber
BW1785IH,"WASTE LANDFILLING; >10 T/D WITH CAPACITY >25,000T EXCLUDING INERT WASTE",Integrated Waste Management Limited,Winterton South Landfill Site Coleby Road West Halton Lincolnshire,DN15 9AP,491200.0,420200.0,Lincolnshire and Northamptonshire,Wastewater,Heptachlor,0.1,0.0,Landfill,Hazardous Landfill,,53.670328947130734,-0.6210469629017034,Yorkshire and The Humber
016940144,,UNITED UTILITIES WATER PLC,ECCLES,,374960.0,397150.0,Greater Manchester Merseyside and Cheshire,Controlled Waters,"Indeno(1,2,3-cd)pyrene",1.0,0.0,Water Industry,Water Industry,,53.47048388729303,-2.3786875230934386,North West
016940144,,UNITED UTILITIES WATER PLC,ECCLES,,374960.0,397150.0,Greater Manchester Merseyside and Cheshire,Controlled Waters,Benzo(a)pyrene,1.0,0.0,Water Industry,Water Industry,,53.47048388729303,-2.3786875230934386,North West
3334(SS),,Yorkshire Water Services Limited,WOODHOUSE MILL STW,S13 9WG,443351.0,385867.0,Yorkshire,Controlled Waters,"Indeno(1,2,3-cd)pyrene",1.0,0.0,Water Industry,Water Industry,,53.36789873233456,-1.3499615141599048,Yorkshire and The Humber
27/24/0124,,Yorkshire Water Services Limited,YORK NABURN STW,YO23 2XD,460100.0,446899.0,Yorkshire,Controlled Waters,"Indeno(1,2,3-cd)pyrene",1.0,0.0,Water Industry,Water Industry,,53.91476188857808,-1.0865057996106529,Yorkshire and The Humber
017670049,,UNITED UTILITIES WATER PLC,CARLISLE WILLOWHOLME INDUSTRIAL ESTATE CARLISLE CUMBRIA,CA2 5SH,338470.0,556520.0,Cumbria and Lancashire,Controlled Waters,"Indeno(1,2,3-cd)pyrene",1.0,0.0,Water Industry,Water Industry,,54.89959994285756,-2.960999993430974,North West
017670049,,UNITED UTILITIES WATER PLC,CARLISLE WILLOWHOLME INDUSTRIAL ESTATE CARLISLE CUMBRIA,CA2 5SH,338470.0,556520.0,Cumbria and Lancashire,Controlled Waters,Benzo(a)pyrene,1.0,0.0,Water Industry,Water Industry,,54.89959994285756,-2.960999993430974,North West
CAWM.0942,,THAMES WATER UTILITIES LTD,READING STW,RG2 0RP,471100.0,170800.0,Thames,Controlled Waters,Benzo(a)pyrene,1.0,0.0,Water Industry,Water Industry,,51.43175105234219,-0.9786268415538915,South East
CTCR.0875,,THAMES WATER UTILITIES LTD,BASINGSTOKE STW,RG24 8LL,468000.0,155200.0,Thames,Controlled Waters,Fluoranthene,0.1,0.0,Water Industry,Water Industry,,51.29188112525349,-1.0261909051605638,South East
CTCR.0875,,THAMES WATER UTILITIES LTD,BASINGSTOKE STW,RG24 8LL,468000.0,155200.0,Thames,Controlled Waters,"Indeno(1,2,3-cd)pyrene",1.0,0.0,Water Industry,Water Industry,,51.29188112525349,-1.0261909051605638,South East
CTCR.0875,,THAMES WATER UTILITIES LTD,BASINGSTOKE STW,RG24 8LL,468000.0,155200.0,Thames,Controlled Waters,Benzo(a)pyrene,1.0,0.0,Water Industry,Water Industry,,51.29188112525349,-1.0261909051605638,South East
017160005,,UNITED UTILITIES WATER PLC,BURNLEY,,382550.0,435270.0,Cumbria and Lancashire,Controlled Waters,"Indeno(1,2,3-cd)pyrene",1.0,0.0,Water Industry,Water Industry,,53.813417898368776,-2.2665013916025725,North West
017160005,,UNITED UTILITIES WATER PLC,BURNLEY,,382550.0,435270.0,Cumbria and Lancashire,Controlled Waters,Benzo(a)pyrene,1.0,0.0,Water Industry,Water Industry,,53.813417898368776,-2.2665013916025725,North West
043091,,Wessex Water,POOLE STW,BH17 7BX,400700.0,93580.0,Wessex,Controlled Waters,"Indeno(1,2,3-cd)pyrene",1.0,0.0,Water Industry,Water Industry,,50.74182787954079,-1.991444522226778,South West
043091,,Wessex Water,POOLE STW,BH17 7BX,400700.0,93580.0,Wessex,Controlled Waters,Benzo(a)pyrene,1.0,0.0,Water Industry,Water Industry,,50.74182787954079,-1.991444522226778,South West
CASM.0040,,THAMES WATER UTILITIES LTD,HOGSMILL A STW,KT1 3BW,519200.0,168500.0,"Kent, South London and East Sussex",Controlled Waters,Benzo(a)pyrene,1.0,0.0,Water Industry,Water Industry,,51.40301332636438,-0.2877532983545494,London
017270050,,UNITED UTILITIES WATER PLC,LANCASTER,,345680.0,458870.0,Cumbria and Lancashire,Controlled Waters,"Indeno(1,2,3-cd)pyrene",1.0,0.0,Water Industry,Water Industry,,54.02295513077801,-2.830617368693378,
017270050,,UNITED UTILITIES WATER PLC,LANCASTER,,345680.0,458870.0,Cumbria and Lancashire,Controlled Waters,Benzo(a)pyrene,1.0,0.0,Water Industry,Water Industry,,54.02295513077801,-2.830617368693378,
BW0983IT,"WASTE LANDFILLING; >10 T/D WITH CAPACITY >25,000T EXCLUDING INERT WASTE",VIRIDOR WASTE MANAGEMENT LTD,Parkwood Landfill PARKWOOD ROAD NEEPSEND,S3 8AG,434400.0,389400.0,Yorkshire,Wastewater,Benzo(a)pyrene,1.0,0.0,Landfill,Non Hazardous Landfill,,53.400310517563994,-1.4840916504253987,Yorkshire and The Humber
BW0983IT,"WASTE LANDFILLING; >10 T/D WITH CAPACITY >25,000T EXCLUDING INERT WASTE",VIRIDOR WASTE MANAGEMENT LTD,Parkwood Landfill PARKWOOD ROAD NEEPSEND,S3 8AG,434400.0,389400.0,Yorkshire,Wastewater,Fluoranthene,0.1,0.0,Landfill,Non Hazardous Landfill,,53.400310517563994,-1.4840916504253987,Yorkshire and The Humber
BW0983IT,"WASTE LANDFILLING; >10 T/D WITH CAPACITY >25,000T EXCLUDING INERT WASTE",VIRIDOR WASTE MANAGEMENT LTD,Parkwood Landfill PARKWOOD ROAD NEEPSEND,S3 8AG,434400.0,389400.0,Yorkshire,Wastewater,Heptachlor,0.1,0.0,Landfill,Non Hazardous Landfill,,53.400310517563994,-1.4840916504253987,Yorkshire and The Humber
BV4517IM,"WASTE LANDFILLING; >10 T/D WITH CAPACITY >25,000T EXCLUDING INERT WASTE",VIRIDOR WASTE MANAGEMENT LTD,Mason landfill Site Great Blakenham Suffolk,IP6 0NW,611400.0,250200.0,East Anglia,Wastewater,Heptachlor,0.1,0.0,Landfill,Non Hazardous Landfill,,52.10970231739082,1.0857752222668933,East of England
BV9900IS,"WASTE LANDFILLING; >10 T/D WITH CAPACITY >25,000T EXCLUDING INERT WASTE",VIRIDOR WASTE MANAGEMENT LTD,Horton Landfill Small Dole West Sussex,BN5 9XH,520970.0,112410.0,Solent and South Downs,Controlled Waters,Fluoranthene,0.1,0.0,Landfill,Non Hazardous Landfill,,50.89850707448507,-0.2811526837083508,South East
BV9900IS,"WASTE LANDFILLING; >10 T/D WITH CAPACITY >25,000T EXCLUDING INERT WASTE",VIRIDOR WASTE MANAGEMENT LTD,Horton Landfill Small Dole West Sussex,BN5 9XH,520970.0,112410.0,Solent and South Downs,Controlled Waters,Benzo(a)pyrene,1.0,0.0,Landfill,Non Hazardous Landfill,,50.89850707448507,-0.2811526837083508,South East
017160008,,UNITED UTILITIES WATER PLC,HYNDBURN,,375750.0,433550.0,Cumbria and Lancashire,Controlled Waters,Benzo(a)pyrene,1.0,0.0,Water Industry,Water Industry,,53.79768483713117,-2.3696373594073914,North West
2829(T),,Yorkshire Water Services Limited,SANDALL STW,DN2 4NU,460099.0,406100.0,Yorkshire,Controlled Waters,"Indeno(1,2,3-cd)pyrene",1.0,0.0,Water Industry,Water Industry,,53.548104541668216,-1.0944333425142265,Yorkshire and The Humber
BK6858ID,"WASTE LANDFILLING; >10 T/D WITH CAPACITY >25,000T EXCLUDING INERT WASTE",Viridor Waste Management Limited,Sands Farm Landfill SAND PIT ROAD WILTSHIRE,SN11 8TR,401500.0,170900.0,Wessex,Wastewater,Benzo(a)pyrene,1.0,0.0,Landfill,Non Hazardous Landfill,,51.43709554715196,-1.979810203963303,South West
BK6858ID,"WASTE LANDFILLING; >10 T/D WITH CAPACITY >25,000T EXCLUDING INERT WASTE",Viridor Waste Management Limited,Sands Farm Landfill SAND PIT ROAD WILTSHIRE,SN11 8TR,401500.0,170900.0,Wessex,Wastewater,Fluoranthene,0.1,0.0,Landfill,Non Hazardous Landfill,,51.43709554715196,-1.979810203963303,South West
T/24/35514/R,,SEVERN TRENT WATER LTD,Claymills Chp Plant Meadow Lane Clay Mills Nr Burton Staffordshire,DE13 0DB,426270.0,325780.0,West Midlands,Controlled Waters,"Indeno(1,2,3-cd)pyrene",1.0,0.0,Water Industry,Water Industry,,52.82890968304119,-1.6115476620963551,West Midlands
T/24/35514/R,,SEVERN TRENT WATER LTD,Claymills Chp Plant Meadow Lane Clay Mills Nr Burton Staffordshire,DE13 0DB,426270.0,325780.0,West Midlands,Controlled Waters,Benzo(a)pyrene,1.0,0.0,Water Industry,Water Industry,,52.82890968304119,-1.6115476620963551,West Midlands
016940151,,UNITED UTILITIES WATER PLC,STOCKPORT,,386520.0,389820.0,Greater Manchester Merseyside and Cheshire,Controlled Waters,"Indeno(1,2,3-cd)pyrene",1.0,0.0,Water Industry,Water Industry,,53.40502394305661,-2.2042249143718937,North West
016940151,,UNITED UTILITIES WATER PLC,STOCKPORT,,386520.0,389820.0,Greater Manchester Merseyside and Cheshire,Controlled Waters,Benzo(a)pyrene,1.0,0.0,Water Industry,Water Industry,,53.40502394305661,-2.2042249143718937,North West
016940150,,UNITED UTILITIES WATER PLC,SALFORD,,379240.0,397980.0,Greater Manchester Merseyside and Cheshire,Controlled Waters,Benzo(a)pyrene,1.0,0.0,Water Industry,Water Industry,,53.47813124514825,-2.3142669891618586,North West
CNTW.0890,,Anglian Water,BASILDON,,573700.0,187400.0,East Anglia,Controlled Waters,"Indeno(1,2,3-cd)pyrene",1.0,0.0,Water Industry,Water Industry,,51.55873510304531,0.5043570910085773,
CNTW.0890,,Anglian Water,BASILDON,,573700.0,187400.0,East Anglia,Controlled Waters,Benzo(a)pyrene,1.0,0.0,Water Industry,Water Industry,,51.55873510304531,0.5043570910085773,
CNTD.0044,,THAMES WATER UTILITIES LTD,ESHER STW,KT10 8AU,513500.0,166000.0,"Kent, South London and East Sussex",Controlled Waters,"Indeno(1,2,3-cd)pyrene",1.0,0.0,Water Industry,Water Industry,,51.38171143148741,-0.37045925744865815,South East
CNTD.0044,,THAMES WATER UTILITIES LTD,ESHER STW,KT10 8AU,513500.0,166000.0,"Kent, South London and East Sussex",Controlled Waters,Benzo(a)pyrene,1.0,0.0,Water Industry,Water Industry,,51.38171143148741,-0.37045925744865815,South East
CNTD.0044,,THAMES WATER UTILITIES LTD,ESHER STW,KT10 8AU,513500.0,166000.0,"Kent, South London and East Sussex",Controlled Waters,Fluoranthene,0.1,0.0,Water Industry,Water Industry,,51.38171143148741,-0.37045925744865815,South East
BW2943IG,"WASTE LANDFILLING; >10 T/D WITH CAPACITY >25,000T EXCLUDING INERT WASTE",Viridor Waste Management Limited,Foxhall Landfill Site Foxhall Road Brightwell Suffolk,IP10 0HT,623900.0,243900.0,East Anglia,Wastewater,Benzo(a)pyrene,1.0,0.0,Landfill,Non Hazardous Landfill,,52.04823924474519,1.263876510497733,East of England
BW2943IG,"WASTE LANDFILLING; >10 T/D WITH CAPACITY >25,000T EXCLUDING INERT WASTE",Viridor Waste Management Limited,Foxhall Landfill Site Foxhall Road Brightwell Suffolk,IP10 0HT,623900.0,243900.0,East Anglia,Wastewater,Fluoranthene,0.1,0.0,Landfill,Non Hazardous Landfill,,52.04823924474519,1.263876510497733,East of England
BW2943IG,"WASTE LANDFILLING; >10 T/D WITH CAPACITY >25,000T EXCLUDING INERT WASTE",Viridor Waste Management Limited,Foxhall Landfill Site Foxhall Road Brightwell Suffolk,IP10 0HT,623900.0,243900.0,East Anglia,Wastewater,Heptachlor,0.1,0.0,Landfill,Non Hazardous Landfill,,52.04823924474519,1.263876510497733,East of England
A74/S/87,,Southern Water,Portobello STW (Brighton),BN10 7BD,539300.0,101460.0,Solent and South Downs,Controlled Waters,Benzo(a)pyrene,1.0,0.0,Water Industry,Water Industry,,50.79597145410508,-0.02481221964020708,South East
CTCR.1340,,THAMES WATER UTILITIES LTD,CRAWLEY STW,RH10 3NW,528800.0,140200.0,"Kent, South London and East Sussex",Controlled Waters,"Indeno(1,2,3-cd)pyrene",1.0,0.0,Water Industry,Water Industry,,51.14658044206405,-0.16000559745613768,South East
CTCR.1340,,THAMES WATER UTILITIES LTD,CRAWLEY STW,RH10 3NW,528800.0,140200.0,"Kent, South London and East Sussex",Controlled Waters,Benzo(a)pyrene,1.0,0.0,Water Industry,Water Industry,,51.14658044206405,-0.16000559745613768,South East
DP3938YY,Animal vegetable and food treating etc vegetable,Kingsley Beverage Limited,Kingsley Beverage Peterborough 2 Waterworth Road Cambridgeshire,PE73AG,514540.0,294220.0,Lincolnshire and Northamptonshire,Wastewater,Benzo(a)pyrene,1.0,0.0,Food & Drink,Food & Drink,,52.53381049119248,-0.3128084442206731,East of England
S/20/25430/R,,SEVERN TRENT WATER LTD,Cheltenham STW,GL51 0TH,389930.0,224860.0,West Midlands,Controlled Waters,"Indeno(1,2,3-cd)pyrene",1.0,0.0,Water Industry,Water Industry,,51.92216852088476,-2.147834358765615,South West
S/20/25430/R,,SEVERN TRENT WATER LTD,Cheltenham STW,GL51 0TH,389930.0,224860.0,West Midlands,Controlled Waters,Benzo(a)pyrene,1.0,0.0,Water Industry,Water Industry,,51.92216852088476,-2.147834358765615,South West
DP3336SQ,"PAPER, PULP AND BOARD; PRODUCING PAPER/BOARD >20T/D",Vernacare Limited,Bolton Paper Mill FOLDS ROAD Greater Manchester,BL1 2TX,372300.0,409800.0,Greater Manchester Merseyside and Cheshire,Wastewater,Cypermethrin,0.005,0.0,Paper and textiles,Paper & Pulp,1.3e-05,53.584049858318885,-2.4198821752427864,North West
016920130,,UNITED UTILITIES WATER PLC,ST HELENS,,353820.0,395900.0,Greater Manchester Merseyside and Cheshire,Controlled Waters,"Indeno(1,2,3-cd)pyrene",1.0,0.0,Water Industry,Water Industry,,53.457815001619835,-2.6969509558081435,North West
016920130,,UNITED UTILITIES WATER PLC,ST HELENS,,353820.0,395900.0,Greater Manchester Merseyside and Cheshire,Controlled Waters,Benzo(a)pyrene,1.0,0.0,Water Industry,Water Industry,,53.457815001619835,-2.6969509558081435,North West
T/81/45102/R,,SEVERN TRENT WATER LTD,Scunthorpe STW Yaddlethorpe,DN17 3PS,487292.0,405965.0,East Midlands,Controlled Waters,Fluoranthene,0.1,0.0,Water Industry,Water Industry,,53.54308142261132,-0.6841639168426618,Yorkshire and The Humber
T/81/45102/R,,SEVERN TRENT WATER LTD,Scunthorpe STW Yaddlethorpe,DN17 3PS,487292.0,405965.0,East Midlands,Controlled Waters,"Indeno(1,2,3-cd)pyrene",1.0,0.0,Water Industry,Water Industry,,53.54308142261132,-0.6841639168426618,Yorkshire and The Humber
T/81/45102/R,,SEVERN TRENT WATER LTD,Scunthorpe STW Yaddlethorpe,DN17 3PS,487292.0,405965.0,East Midlands,Controlled Waters,Benzo(a)pyrene,1.0,0.0,Water Industry,Water Industry,,53.54308142261132,-0.6841639168426618,Yorkshire and The Humber
BS7722ID,"WASTE LANDFILLING; >10 T/D WITH CAPACITY >25,000T EXCLUDING INERT WASTE",3C Waste Limited,Maw Green Landfill Site Maw Green Road Coppenhall Cheshire,CW1 5NG,371700.0,357500.0,Greater Manchester Merseyside and Cheshire,Wastewater,Fluoranthene,0.1,0.0,Landfill,Non Hazardous Landfill,,53.11392517003427,-2.424249100452073,North West
BS7722ID,"WASTE LANDFILLING; >10 T/D WITH CAPACITY >25,000T EXCLUDING INERT WASTE",3C Waste Limited,Maw Green Landfill Site Maw Green Road Coppenhall Cheshire,CW1 5NG,371700.0,357500.0,Greater Manchester Merseyside and Cheshire,Wastewater,Heptachlor,0.1,0.0,Landfill,Non Hazardous Landfill,,53.11392517003427,-2.424249100452073,North West
BS7722ID,"WASTE LANDFILLING; >10 T/D WITH CAPACITY >25,000T EXCLUDING INERT WASTE",3C Waste Limited,Maw Green Landfill Site Maw Green Road Coppenhall Cheshire,CW1 5NG,371700.0,357500.0,Greater Manchester Merseyside and Cheshire,Wastewater,"Indeno(1,2,3-cd)pyrene",1.0,0.0,Landfill,Non Hazardous Landfill,,53.11392517003427,-2.424249100452073,North West
BS7722ID,"WASTE LANDFILLING; >10 T/D WITH CAPACITY >25,000T EXCLUDING INERT WASTE",3C Waste Limited,Maw Green Landfill Site Maw Green Road Coppenhall Cheshire,CW1 5NG,371700.0,357500.0,Greater Manchester Merseyside and Cheshire,Wastewater,Benzo(a)pyrene,1.0,0.0,Landfill,Non Hazardous Landfill,,53.11392517003427,-2.424249100452073,North West
BS7722ID,"WASTE LANDFILLING; >10 T/D WITH CAPACITY >25,000T EXCLUDING INERT WASTE",3C Waste Limited,Maw Green Landfill Site Maw Green Road Coppenhall Cheshire,CW1 5NG,371700.0,357500.0,Greater Manchester Merseyside and Cheshire,Wastewater,Cypermethrin,0.005,0.0,Landfill,Non Hazardous Landfill,1.3e-05,53.11392517003427,-2.424249100452073,North West
200976,,SOUTH WEST WATER LTD,Brokenbury STW (TORBAY),TQ5 0LL,289750.0,56310.0,"Devon, Cornwall and the Isles of Scilly",Controlled Waters,"Indeno(1,2,3-cd)pyrene",1.0,0.0,Water Industry,Water Industry,,50.39629958802472,-3.5524947785411247,South West
200976,,SOUTH WEST WATER LTD,Brokenbury STW (TORBAY),TQ5 0LL,289750.0,56310.0,"Devon, Cornwall and the Isles of Scilly",Controlled Waters,Benzo(a)pyrene,1.0,0.0,Water Industry,Water Industry,,50.39629958802472,-3.5524947785411247,South West
FB3301CV,"WASTE LANDFILLING; >10 T/D WITH CAPACITY >25,000T EXCLUDING INERT WASTE",Opes MRF 2013 Limited,Finmere Quarry Landfill Finmere Quarry Banbury Road Finmere Buckinghamshire,MK18 4AJ,462620.0,232620.0,East Anglia,Wastewater,Benzo(a)pyrene,1.0,0.0,Landfill,Inert Landfill,,51.98851287542119,-1.0895051035297312,South East
FB3301CV,"WASTE LANDFILLING; >10 T/D WITH CAPACITY >25,000T EXCLUDING INERT WASTE",Opes MRF 2013 Limited,Finmere Quarry Landfill Finmere Quarry Banbury Road Finmere Buckinghamshire,MK18 4AJ,462620.0,232620.0,East Anglia,Wastewater,Fluoranthene,0.1,0.0,Landfill,Inert Landfill,,51.98851287542119,-1.0895051035297312,South East
FB3301CV,"WASTE LANDFILLING; >10 T/D WITH CAPACITY >25,000T EXCLUDING INERT WASTE",Opes MRF 2013 Limited,Finmere Quarry Landfill Finmere Quarry Banbury Road Finmere Buckinghamshire,MK18 4AJ,462620.0,232620.0,East Anglia,Wastewater,Heptachlor,0.1,0.0,Landfill,Inert Landfill,,51.98851287542119,-1.0895051035297312,South East
001229,,SOUTH WEST WATER LTD,EXETER STW (Countess Wear),EX2 7AA,294800.0,89000.0,"Devon, Cornwall and the Isles of Scilly",Controlled Waters,"Indeno(1,2,3-cd)pyrene",1.0,0.0,Water Industry,Water Industry,,50.69110641761321,-3.4907104289958726,South West
001229,,SOUTH WEST WATER LTD,EXETER STW (Countess Wear),EX2 7AA,294800.0,89000.0,"Devon, Cornwall and the Isles of Scilly",Controlled Waters,Benzo(a)pyrene,1.0,0.0,Water Industry,Water Industry,,50.69110641761321,-3.4907104289958726,South West
CP3531RE,"WASTE LANDFILLING; >10 T/D WITH CAPACITY >25,000T EXCLUDING INERT WASTE",Commercial Recycling (Southern) Limited,Southwood Landfill Site Evercreech Somerset,BA4 6LX,363920.0,137020.0,Wessex,Controlled Waters,Benzo(a)pyrene,1.0,0.0,Landfill,Hazardous Landfill,,51.13131130304021,-2.517004785220547,South West
300454,,SOUTH WEST WATER LTD,Plymouth Central STW,PL4 OPX,249800.0,53930.0,"Devon, Cornwall and the Isles of Scilly",Controlled Waters,"Indeno(1,2,3-cd)pyrene",1.0,0.0,Water Industry,Water Industry,,50.36605365411117,-4.1132599121048035,South West
300454,,SOUTH WEST WATER LTD,Plymouth Central STW,PL4 OPX,249800.0,53930.0,"Devon, Cornwall and the Isles of Scilly",Controlled Waters,Benzo(a)pyrene,1.0,0.0,Water Industry,Water Industry,,50.36605365411117,-4.1132599121048035,South West
RP26/73,,Southern Water,Aylesford STW,ME20 7DA,572100.0,159500.0,"Kent, South London and East Sussex",Controlled Waters,Fluoranthene,0.1,0.0,Water Industry,Water Industry,,51.308594581861044,0.4677519059627789,South East
RP26/73,,Southern Water,Aylesford STW,ME20 7DA,572100.0,159500.0,"Kent, South London and East Sussex",Controlled Waters,"Indeno(1,2,3-cd)pyrene",1.0,0.0,Water Industry,Water Industry,,51.308594581861044,0.4677519059627789,South East
RP26/73,,Southern Water,Aylesford STW,ME20 7DA,572100.0,159500.0,"Kent, South London and East Sussex",Controlled Waters,Benzo(a)pyrene,1.0,0.0,Water Industry,Water Industry,,51.308594581861044,0.4677519059627789,South East
A805/K/98,,Southern Water,Ashford STW,TN25 9QB,602020.0,143250.0,"Kent, South London and East Sussex",Controlled Waters,Fluoranthene,0.1,0.0,Water Industry,Water Industry,,51.15283805587308,0.8873201093750889,South East
A805/K/98,,Southern Water,Ashford STW,TN25 9QB,602020.0,143250.0,"Kent, South London and East Sussex",Controlled Waters,"Indeno(1,2,3-cd)pyrene",1.0,0.0,Water Industry,Water Industry,,51.15283805587308,0.8873201093750889,South East
A805/K/98,,Southern Water,Ashford STW,TN25 9QB,602020.0,143250.0,"Kent, South London and East Sussex",Controlled Waters,Benzo(a)pyrene,1.0,0.0,Water Industry,Water Industry,,51.15283805587308,0.8873201093750889,South East
CNTD.0024,,THAMES WATER UTILITIES LTD,CAMBERLEY STW,GU15 3DE,485800.0,159500.0,Thames,Controlled Waters,"Indeno(1,2,3-cd)pyrene",1.0,0.0,Water Industry,Water Industry,,51.32813662985067,-0.7699431370528544,South East
CNTD.0024,,THAMES WATER UTILITIES LTD,CAMBERLEY STW,GU15 3DE,485800.0,159500.0,Thames,Controlled Waters,Benzo(a)pyrene,1.0,0.0,Water Industry,Water Industry,,51.32813662985067,-0.7699431370528544,South East
BV4509IG,"WASTE LANDFILLING; >10 T/D WITH CAPACITY >25,000T EXCLUDING INERT WASTE",Viridor Waste Management Limited,Wangford Landfill Site Suffolk,NR34 8AR,646880.0,277670.0,East Anglia,Wastewater,Heptachlor,0.1,0.0,Landfill,Non Hazardous Landfill,,52.34149329739891,1.6229042934817617,East of England
S/20/21356/R,,SEVERN TRENT WATER LTD,Netheridge Sewerage Treatment Plant Hempsted Lane Hempsted GLoucester,GL2 5LF,381110.0,215700.0,West Midlands,Controlled Waters,"Indeno(1,2,3-cd)pyrene",1.0,0.0,Water Industry,Water Industry,,51.839581834363415,-2.275579360127801,South West
S/20/21356/R,,SEVERN TRENT WATER LTD,Netheridge Sewerage Treatment Plant Hempsted Lane Hempsted GLoucester,GL2 5LF,381110.0,215700.0,West Midlands,Controlled Waters,Benzo(a)pyrene,1.0,0.0,Water Industry,Water Industry,,51.839581834363415,-2.275579360127801,South West
CASM.0340,,Anglian Water,SOUTHEND ON SEA STW,,581900.0,190600.0,East Anglia,Controlled Waters,"Indeno(1,2,3-cd)pyrene",1.0,0.0,Water Industry,Water Industry,,51.584894773533854,0.6241731351924702,East of England
CASM.0340,,Anglian Water,SOUTHEND ON SEA STW,,581900.0,190600.0,East Anglia,Controlled Waters,Benzo(a)pyrene,1.0,0.0,Water Industry,Water Industry,,51.584894773533854,0.6241731351924702,East of England
BK1449IK,"WASTE LANDFILLING; >10 T/D WITH CAPACITY >25,000T EXCLUDING INERT WASTE",Tarmac Aggregates Limited,Cotesbach Landfill Gibbet Lane Shawell Lutterworth Leicestershire,LE17 6AA,454000.0,280600.0,West Midlands,Wastewater,Heptachlor,0.1,0.0,Landfill,Non Hazardous Landfill,,52.420733504827595,-1.2073850649724642,East Midlands
A857/S/P/98,,Southern Water,Bexhill & Hastings STW,TN32 8AY,577300.0,109200.0,Solent and South Downs,Controlled Waters,"Indeno(1,2,3-cd)pyrene",1.0,0.0,Water Industry,Water Industry,,50.85513773720249,0.5176207779836519,South East
A857/S/P/98,,Southern Water,Bexhill & Hastings STW,TN32 8AY,577300.0,109200.0,Solent and South Downs,Controlled Waters,Benzo(a)pyrene,1.0,0.0,Water Industry,Water Industry,,50.85513773720249,0.5176207779836519,South East
CSSC.0315,,THAMES WATER UTILITIES LTD,AYLESBURY STW,HP19 3RT,478900.0,214800.0,Thames,Controlled Waters,Fluoranthene,0.1,0.0,Water Industry,Water Industry,,51.826257725543016,-0.856547741555394,South East
CSSC.0315,,THAMES WATER UTILITIES LTD,AYLESBURY STW,HP19 3RT,478900.0,214800.0,Thames,Controlled Waters,"Indeno(1,2,3-cd)pyrene",1.0,0.0,Water Industry,Water Industry,,51.826257725543016,-0.856547741555394,South East
CSSC.0315,,THAMES WATER UTILITIES LTD,AYLESBURY STW,HP19 3RT,478900.0,214800.0,Thames,Controlled Waters,Benzo(a)pyrene,1.0,0.0,Water Industry,Water Industry,,51.826257725543016,-0.856547741555394,South East
EP3830LE,"WASTE LANDFILLING; >10 T/D WITH CAPACITY >25,000T EXCLUDING INERT WASTE",ALAB ENVIRONMENTAL SERVICES LIMITED,SEATON MEADOWS Tofts Farm Industrial Estate E Brenda Road,TS25 2BS,453560.0,527960.0,North East,Controlled Waters,"Indeno(1,2,3-cd)pyrene",1.0,0.0,Landfill,Non Hazardous Landfill,,54.64391679880124,-1.1715794836759792,North East
EP3830LE,"WASTE LANDFILLING; >10 T/D WITH CAPACITY >25,000T EXCLUDING INERT WASTE",ALAB ENVIRONMENTAL SERVICES LIMITED,SEATON MEADOWS Tofts Farm Industrial Estate E Brenda Road,TS25 2BS,453560.0,527960.0,North East,Wastewater,"Indeno(1,2,3-cd)pyrene",1.0,0.0,Landfill,Non Hazardous Landfill,,54.64391679880124,-1.1715794836759792,North East
EP3830LE,"WASTE LANDFILLING; >10 T/D WITH CAPACITY >25,000T EXCLUDING INERT WASTE",ALAB ENVIRONMENTAL SERVICES LIMITED,SEATON MEADOWS Tofts Farm Industrial Estate E Brenda Road,TS25 2BS,453560.0,527960.0,North East,Controlled Waters,Fluoranthene,0.1,0.0,Landfill,Non Hazardous Landfill,,54.64391679880124,-1.1715794836759792,North East
EP3830LE,"WASTE LANDFILLING; >10 T/D WITH CAPACITY >25,000T EXCLUDING INERT WASTE",ALAB ENVIRONMENTAL SERVICES LIMITED,SEATON MEADOWS Tofts Farm Industrial Estate E Brenda Road,TS25 2BS,453560.0,527960.0,North East,Controlled Waters,Heptachlor,0.1,0.0,Landfill,Non Hazardous Landfill,,54.64391679880124,-1.1715794836759792,North East
EP3830LE,"WASTE LANDFILLING; >10 T/D WITH CAPACITY >25,000T EXCLUDING INERT WASTE",ALAB ENVIRONMENTAL SERVICES LIMITED,SEATON MEADOWS Tofts Farm Industrial Estate E Brenda Road,TS25 2BS,453560.0,527960.0,North East,Controlled Waters,Benzo(a)pyrene,1.0,0.0,Landfill,Non Hazardous Landfill,,54.64391679880124,-1.1715794836759792,North East
EP3830LE,"WASTE LANDFILLING; >10 T/D WITH CAPACITY >25,000T EXCLUDING INERT WASTE",ALAB ENVIRONMENTAL SERVICES LIMITED,SEATON MEADOWS Tofts Farm Industrial Estate E Brenda Road,TS25 2BS,453560.0,527960.0,North East,Wastewater,Benzo(a)pyrene,1.0,0.0,Landfill,Non Hazardous Landfill,,54.64391679880124,-1.1715794836759792,North East
EP3830LE,"WASTE LANDFILLING; >10 T/D WITH CAPACITY >25,000T EXCLUDING INERT WASTE",ALAB ENVIRONMENTAL SERVICES LIMITED,SEATON MEADOWS Tofts Farm Industrial Estate E Brenda Road,TS25 2BS,453560.0,527960.0,North East,Wastewater,Cypermethrin,0.005,0.0,Landfill,Non Hazardous Landfill,1.3e-05,54.64391679880124,-1.1715794836759792,North East
EP3830LE,"WASTE LANDFILLING; >10 T/D WITH CAPACITY >25,000T EXCLUDING INERT WASTE",ALAB ENVIRONMENTAL SERVICES LIMITED,SEATON MEADOWS Tofts Farm Industrial Estate E Brenda Road,TS25 2BS,453560.0,527960.0,North East,Controlled Waters,Cypermethrin,0.005,0.0,Landfill,Non Hazardous Landfill,1.3e-05,54.64391679880124,-1.1715794836759792,North East
EP3830LE,"WASTE LANDFILLING; >10 T/D WITH CAPACITY >25,000T EXCLUDING INERT WASTE",ALAB ENVIRONMENTAL SERVICES LIMITED,SEATON MEADOWS Tofts Farm Industrial Estate E Brenda Road,TS25 2BS,453560.0,527960.0,North East,Wastewater,Fluoranthene,0.1,0.0,Landfill,Non Hazardous Landfill,,54.64391679880124,-1.1715794836759792,North East
EP3830LE,"WASTE LANDFILLING; >10 T/D WITH CAPACITY >25,000T EXCLUDING INERT WASTE",ALAB ENVIRONMENTAL SERVICES LIMITED,SEATON MEADOWS Tofts Farm Industrial Estate E Brenda Road,TS25 2BS,453560.0,527960.0,North East,Wastewater,Heptachlor,0.1,0.0,Landfill,Non Hazardous Landfill,,54.64391679880124,-1.1715794836759792,North East
GP3037SJ,"WASTE LANDFILLING; >10 T/D WITH CAPACITY >25,000T EXCLUDING INERT WASTE",Fcc Recycling (Uk) Limited,"Lillyhall Waste Management Centre Joseph Noble Road Lillyhall Industrial Estate,Lillyhall Workington Cumbria",CA14 4JH,,,Cumbria and Lancashire,Wastewater,Heptachlor,0.1,0.0,Landfill,Non Hazardous Landfill,,inf,inf,
CP3435PR,"WASTE LANDFILLING; >10 T/D WITH CAPACITY >25,000T EXCLUDING INERT WASTE",GRUNDON WASTE MANAGEMENT LIMITED,Star Works Landfill Knowl Hill Maidenhead Berkshire,RG10 9YB,482020.0,179530.0,Thames,Wastewater,Heptachlor,0.1,0.0,Landfill,Non Hazardous Landfill,,51.50875703367248,-0.8195543489804894,South East
NP3139LM,"GASIFICATION, LIQUIFAC. AND REFINING",Haltermann Carless UK Limited,"Harwich Refinery,Harwich Manufacturing Centre Refinery Road Essex",CO12 4PD,622680.0,232010.0,East Anglia,Controlled Waters,"Indeno(1,2,3-cd)pyrene",1.0,0.0,Refineries & Fuel,Refineries & Fuel,,51.942002119196026,1.2383985138115488,East of England
NP3139LM,"GASIFICATION, LIQUIFAC. AND REFINING",Haltermann Carless UK Limited,"Harwich Refinery,Harwich Manufacturing Centre Refinery Road Essex",CO12 4PD,622680.0,232010.0,East Anglia,Controlled Waters,Fluoranthene,0.1,0.0,Refineries & Fuel,Refineries & Fuel,,51.942002119196026,1.2383985138115488,East of England
NP3139LM,"GASIFICATION, LIQUIFAC. AND REFINING",Haltermann Carless UK Limited,"Harwich Refinery,Harwich Manufacturing Centre Refinery Road Essex",CO12 4PD,622680.0,232010.0,East Anglia,Controlled Waters,Benzo(a)pyrene,1.0,0.0,Refineries & Fuel,Refineries & Fuel,,51.942002119196026,1.2383985138115488,East of England
QP3539XL,"WASTE LANDFILLING; >10 T/D WITH CAPACITY >25,000T EXCLUDING INERT WASTE",Integrated Waste Management Ltd,"Winterton Landfill Site Winterton Effluent Treatment Plant Coleby Street,West Halton Winterton North Lincolnshire",DN15 9AP,491300.0,420300.0,Lincolnshire and Northamptonshire,Wastewater,"Indeno(1,2,3-cd)pyrene",1.0,0.0,Landfill,Non Hazardous Landfill,,53.671210069115666,-0.6195044459010624,Yorkshire and The Humber
QP3539XL,"WASTE LANDFILLING; >10 T/D WITH CAPACITY >25,000T EXCLUDING INERT WASTE",Integrated Waste Management Ltd,"Winterton Landfill Site Winterton Effluent Treatment Plant Coleby Street,West Halton Winterton North Lincolnshire",DN15 9AP,491300.0,420300.0,Lincolnshire and Northamptonshire,Wastewater,Benzo(a)pyrene,1.0,0.0,Landfill,Non Hazardous Landfill,,53.671210069115666,-0.6195044459010624,Yorkshire and The Humber
QP3539XL,"WASTE LANDFILLING; >10 T/D WITH CAPACITY >25,000T EXCLUDING INERT WASTE",Integrated Waste Management Ltd,"Winterton Landfill Site Winterton Effluent Treatment Plant Coleby Street,West Halton Winterton North Lincolnshire",DN15 9AP,491300.0,420300.0,Lincolnshire and Northamptonshire,Wastewater,Cypermethrin,0.005,0.0,Landfill,Non Hazardous Landfill,1.3e-05,53.671210069115666,-0.6195044459010624,Yorkshire and The Humber
QP3539XL,"WASTE LANDFILLING; >10 T/D WITH CAPACITY >25,000T EXCLUDING INERT WASTE",Integrated Waste Management Ltd,"Winterton Landfill Site Winterton Effluent Treatment Plant Coleby Street,West Halton Winterton North Lincolnshire",DN15 9AP,491300.0,420300.0,Lincolnshire and Northamptonshire,Wastewater,Fluoranthene,0.1,0.0,Landfill,Non Hazardous Landfill,,53.671210069115666,-0.6195044459010624,Yorkshire and The Humber
QP3539XL,"WASTE LANDFILLING; >10 T/D WITH CAPACITY >25,000T EXCLUDING INERT WASTE",Integrated Waste Management Ltd,"Winterton Landfill Site Winterton Effluent Treatment Plant Coleby Street,West Halton Winterton North Lincolnshire",DN15 9AP,491300.0,420300.0,Lincolnshire and Northamptonshire,Wastewater,Heptachlor,0.1,0.0,Landfill,Non Hazardous Landfill,,53.671210069115666,-0.6195044459010624,Yorkshire and The Humber
BX1942IX,"WASTE LANDFILLING; >10 T/D WITH CAPACITY >25,000T EXCLUDING INERT WASTE",Sandsfield Gravel Company Limited,Milegate Extension Landfill Site Catwick Lane Brandesburton East Yorkshire,YO25 8SB,513100.0,447200.0,Yorkshire,Wastewater,Fluoranthene,0.1,0.0,Landfill,Non Hazardous Landfill,,53.90862164525309,-0.2798137417648828,Yorkshire and The Humber
VP3130BK,"WASTE LANDFILLING; >10 T/D WITH CAPACITY >25,000T EXCLUDING INERT WASTE",ALAB ENVIRONMENTAL SERVICES LIMITED,NETTLETON BOTTOM QUARRY Rothwell Lincolnshire,LN7 6SR,512730.0,397880.0,Lincolnshire and Northamptonshire,Controlled Waters,"Indeno(1,2,3-cd)pyrene",1.0,0.0,Landfill,Non Hazardous Landfill,,53.465604474949615,-0.3033515364568991,East Midlands
VP3130BK,"WASTE LANDFILLING; >10 T/D WITH CAPACITY >25,000T EXCLUDING INERT WASTE",ALAB ENVIRONMENTAL SERVICES LIMITED,NETTLETON BOTTOM QUARRY Rothwell Lincolnshire,LN7 6SR,512730.0,397880.0,Lincolnshire and Northamptonshire,Controlled Waters,Fluoranthene,0.1,0.0,Landfill,Non Hazardous Landfill,,53.465604474949615,-0.3033515364568991,East Midlands
VP3130BK,"WASTE LANDFILLING; >10 T/D WITH CAPACITY >25,000T EXCLUDING INERT WASTE",ALAB ENVIRONMENTAL SERVICES LIMITED,NETTLETON BOTTOM QUARRY Rothwell Lincolnshire,LN7 6SR,512730.0,397880.0,Lincolnshire and Northamptonshire,Controlled Waters,Heptachlor,0.1,0.0,Landfill,Non Hazardous Landfill,,53.465604474949615,-0.3033515364568991,East Midlands
VP3130BK,"WASTE LANDFILLING; >10 T/D WITH CAPACITY >25,000T EXCLUDING INERT WASTE",ALAB ENVIRONMENTAL SERVICES LIMITED,NETTLETON BOTTOM QUARRY Rothwell Lincolnshire,LN7 6SR,512730.0,397880.0,Lincolnshire and Northamptonshire,Controlled Waters,Benzo(a)pyrene,1.0,0.0,Landfill,Non Hazardous Landfill,,53.465604474949615,-0.3033515364568991,East Midlands
VP3130BK,"WASTE LANDFILLING; >10 T/D WITH CAPACITY >25,000T EXCLUDING INERT WASTE",ALAB ENVIRONMENTAL SERVICES LIMITED,NETTLETON BOTTOM QUARRY Rothwell Lincolnshire,LN7 6SR,512730.0,397880.0,Lincolnshire and Northamptonshire,Controlled Waters,Cypermethrin,0.005,0.0,Landfill,Non Hazardous Landfill,1.3e-05,53.465604474949615,-0.3033515364568991,East Midlands
ZP3035PH,"WASTE LANDFILLING; >10 T/D WITH CAPACITY >25,000T EXCLUDING INERT WASTE",Viridor Waste Management Limited,Tatchells Landfill Site Seven Barrows Bere Road Coldharbour Dorset,BH20 7PA,390750.0,88810.0,Wessex,Wastewater,Benzo(a)pyrene,1.0,0.0,Landfill,Non Hazardous Landfill,,50.69885772227817,-2.1323372663101843,South West
ZP3035PH,"WASTE LANDFILLING; >10 T/D WITH CAPACITY >25,000T EXCLUDING INERT WASTE",Viridor Waste Management Limited,Tatchells Landfill Site Seven Barrows Bere Road Coldharbour Dorset,BH20 7PA,390750.0,88810.0,Wessex,Wastewater,Fluoranthene,0.1,0.0,Landfill,Non Hazardous Landfill,,50.69885772227817,-2.1323372663101843,South West
VP3230BH,"WASTE LANDFILLING; >10 T/D WITH CAPACITY >25,000T EXCLUDING INERT WASTE",Integrated Waste Management Ltd,Gallymoor Landfill Market Weighton Road Holme On Spalding Moor North Yorkshire,YO43 4ED,484000.0,439810.0,Yorkshire,Wastewater,"Indeno(1,2,3-cd)pyrene",1.0,0.0,Landfill,Non Hazardous Landfill,,53.84774523025444,-0.724670316228166,Yorkshire and The Humber
VP3230BH,"WASTE LANDFILLING; >10 T/D WITH CAPACITY >25,000T EXCLUDING INERT WASTE",Integrated Waste Management Ltd,Gallymoor Landfill Market Weighton Road Holme On Spalding Moor North Yorkshire,YO43 4ED,484000.0,439810.0,Yorkshire,Wastewater,Benzo(a)pyrene,1.0,0.0,Landfill,Non Hazardous Landfill,,53.84774523025444,-0.724670316228166,Yorkshire and The Humber
VP3230BH,"WASTE LANDFILLING; >10 T/D WITH CAPACITY >25,000T EXCLUDING INERT WASTE",Integrated Waste Management Ltd,Gallymoor Landfill Market Weighton Road Holme On Spalding Moor North Yorkshire,YO43 4ED,484000.0,439810.0,Yorkshire,Wastewater,Cypermethrin,0.005,0.0,Landfill,Non Hazardous Landfill,1.3e-05,53.84774523025444,-0.724670316228166,Yorkshire and The Humber
VP3230BH,"WASTE LANDFILLING; >10 T/D WITH CAPACITY >25,000T EXCLUDING INERT WASTE",Integrated Waste Management Ltd,Gallymoor Landfill Market Weighton Road Holme On Spalding Moor North Yorkshire,YO43 4ED,484000.0,439810.0,Yorkshire,Wastewater,Fluoranthene,0.1,0.0,Landfill,Non Hazardous Landfill,,53.84774523025444,-0.724670316228166,Yorkshire and The Humber
VP3230BH,"WASTE LANDFILLING; >10 T/D WITH CAPACITY >25,000T EXCLUDING INERT WASTE",Integrated Waste Management Ltd,Gallymoor Landfill Market Weighton Road Holme On Spalding Moor North Yorkshire,YO43 4ED,484000.0,439810.0,Yorkshire,Wastewater,Heptachlor,0.1,0.0,Landfill,Non Hazardous Landfill,,53.84774523025444,-0.724670316228166,Yorkshire and The Humber
JP3030DD,TAR AND BITUMEN; DISTILLING >5 T/A  IN CONNECTION WITH MANUFACTURE,Industrial Chemicals Limited,Port Clarence Works Huntsman Bridge Port Clarence Middlesbrough Cleveland,TS2 1SD,451200.0,521300.0,North East,Controlled Waters,"Indeno(1,2,3-cd)pyrene",1.0,0.0,Chemicals,Chemicals,,54.584315376904016,-1.209305506178323,North East
JP3030DD,TAR AND BITUMEN; DISTILLING >5 T/A  IN CONNECTION WITH MANUFACTURE,Industrial Chemicals Limited,Port Clarence Works Huntsman Bridge Port Clarence Middlesbrough Cleveland,TS2 1SD,451200.0,521300.0,North East,Controlled Waters,Benzo(a)pyrene,1.0,0.0,Chemicals,Chemicals,,54.584315376904016,-1.209305506178323,North East
UP3139BB,"WASTE LANDFILLING; >10 T/D WITH CAPACITY >25,000T EXCLUDING INERT WASTE",Viridor Waste (Somerset) Limited,Dimmer Landfill Site Dimmer Lane Dimmer Somerset,BA7 7NR,361260.0,131380.0,Wessex,Wastewater,Benzo(a)pyrene,1.0,0.0,Landfill,Non Hazardous Landfill,,51.08042409010584,-2.5544101956013585,South West
UP3139BB,"WASTE LANDFILLING; >10 T/D WITH CAPACITY >25,000T EXCLUDING INERT WASTE",Viridor Waste (Somerset) Limited,Dimmer Landfill Site Dimmer Lane Dimmer Somerset,BA7 7NR,361260.0,131380.0,Wessex,Wastewater,Fluoranthene,0.1,0.0,Landfill,Non Hazardous Landfill,,51.08042409010584,-2.5544101956013585,South West
BK6785IE,"WASTE LANDFILLING; >10 T/D WITH CAPACITY >25,000T EXCLUDING INERT WASTE",Viridor Waste (Somerset) Limited,Walpole Recovery Facility and Landfill Site,TA6 4TF,330890.0,142640.0,Wessex,Wastewater,Benzo(a)pyrene,1.0,0.0,Landfill,Non Hazardous Landfill,,51.178798793009555,-2.9900663196603774,South West
BK6785IE,"WASTE LANDFILLING; >10 T/D WITH CAPACITY >25,000T EXCLUDING INERT WASTE",Viridor Waste (Somerset) Limited,Walpole Recovery Facility and Landfill Site,TA6 4TF,330890.0,142640.0,Wessex,Wastewater,Fluoranthene,0.1,0.0,Landfill,Non Hazardous Landfill,,51.178798793009555,-2.9900663196603774,South West
RP3530BC,"WASTE LANDFILLING; >10 T/D WITH CAPACITY >25,000T EXCLUDING INERT WASTE",Viridor Waste Management Limited,Broadpath Landfill Uffculme Devon,EX15 3EP,306640.0,113360.0,"Devon, Cornwall and the Isles of Scilly",Wastewater,Benzo(a)pyrene,1.0,0.0,Landfill,Non Hazardous Landfill,,50.91212914730297,-3.329340505932471,South West
RP3530BC,"WASTE LANDFILLING; >10 T/D WITH CAPACITY >25,000T EXCLUDING INERT WASTE",Viridor Waste Management Limited,Broadpath Landfill Uffculme Devon,EX15 3EP,306640.0,113360.0,"Devon, Cornwall and the Isles of Scilly",Wastewater,Fluoranthene,0.1,0.0,Landfill,Non Hazardous Landfill,,50.91212914730297,-3.329340505932471,South West
RP3530BC,"WASTE LANDFILLING; >10 T/D WITH CAPACITY >25,000T EXCLUDING INERT WASTE",Viridor Waste Management Limited,Broadpath Landfill Uffculme Devon,EX15 3EP,306640.0,113360.0,"Devon, Cornwall and the Isles of Scilly",Wastewater,Heptachlor,0.1,0.0,Landfill,Non Hazardous Landfill,,50.91212914730297,-3.329340505932471,South West
A.787/S/CH/97,,Southern Water,Ford (Bognor/Littlehampton) STW,BN18 0HY,499490.0,103030.0,Solent and South Downs,Controlled Waters,"Indeno(1,2,3-cd)pyrene",1.0,0.0,Water Industry,Water Industry,,50.81827977333457,-0.5890396595351772,South East
A.787/S/CH/97,,Southern Water,Ford (Bognor/Littlehampton) STW,BN18 0HY,499490.0,103030.0,Solent and South Downs,Controlled Waters,Benzo(a)pyrene,1.0,0.0,Water Industry,Water Industry,,50.81827977333457,-0.5890396595351772,South East
S/06/55146/R,,SEVERN TRENT WATER LTD,Kidderminster STW Oldington,DY11 7QL,382560.0,273750.0,West Midlands,Controlled Waters,Fluoranthene,0.1,0.0,Water Industry,Water Industry,,52.36152489215104,-2.2575251882964498,West Midlands
S/06/55146/R,,SEVERN TRENT WATER LTD,Kidderminster STW Oldington,DY11 7QL,382560.0,273750.0,West Midlands,Controlled Waters,"Indeno(1,2,3-cd)pyrene",1.0,0.0,Water Industry,Water Industry,,52.36152489215104,-2.2575251882964498,West Midlands
S/06/55146/R,,SEVERN TRENT WATER LTD,Kidderminster STW Oldington,DY11 7QL,382560.0,273750.0,West Midlands,Controlled Waters,Benzo(a)pyrene,1.0,0.0,Water Industry,Water Industry,,52.36152489215104,-2.2575251882964498,West Midlands
016810068,,UNITED UTILITIES WATER PLC,CREWE,,366690.0,357370.0,Greater Manchester Merseyside and Cheshire,Controlled Waters,Fluoranthene,0.1,0.0,Water Industry,Water Industry,,53.11246624481476,-2.4990809771256637,North West
016810068,,UNITED UTILITIES WATER PLC,CREWE,,366690.0,357370.0,Greater Manchester Merseyside and Cheshire,Controlled Waters,"Indeno(1,2,3-cd)pyrene",1.0,0.0,Water Industry,Water Industry,,53.11246624481476,-2.4990809771256637,North West
016810068,,UNITED UTILITIES WATER PLC,CREWE,,366690.0,357370.0,Greater Manchester Merseyside and Cheshire,Controlled Waters,Benzo(a)pyrene,1.0,0.0,Water Industry,Water Industry,,53.11246624481476,-2.4990809771256637,North West
RP3531VH,"RECOVERY OR A MIX OF RECOVERY AND DISPOSAL OF > 50 T/D NON-HAZARDOUS WASTE (> 100 T/D IF ONLY AD) INVOLVING TREATMENT IN SHREDDERS OF METAL WASTE, INCLUDING WEEE AND ELV AND THEIR COMPONENTS",Donald Ward Limited,Griffon Road (Fragmentiser Plant) Quarry Hill Industrial Estate Ilkeston Derbyshire,DE7 4RF,359900.0,391120.0,East Midlands,Wastewater,Benzo(a)pyrene,1.0,0.0,Metals Recycling,Metals Recycling,,53.41535156025331,-2.6047799136267207,North West
RP3531VH,"RECOVERY OR A MIX OF RECOVERY AND DISPOSAL OF > 50 T/D NON-HAZARDOUS WASTE (> 100 T/D IF ONLY AD) INVOLVING TREATMENT IN SHREDDERS OF METAL WASTE, INCLUDING WEEE AND ELV AND THEIR COMPONENTS",Donald Ward Limited,Griffon Road (Fragmentiser Plant) Quarry Hill Industrial Estate Ilkeston Derbyshire,DE7 4RF,359900.0,391120.0,East Midlands,Wastewater,Fluoranthene,0.1,0.0,Metals Recycling,Metals Recycling,,53.41535156025331,-2.6047799136267207,North West
A1106/S/P/99,,Southern Water,Langley Point STW - Eastbourne,BN21 1SA,564120.0,100950.0,Solent and South Downs,Controlled Waters,"Indeno(1,2,3-cd)pyrene",1.0,0.0,Water Industry,Water Industry,,50.78489824292885,0.3268494282698041,South East
A1106/S/P/99,,Southern Water,Langley Point STW - Eastbourne,BN21 1SA,564120.0,100950.0,Solent and South Downs,Controlled Waters,Benzo(a)pyrene,1.0,0.0,Water Industry,Water Industry,,50.78489824292885,0.3268494282698041,South East
C4954,,Yorkshire Water Services Limited,ALDWARKE STW,S65 1SU,444543.0,394449.0,Yorkshire,Controlled Waters,"Indeno(1,2,3-cd)pyrene",1.0,0.0,Water Industry,Water Industry,,53.444934341698875,-1.330839947091116,Yorkshire and The Humber
WRA6924,,Yorkshire Water Services Limited,Knostrop Sewage Treatment Works Knowsthorpe Lane West Yorkshire,LS9 0PJ,432560.0,431600.0,Yorkshire,Controlled Waters,"Indeno(1,2,3-cd)pyrene",1.0,0.0,Water Industry,Water Industry,,53.77971787215793,-1.5073746720616248,Yorkshire and The Humber
VP3039SW,"WASTE LANDFILLING; >10 T/D WITH CAPACITY >25,000T EXCLUDING INERT WASTE",Viridor Waste Management Limited,Beddington Farmlands Landfill Site 105 Beddington Lane,CR0 4TD,529310.0,167260.0,"Kent, South London and East Sussex",Wastewater,Benzo(a)pyrene,1.0,0.0,Landfill,Non Hazardous Landfill,,51.38965704308762,-0.14294075402498602,London
VP3039SW,"WASTE LANDFILLING; >10 T/D WITH CAPACITY >25,000T EXCLUDING INERT WASTE",Viridor Waste Management Limited,Beddington Farmlands Landfill Site 105 Beddington Lane,CR0 4TD,529310.0,167260.0,"Kent, South London and East Sussex",Wastewater,Fluoranthene,0.1,0.0,Landfill,Non Hazardous Landfill,,51.38965704308762,-0.14294075402498602,London
BV3740ID,"WASTE LANDFILLING; >10 T/D WITH CAPACITY >25,000T EXCLUDING INERT WASTE",FCC Waste Services (UK) Limited,Dogsthorpe Landfill Site Welland Road Dogsthorpe,PE1 3TD,520410.0,302090.0,Lincolnshire and Northamptonshire,Wastewater,Heptachlor,0.1,0.0,Landfill,Non Hazardous Landfill,,52.60326183321726,-0.22345749300538534,East of England
BV3740ID,"WASTE LANDFILLING; >10 T/D WITH CAPACITY >25,000T EXCLUDING INERT WASTE",FCC Waste Services (UK) Limited,Dogsthorpe Landfill Site Welland Road Dogsthorpe,PE1 3TD,520410.0,302090.0,Lincolnshire and Northamptonshire,Controlled Waters,Heptachlor,0.1,0.0,Landfill,Non Hazardous Landfill,,52.60326183321726,-0.22345749300538534,East of England
CNTD.0084,,THAMES WATER UTILITIES LTD,LUTON STW,LU1 5TS,512300.0,217800.0,Hertfordshire and North London,Controlled Waters,Fluoranthene,0.1,0.0,Water Industry,Water Industry,,51.84751209537345,-0.37111353457588714,East of England
CNTD.0084,,THAMES WATER UTILITIES LTD,LUTON STW,LU1 5TS,512300.0,217800.0,Hertfordshire and North London,Controlled Waters,"Indeno(1,2,3-cd)pyrene",1.0,0.0,Water Industry,Water Industry,,51.84751209537345,-0.37111353457588714,East of England
CNTD.0084,,THAMES WATER UTILITIES LTD,LUTON STW,LU1 5TS,512300.0,217800.0,Hertfordshire and North London,Controlled Waters,Benzo(a)pyrene,1.0,0.0,Water Industry,Water Industry,,51.84751209537345,-0.37111353457588714,East of England
S/10/25304/R,,SEVERN TRENT WATER LTD,Rugby STW,CV21 1HF,449420.0,276350.0,West Midlands,Controlled Waters,Fluoranthene,0.1,0.0,Water Industry,Water Industry,,52.38296080740317,-1.2753513894561017,West Midlands
S/10/25304/R,,SEVERN TRENT WATER LTD,Rugby STW,CV21 1HF,449420.0,276350.0,West Midlands,Controlled Waters,"Indeno(1,2,3-cd)pyrene",1.0,0.0,Water Industry,Water Industry,,52.38296080740317,-1.2753513894561017,West Midlands
S/10/25304/R,,SEVERN TRENT WATER LTD,Rugby STW,CV21 1HF,449420.0,276350.0,West Midlands,Controlled Waters,Benzo(a)pyrene,1.0,0.0,Water Industry,Water Industry,,52.38296080740317,-1.2753513894561017,West Midlands
WP3330BZ,"WASTE LANDFILLING; >10 T/D WITH CAPACITY >25,000T EXCLUDING INERT WASTE",Welbeck Waste Management Ltd,Welbeck Landfill Site Boundary Lane Normanton West Yorkshire,WF6 2JA,436140.0,422090.0,Yorkshire,Wastewater,"Indeno(1,2,3-cd)pyrene",1.0,0.0,Landfill,Non Hazardous Landfill,,53.6940100523621,-1.4541579087815606,Yorkshire and The Humber
WP3330BZ,"WASTE LANDFILLING; >10 T/D WITH CAPACITY >25,000T EXCLUDING INERT WASTE",Welbeck Waste Management Ltd,Welbeck Landfill Site Boundary Lane Normanton West Yorkshire,WF6 2JA,436140.0,422090.0,Yorkshire,Wastewater,Benzo(a)pyrene,1.0,0.0,Landfill,Non Hazardous Landfill,,53.6940100523621,-1.4541579087815606,Yorkshire and The Humber
WP3330BZ,"WASTE LANDFILLING; >10 T/D WITH CAPACITY >25,000T EXCLUDING INERT WASTE",Welbeck Waste Management Ltd,Welbeck Landfill Site Boundary Lane Normanton West Yorkshire,WF6 2JA,436140.0,422090.0,Yorkshire,Wastewater,Cypermethrin,0.005,0.0,Landfill,Non Hazardous Landfill,1.3e-05,53.6940100523621,-1.4541579087815606,Yorkshire and The Humber
WP3330BZ,"WASTE LANDFILLING; >10 T/D WITH CAPACITY >25,000T EXCLUDING INERT WASTE",Welbeck Waste Management Ltd,Welbeck Landfill Site Boundary Lane Normanton West Yorkshire,WF6 2JA,436140.0,422090.0,Yorkshire,Wastewater,Fluoranthene,0.1,0.0,Landfill,Non Hazardous Landfill,,53.6940100523621,-1.4541579087815606,Yorkshire and The Humber
WP3330BZ,"WASTE LANDFILLING; >10 T/D WITH CAPACITY >25,000T EXCLUDING INERT WASTE",Welbeck Waste Management Ltd,Welbeck Landfill Site Boundary Lane Normanton West Yorkshire,WF6 2JA,436140.0,422090.0,Yorkshire,Wastewater,Heptachlor,0.1,0.0,Landfill,Non Hazardous Landfill,,53.6940100523621,-1.4541579087815606,Yorkshire and The Humber
S/06/55232/R,,SEVERN TRENT WATER LTD,Roundhill Sewage Treatment Wor Gibbett Lane Kinver West Midlands,DY7 6PX,303870.0,202830.0,West Midlands,Controlled Waters,Benzo(a)pyrene,1.0,0.0,Water Industry,Water Industry,,51.71593199808987,-3.392880616414023,
CP3935PU,"WASTE LANDFILLING; >10 T/D WITH CAPACITY >25,000T EXCLUDING INERT WASTE",Viridor Waste Management Limited,Squabb Wood Landfill Site Salisbury Road Shootash Hampshire,SO51 6GA,432770.0,121520.0,Solent and South Downs,Wastewater,Fluoranthene,0.1,0.0,Landfill,Non Hazardous Landfill,,50.99215054098218,-1.5344538881121979,South East
CP3935PU,"WASTE LANDFILLING; >10 T/D WITH CAPACITY >25,000T EXCLUDING INERT WASTE",Viridor Waste Management Limited,Squabb Wood Landfill Site Salisbury Road Shootash Hampshire,SO51 6GA,432770.0,121520.0,Solent and South Downs,Wastewater,Benzo(a)pyrene,1.0,0.0,Landfill,Non Hazardous Landfill,,50.99215054098218,-1.5344538881121979,South East
KP3836LT,DISPOSAL OF > 50 T/D NON-HAZARDOUS WASTE (> 100 T/D IF ONLY AD) INVOLVING PHYSICO-CHEMICAL TREATMENT,Yorkshire Water Services Limited,South Elmsall Wwtw Chapel Lane Pontefract West Yorkshire,WF9 2SW,448170.0,410750.0,Yorkshire,Controlled Waters,"Indeno(1,2,3-cd)pyrene",1.0,0.0,Biowaste Treatment,Biowaste Treatment,,53.59112396394105,-1.2737371825727972,Yorkshire and The Humber
ZP3433AQ,"WASTE LANDFILLING; >10 T/D WITH CAPACITY >25,000T EXCLUDING INERT WASTE",Whitehead Restoration Ltd,Whitehead Landfill Lower Green Lane Astley Lancashire,M29 7JZ,370860.0,399350.0,Greater Manchester Merseyside and Cheshire,Wastewater,Heptachlor,0.1,0.0,Landfill,Non Hazardous Landfill,,53.49004604337933,-2.4406558451957316,North West
FP3599LH,DISPOSAL OR RECOVERY OF HAZ WASTE WITH CAPACITY EXCEEDING 10 TONNES PER DAY INVOLVING BLENDING OR MIXING PRIOR TO SUBMISSION TO ANY OF THE OTHER ACTIVITIES LISTED IN THIS SECTION OR IN SECTION 5.1,BKP Waste & Recycling Limited,BKP Hazardous Waste Transfer and Treatment Station Unit 8 Casbrook Park Bunny Lane Timsbury Hampshire,SO51 0PG,436000.0,124880.0,Solent and South Downs,Wastewater,Fluoranthene,0.1,0.0,Hazardous Waste,Hazardous Waste,,51.022170874295036,-1.4881011795767993,South East
FP3599LH,DISPOSAL OR RECOVERY OF HAZ WASTE WITH CAPACITY EXCEEDING 10 TONNES PER DAY INVOLVING BLENDING OR MIXING PRIOR TO SUBMISSION TO ANY OF THE OTHER ACTIVITIES LISTED IN THIS SECTION OR IN SECTION 5.1,BKP Waste & Recycling Limited,BKP Hazardous Waste Transfer and Treatment Station Unit 8 Casbrook Park Bunny Lane Timsbury Hampshire,SO51 0PG,436000.0,124880.0,Solent and South Downs,Wastewater,Heptachlor,0.1,0.0,Hazardous Waste,Hazardous Waste,,51.022170874295036,-1.4881011795767993,South East
FP3599LH,DISPOSAL OR RECOVERY OF HAZ WASTE WITH CAPACITY EXCEEDING 10 TONNES PER DAY INVOLVING BLENDING OR MIXING PRIOR TO SUBMISSION TO ANY OF THE OTHER ACTIVITIES LISTED IN THIS SECTION OR IN SECTION 5.1,BKP Waste & Recycling Limited,BKP Hazardous Waste Transfer and Treatment Station Unit 8 Casbrook Park Bunny Lane Timsbury Hampshire,SO51 0PG,436000.0,124880.0,Solent and South Downs,Wastewater,"Indeno(1,2,3-cd)pyrene",1.0,0.0,Hazardous Waste,Hazardous Waste,,51.022170874295036,-1.4881011795767993,South East
FP3599LH,DISPOSAL OR RECOVERY OF HAZ WASTE WITH CAPACITY EXCEEDING 10 TONNES PER DAY INVOLVING BLENDING OR MIXING PRIOR TO SUBMISSION TO ANY OF THE OTHER ACTIVITIES LISTED IN THIS SECTION OR IN SECTION 5.1,BKP Waste & Recycling Limited,BKP Hazardous Waste Transfer and Treatment Station Unit 8 Casbrook Park Bunny Lane Timsbury Hampshire,SO51 0PG,436000.0,124880.0,Solent and South Downs,Wastewater,Benzo(a)pyrene,1.0,0.0,Hazardous Waste,Hazardous Waste,,51.022170874295036,-1.4881011795767993,South East
FP3599LH,DISPOSAL OR RECOVERY OF HAZ WASTE WITH CAPACITY EXCEEDING 10 TONNES PER DAY INVOLVING BLENDING OR MIXING PRIOR TO SUBMISSION TO ANY OF THE OTHER ACTIVITIES LISTED IN THIS SECTION OR IN SECTION 5.1,BKP Waste & Recycling Limited,BKP Hazardous Waste Transfer and Treatment Station Unit 8 Casbrook Park Bunny Lane Timsbury Hampshire,SO51 0PG,436000.0,124880.0,Solent and South Downs,Wastewater,Cypermethrin,0.005,0.0,Hazardous Waste,Hazardous Waste,1.3e-05,51.022170874295036,-1.4881011795767993,South East
JP3338ST,"WASTE LANDFILLING; >10 T/D WITH CAPACITY >25,000T EXCLUDING INERT WASTE",Woods Waste Limited,Westby Landfill Site Annas Road Lancashire,FY4 5JY,335810.0,431170.0,Cumbria and Lancashire,Controlled Waters,"Indeno(1,2,3-cd)pyrene",1.0,0.0,Landfill,Non Hazardous Landfill,,53.77289393648737,-2.9754312375126735,North West
JP3338ST,"WASTE LANDFILLING; >10 T/D WITH CAPACITY >25,000T EXCLUDING INERT WASTE",Woods Waste Limited,Westby Landfill Site Annas Road Lancashire,FY4 5JY,335810.0,431170.0,Cumbria and Lancashire,Wastewater,"Indeno(1,2,3-cd)pyrene",1.0,0.0,Landfill,Non Hazardous Landfill,,53.77289393648737,-2.9754312375126735,North West
JP3338ST,"WASTE LANDFILLING; >10 T/D WITH CAPACITY >25,000T EXCLUDING INERT WASTE",Woods Waste Limited,Westby Landfill Site Annas Road Lancashire,FY4 5JY,335810.0,431170.0,Cumbria and Lancashire,Controlled Waters,Fluoranthene,0.1,0.0,Landfill,Non Hazardous Landfill,,53.77289393648737,-2.9754312375126735,North West
JP3338ST,"WASTE LANDFILLING; >10 T/D WITH CAPACITY >25,000T EXCLUDING INERT WASTE",Woods Waste Limited,Westby Landfill Site Annas Road Lancashire,FY4 5JY,335810.0,431170.0,Cumbria and Lancashire,Controlled Waters,Heptachlor,0.1,0.0,Landfill,Non Hazardous Landfill,,53.77289393648737,-2.9754312375126735,North West
JP3338ST,"WASTE LANDFILLING; >10 T/D WITH CAPACITY >25,000T EXCLUDING INERT WASTE",Woods Waste Limited,Westby Landfill Site Annas Road Lancashire,FY4 5JY,335810.0,431170.0,Cumbria and Lancashire,Controlled Waters,Benzo(a)pyrene,1.0,0.0,Landfill,Non Hazardous Landfill,,53.77289393648737,-2.9754312375126735,North West
JP3338ST,"WASTE LANDFILLING; >10 T/D WITH CAPACITY >25,000T EXCLUDING INERT WASTE",Woods Waste Limited,Westby Landfill Site Annas Road Lancashire,FY4 5JY,335810.0,431170.0,Cumbria and Lancashire,Wastewater,Benzo(a)pyrene,1.0,0.0,Landfill,Non Hazardous Landfill,,53.77289393648737,-2.9754312375126735,North West
JP3338ST,"WASTE LANDFILLING; >10 T/D WITH CAPACITY >25,000T EXCLUDING INERT WASTE",Woods Waste Limited,Westby Landfill Site Annas Road Lancashire,FY4 5JY,335810.0,431170.0,Cumbria and Lancashire,Wastewater,Cypermethrin,0.005,0.0,Landfill,Non Hazardous Landfill,1.3e-05,53.77289393648737,-2.9754312375126735,North West
JP3338ST,"WASTE LANDFILLING; >10 T/D WITH CAPACITY >25,000T EXCLUDING INERT WASTE",Woods Waste Limited,Westby Landfill Site Annas Road Lancashire,FY4 5JY,335810.0,431170.0,Cumbria and Lancashire,Controlled Waters,Cypermethrin,0.005,0.0,Landfill,Non Hazardous Landfill,1.3e-05,53.77289393648737,-2.9754312375126735,North West
JP3338ST,"WASTE LANDFILLING; >10 T/D WITH CAPACITY >25,000T EXCLUDING INERT WASTE",Woods Waste Limited,Westby Landfill Site Annas Road Lancashire,FY4 5JY,335810.0,431170.0,Cumbria and Lancashire,Wastewater,Fluoranthene,0.1,0.0,Landfill,Non Hazardous Landfill,,53.77289393648737,-2.9754312375126735,North West
JP3338ST,"WASTE LANDFILLING; >10 T/D WITH CAPACITY >25,000T EXCLUDING INERT WASTE",Woods Waste Limited,Westby Landfill Site Annas Road Lancashire,FY4 5JY,335810.0,431170.0,Cumbria and Lancashire,Wastewater,Heptachlor,0.1,0.0,Landfill,Non Hazardous Landfill,,53.77289393648737,-2.9754312375126735,North West
ZP3009BB,"PAPER, PULP AND BOARD; PRODUCING PAPER/BOARD >20T/D",Northwood Tissue (Chesterfield) Ltd,Chesterfield Paper Mill Goyt Side Road Derbyshire,S40 2PH,436850.0,370600.0,Yorkshire,Wastewater,Cypermethrin,0.005,0.0,Paper and textiles,Paper & Pulp,1.3e-05,53.23116628377147,-1.4494234747766208,East Midlands
WRA7619,,Yorkshire Water Services Limited,Hull WwTW Combustion Plant Hull Road Saltend Hull North Humberside,HU12 8EY,516310.0,428970.0,Yorkshire,Controlled Waters,"Indeno(1,2,3-cd)pyrene",1.0,0.0,Water Industry,Water Industry,,53.74414016922253,-0.2378615656809145,Yorkshire and The Humber
AP3634FT,Animal vegetable and food treating etc vegetable,Princes Limited,Food Factory Lynn Road Wisbech Lynn Road Wisbech Cambridgeshire,PE13 3DG,546900.0,310500.0,Lincolnshire and Northamptonshire,Wastewater,Cypermethrin,0.005,0.0,Food & Drink,Food & Drink,1.3e-05,52.67230217933072,0.1711552406707043,East of England
AP3634FT,Animal vegetable and food treating etc vegetable,Princes Limited,Food Factory Lynn Road Wisbech Lynn Road Wisbech Cambridgeshire,PE13 3DG,546900.0,310500.0,Lincolnshire and Northamptonshire,Wastewater,Heptachlor,0.1,0.0,Food & Drink,Food & Drink,,52.67230217933072,0.1711552406707043,East of England
CTCR.2079,,THAMES WATER UTILITIES LTD,WARGRAVE STW,RG10 8DJ,477900.0,177600.0,Thames,Controlled Waters,Fluoranthene,0.1,0.0,Water Industry,Water Industry,,51.49198901553675,-0.8793330420546939,South East
CTCR.2079,,THAMES WATER UTILITIES LTD,WARGRAVE STW,RG10 8DJ,477900.0,177600.0,Thames,Controlled Waters,"Indeno(1,2,3-cd)pyrene",1.0,0.0,Water Industry,Water Industry,,51.49198901553675,-0.8793330420546939,South East
CTCR.2079,,THAMES WATER UTILITIES LTD,WARGRAVE STW,RG10 8DJ,477900.0,177600.0,Thames,Controlled Waters,Benzo(a)pyrene,1.0,0.0,Water Industry,Water Industry,,51.49198901553675,-0.8793330420546939,South East
255/1144,,NORTHUMBRIAN WATER LTD,HENDON STW,SR1 2ES,441049.0,555891.0,North East,Controlled Waters,Benzo(a)pyrene,1.0,0.0,Water Industry,Water Industry,,54.89607337586726,-1.361489978558213,North East
BN2832IK,Animal vegetable and food treating etc vegetable,Britvic Soft Drinks Plc,Beckton Soft Drinks Factory 9 Roding Road London Industrial Estate London,E6 6LF,,,Hertfordshire and North London,Wastewater,"Indeno(1,2,3-cd)pyrene",1.0,0.0,Food & Drink,Food & Drink,,inf,inf,
BN2832IK,Animal vegetable and food treating etc vegetable,Britvic Soft Drinks Plc,Beckton Soft Drinks Factory 9 Roding Road London Industrial Estate London,E6 6LF,,,Hertfordshire and North London,Wastewater,Benzo(a)pyrene,1.0,0.0,Food & Drink,Food & Drink,,inf,inf,
BN2832IK,Animal vegetable and food treating etc vegetable,Britvic Soft Drinks Plc,Beckton Soft Drinks Factory 9 Roding Road London Industrial Estate London,E6 6LF,,,Hertfordshire and North London,Wastewater,Cypermethrin,0.005,0.0,Food & Drink,Food & Drink,1.3e-05,inf,inf,
BN2832IK,Animal vegetable and food treating etc vegetable,Britvic Soft Drinks Plc,Beckton Soft Drinks Factory 9 Roding Road London Industrial Estate London,E6 6LF,,,Hertfordshire and North London,Wastewater,Fluoranthene,0.1,0.0,Food & Drink,Food & Drink,,inf,inf,
BN2832IK,Animal vegetable and food treating etc vegetable,Britvic Soft Drinks Plc,Beckton Soft Drinks Factory 9 Roding Road London Industrial Estate London,E6 6LF,,,Hertfordshire and North London,Wastewater,Heptachlor,0.1,0.0,Food & Drink,Food & Drink,,inf,inf,
A1107/S/CH/99,,Southern Water,East Worthing STW,BN11 2SA,516930.0,103610.0,Solent and South Downs,Controlled Waters,"Indeno(1,2,3-cd)pyrene",1.0,0.0,Water Industry,Water Industry,,50.82023809902321,-0.3413847912627039,South East
A1107/S/CH/99,,Southern Water,East Worthing STW,BN11 2SA,516930.0,103610.0,Solent and South Downs,Controlled Waters,Benzo(a)pyrene,1.0,0.0,Water Industry,Water Industry,,50.82023809902321,-0.3413847912627039,South East
A726/IOW/97,,Southern Water,Sandown STW (Ventnor/Bembridge),PO36 8DE,460270.0,85220.0,Solent and South Downs,Controlled Waters,"Indeno(1,2,3-cd)pyrene",1.0,0.0,Water Industry,Water Industry,,50.663541553013175,-1.1486148651904486,South East
A726/IOW/97,,Southern Water,Sandown STW (Ventnor/Bembridge),PO36 8DE,460270.0,85220.0,Solent and South Downs,Controlled Waters,Benzo(a)pyrene,1.0,0.0,Water Industry,Water Industry,,50.663541553013175,-1.1486148651904486,South East
A569/H/90,,Southern Water,Peel Common STW,PO14 2LJ,456500.0,103300.0,Solent and South Downs,Controlled Waters,Benzo(a)pyrene,1.0,0.0,Water Industry,Water Industry,,50.82648980553852,-1.1991825375250997,South East
25/04/1797,,NORTHUMBRIAN WATER LTD,Stressholme STW,UNKNOWN,428900.0,510400.0,North East,Controlled Waters,Fluoranthene,0.1,0.0,Water Industry,Water Industry,,54.48812311522736,-1.555398971427035,North East
25/04/1797,,NORTHUMBRIAN WATER LTD,Stressholme STW,UNKNOWN,428900.0,510400.0,North East,Controlled Waters,"Indeno(1,2,3-cd)pyrene",1.0,0.0,Water Industry,Water Industry,,54.48812311522736,-1.555398971427035,North East
25/04/1797,,NORTHUMBRIAN WATER LTD,Stressholme STW,UNKNOWN,428900.0,510400.0,North East,Controlled Waters,Benzo(a)pyrene,1.0,0.0,Water Industry,Water Industry,,54.48812311522736,-1.555398971427035,North East
254/1966,,NORTHUMBRIAN WATER LTD,SEATON CAREW STW,,451929.0,527633.0,North East,Controlled Waters,Fluoranthene,0.1,0.0,Water Industry,Water Industry,,54.64114858402242,-1.1969077077554877,North East
254/1966,,NORTHUMBRIAN WATER LTD,SEATON CAREW STW,,451929.0,527633.0,North East,Controlled Waters,"Indeno(1,2,3-cd)pyrene",1.0,0.0,Water Industry,Water Industry,,54.64114858402242,-1.1969077077554877,North East
254/1966,,NORTHUMBRIAN WATER LTD,SEATON CAREW STW,,451929.0,527633.0,North East,Controlled Waters,Benzo(a)pyrene,1.0,0.0,Water Industry,Water Industry,,54.64114858402242,-1.1969077077554877,North East
A720/K/97,,Southern Water,Motney Hill STW,ME8 7UA,582950.0,168380.0,"Kent, South London and East Sussex",Controlled Waters,"Indeno(1,2,3-cd)pyrene",1.0,0.0,Water Industry,Water Industry,,51.38497550557988,0.6278084434090928,South East
A720/K/97,,Southern Water,Motney Hill STW,ME8 7UA,582950.0,168380.0,"Kent, South London and East Sussex",Controlled Waters,Benzo(a)pyrene,1.0,0.0,Water Industry,Water Industry,,51.38497550557988,0.6278084434090928,South East
COPA/5586,,Southern Water,Millbrook STW,SO15 0HH,438850.0,112600.0,Solent and South Downs,Controlled Waters,"Indeno(1,2,3-cd)pyrene",1.0,0.0,Water Industry,Water Industry,,50.91156573195226,-1.4487767063232817,South East
COPA/5586,,Southern Water,Millbrook STW,SO15 0HH,438850.0,112600.0,Solent and South Downs,Controlled Waters,Benzo(a)pyrene,1.0,0.0,Water Industry,Water Industry,,50.91156573195226,-1.4487767063232817,South East
BJ7379IZ,"PAPER, PULP AND BOARD; PRODUCING PAPER/BOARD >20T/D",Kimberly-Clark Limited,Northfleet Paper Mill Crete Hall Road Kent,DA11 9AD,562990.0,174390.0,"Kent, South London and East Sussex",Controlled Waters,"Indeno(1,2,3-cd)pyrene",1.0,0.0,Paper and textiles,Paper & Pulp,,51.4450483500955,0.34399505266785924,South East
BJ7379IZ,"PAPER, PULP AND BOARD; PRODUCING PAPER/BOARD >20T/D",Kimberly-Clark Limited,Northfleet Paper Mill Crete Hall Road Kent,DA11 9AD,562990.0,174390.0,"Kent, South London and East Sussex",Controlled Waters,Fluoranthene,0.1,0.0,Paper and textiles,Paper & Pulp,,51.4450483500955,0.34399505266785924,South East
BJ7379IZ,"PAPER, PULP AND BOARD; PRODUCING PAPER/BOARD >20T/D",Kimberly-Clark Limited,Northfleet Paper Mill Crete Hall Road Kent,DA11 9AD,562990.0,174390.0,"Kent, South London and East Sussex",Controlled Waters,Benzo(a)pyrene,1.0,0.0,Paper and textiles,Paper & Pulp,,51.4450483500955,0.34399505266785924,South East
BJ7379IZ,"PAPER, PULP AND BOARD; PRODUCING PAPER/BOARD >20T/D",Kimberly-Clark Limited,Northfleet Paper Mill Crete Hall Road Kent,DA11 9AD,562990.0,174390.0,"Kent, South London and East Sussex",Controlled Waters,Cypermethrin,0.005,0.0,Paper and textiles,Paper & Pulp,1.3e-05,51.4450483500955,0.34399505266785924,South East
BW2188IU,"WASTE LANDFILLING; >10 T/D WITH CAPACITY >25,000T EXCLUDING INERT WASTE",Waste Recycling Group (Yorkshire) Limited,Allerton Park Landfill Site Allerton Park North Yorkshire,HG5 0SD,441200.0,459730.0,Yorkshire,Wastewater,"Indeno(1,2,3-cd)pyrene",1.0,0.0,Landfill,Non Hazardous Landfill,,54.031919383199835,-1.372492213325303,Yorkshire and The Humber
BW2188IU,"WASTE LANDFILLING; >10 T/D WITH CAPACITY >25,000T EXCLUDING INERT WASTE",Waste Recycling Group (Yorkshire) Limited,Allerton Park Landfill Site Allerton Park North Yorkshire,HG5 0SD,441200.0,459730.0,Yorkshire,Wastewater,Benzo(a)pyrene,1.0,0.0,Landfill,Non Hazardous Landfill,,54.031919383199835,-1.372492213325303,Yorkshire and The Humber
BW2188IU,"WASTE LANDFILLING; >10 T/D WITH CAPACITY >25,000T EXCLUDING INERT WASTE",Waste Recycling Group (Yorkshire) Limited,Allerton Park Landfill Site Allerton Park North Yorkshire,HG5 0SD,441200.0,459730.0,Yorkshire,Wastewater,Cypermethrin,0.005,0.0,Landfill,Non Hazardous Landfill,1.3e-05,54.031919383199835,-1.372492213325303,Yorkshire and The Humber
BW2188IU,"WASTE LANDFILLING; >10 T/D WITH CAPACITY >25,000T EXCLUDING INERT WASTE",Waste Recycling Group (Yorkshire) Limited,Allerton Park Landfill Site Allerton Park North Yorkshire,HG5 0SD,441200.0,459730.0,Yorkshire,Wastewater,Fluoranthene,0.1,0.0,Landfill,Non Hazardous Landfill,,54.031919383199835,-1.372492213325303,Yorkshire and The Humber
BW2188IU,"WASTE LANDFILLING; >10 T/D WITH CAPACITY >25,000T EXCLUDING INERT WASTE",Waste Recycling Group (Yorkshire) Limited,Allerton Park Landfill Site Allerton Park North Yorkshire,HG5 0SD,441200.0,459730.0,Yorkshire,Wastewater,Heptachlor,0.1,0.0,Landfill,Non Hazardous Landfill,,54.031919383199835,-1.372492213325303,Yorkshire and The Humber
BS3590IE,ORGANIC CHEMICALS; HYDROCARBONS EG AROMATICS,Sabic UK Petrochemicals Limited,"Wilton Olefins Installation,Wilton Site PO Box 99",TS10 4YA,458200.0,521200.0,North East,Controlled Waters,Fluoranthene,0.1,0.0,Chemicals,Chemicals,,54.582661121205405,-1.101029346484906,North East
XP3434HX,"WASTE LANDFILLING; >10 T/D WITH CAPACITY >25,000T EXCLUDING INERT WASTE",Valencia Waste Management Limited,Shelford Landfill Site Shelford Farm Estate Shalloak Road,CT2 0PU,615970.0,160420.0,"Kent, South London and East Sussex",Wastewater,Heptachlor,0.1,0.0,Landfill,Non Hazardous Landfill,,51.30191390971993,1.0968295802142987,South East
XP3705MV,Disposal of non-hazardous waste in a facility with a capacity of more than 50 tonnes per day by physico -chemical treatment.,Syracuse Waste Ltd,Maple Lodge WWTW Denham Way,WD3 9SQ,503860.0,192210.0,Hertfordshire and North London,Wastewater,"Indeno(1,2,3-cd)pyrene",1.0,0.0,Biowaste Treatment,Biowaste Treatment,,51.619141149126015,-0.5012195727141537,East of England
XP3705MV,Disposal of non-hazardous waste in a facility with a capacity of more than 50 tonnes per day by physico -chemical treatment.,Syracuse Waste Ltd,Maple Lodge WWTW Denham Way,WD3 9SQ,503860.0,192210.0,Hertfordshire and North London,Wastewater,Fluoranthene,0.1,0.0,Biowaste Treatment,Biowaste Treatment,,51.619141149126015,-0.5012195727141537,East of England
BM6026IB,"WASTE LANDFILLING; >10 T/D WITH CAPACITY >25,000T EXCLUDING INERT WASTE",Cumbria Waste Management Ltd,Hespin Wood Landfill Site Todhills Cumbria,CA6 4BJ,336330.0,562980.0,Cumbria and Lancashire,Wastewater,"Indeno(1,2,3-cd)pyrene",1.0,0.0,Landfill,Non Hazardous Landfill,,54.957373891377046,-2.9957978502762095,North West
BM6026IB,"WASTE LANDFILLING; >10 T/D WITH CAPACITY >25,000T EXCLUDING INERT WASTE",Cumbria Waste Management Ltd,Hespin Wood Landfill Site Todhills Cumbria,CA6 4BJ,336330.0,562980.0,Cumbria and Lancashire,Wastewater,Benzo(a)pyrene,1.0,0.0,Landfill,Non Hazardous Landfill,,54.957373891377046,-2.9957978502762095,North West
BM6026IB,"WASTE LANDFILLING; >10 T/D WITH CAPACITY >25,000T EXCLUDING INERT WASTE",Cumbria Waste Management Ltd,Hespin Wood Landfill Site Todhills Cumbria,CA6 4BJ,336330.0,562980.0,Cumbria and Lancashire,Wastewater,Fluoranthene,0.1,0.0,Landfill,Non Hazardous Landfill,,54.957373891377046,-2.9957978502762095,North West
PP3630BC,"WASTE LANDFILLING; >10 T/D WITH CAPACITY >25,000T EXCLUDING INERT WASTE",Lincwaste Ltd,Kenwick Landfill London Road Lincolnshire,LN11 9QP,533110.0,386420.0,Lincolnshire and Northamptonshire,Wastewater,"Indeno(1,2,3-cd)pyrene",1.0,0.0,Landfill,Non Hazardous Landfill,,53.357907629023444,-0.0013787286064221725,East Midlands
PP3630BC,"WASTE LANDFILLING; >10 T/D WITH CAPACITY >25,000T EXCLUDING INERT WASTE",Lincwaste Ltd,Kenwick Landfill London Road Lincolnshire,LN11 9QP,533110.0,386420.0,Lincolnshire and Northamptonshire,Wastewater,Benzo(a)pyrene,1.0,0.0,Landfill,Non Hazardous Landfill,,53.357907629023444,-0.0013787286064221725,East Midlands
PP3630BC,"WASTE LANDFILLING; >10 T/D WITH CAPACITY >25,000T EXCLUDING INERT WASTE",Lincwaste Ltd,Kenwick Landfill London Road Lincolnshire,LN11 9QP,533110.0,386420.0,Lincolnshire and Northamptonshire,Wastewater,Cypermethrin,0.005,0.0,Landfill,Non Hazardous Landfill,1.3e-05,53.357907629023444,-0.0013787286064221725,East Midlands
PP3630BC,"WASTE LANDFILLING; >10 T/D WITH CAPACITY >25,000T EXCLUDING INERT WASTE",Lincwaste Ltd,Kenwick Landfill London Road Lincolnshire,LN11 9QP,533110.0,386420.0,Lincolnshire and Northamptonshire,Wastewater,Fluoranthene,0.1,0.0,Landfill,Non Hazardous Landfill,,53.357907629023444,-0.0013787286064221725,East Midlands
PP3630BC,"WASTE LANDFILLING; >10 T/D WITH CAPACITY >25,000T EXCLUDING INERT WASTE",Lincwaste Ltd,Kenwick Landfill London Road Lincolnshire,LN11 9QP,533110.0,386420.0,Lincolnshire and Northamptonshire,Wastewater,Heptachlor,0.1,0.0,Landfill,Non Hazardous Landfill,,53.357907629023444,-0.0013787286064221725,East Midlands
PP3830BV,"WASTE LANDFILLING; >10 T/D WITH CAPACITY >25,000T EXCLUDING INERT WASTE",Integrated Waste Management Ltd,Immingham Landfill Site Queens Road North East Lincolnshire,DN40 1QR,520070.0,414100.0,Lincolnshire and Northamptonshire,Wastewater,"Indeno(1,2,3-cd)pyrene",1.0,0.0,Landfill,Non Hazardous Landfill,,53.60970232501848,-0.18662679722864642,Yorkshire and The Humber
PP3830BV,"WASTE LANDFILLING; >10 T/D WITH CAPACITY >25,000T EXCLUDING INERT WASTE",Integrated Waste Management Ltd,Immingham Landfill Site Queens Road North East Lincolnshire,DN40 1QR,520070.0,414100.0,Lincolnshire and Northamptonshire,Wastewater,Benzo(a)pyrene,1.0,0.0,Landfill,Non Hazardous Landfill,,53.60970232501848,-0.18662679722864642,Yorkshire and The Humber
PP3830BV,"WASTE LANDFILLING; >10 T/D WITH CAPACITY >25,000T EXCLUDING INERT WASTE",Integrated Waste Management Ltd,Immingham Landfill Site Queens Road North East Lincolnshire,DN40 1QR,520070.0,414100.0,Lincolnshire and Northamptonshire,Wastewater,Cypermethrin,0.005,0.0,Landfill,Non Hazardous Landfill,1.3e-05,53.60970232501848,-0.18662679722864642,Yorkshire and The Humber
PP3830BV,"WASTE LANDFILLING; >10 T/D WITH CAPACITY >25,000T EXCLUDING INERT WASTE",Integrated Waste Management Ltd,Immingham Landfill Site Queens Road North East Lincolnshire,DN40 1QR,520070.0,414100.0,Lincolnshire and Northamptonshire,Wastewater,Fluoranthene,0.1,0.0,Landfill,Non Hazardous Landfill,,53.60970232501848,-0.18662679722864642,Yorkshire and The Humber
PP3830BV,"WASTE LANDFILLING; >10 T/D WITH CAPACITY >25,000T EXCLUDING INERT WASTE",Integrated Waste Management Ltd,Immingham Landfill Site Queens Road North East Lincolnshire,DN40 1QR,520070.0,414100.0,Lincolnshire and Northamptonshire,Wastewater,Heptachlor,0.1,0.0,Landfill,Non Hazardous Landfill,,53.60970232501848,-0.18662679722864642,Yorkshire and The Humber
RP3630ZN,OTHER WASTE DISPOSAL; HAZARDOUS WASTE >10T/D,Mytum and Selby Waste Recycling Limited,Mill Cross Quarry Materials Recycling And Elv Facility Garden Lane Sherburn In Elmet West Yorkshire,LS25 6AT,448960.0,433000.0,Yorkshire,Wastewater,"Indeno(1,2,3-cd)pyrene",1.0,0.0,Hazardous Waste,Hazardous Waste,,53.79101987156163,-1.2582980560553538,Yorkshire and The Humber
RP3630ZN,OTHER WASTE DISPOSAL; HAZARDOUS WASTE >10T/D,Mytum and Selby Waste Recycling Limited,Mill Cross Quarry Materials Recycling And Elv Facility Garden Lane Sherburn In Elmet West Yorkshire,LS25 6AT,448960.0,433000.0,Yorkshire,Wastewater,Benzo(a)pyrene,1.0,0.0,Hazardous Waste,Hazardous Waste,,53.79101987156163,-1.2582980560553538,Yorkshire and The Humber
RP3630ZN,OTHER WASTE DISPOSAL; HAZARDOUS WASTE >10T/D,Mytum and Selby Waste Recycling Limited,Mill Cross Quarry Materials Recycling And Elv Facility Garden Lane Sherburn In Elmet West Yorkshire,LS25 6AT,448960.0,433000.0,Yorkshire,Wastewater,Cypermethrin,0.005,0.0,Hazardous Waste,Hazardous Waste,1.3e-05,53.79101987156163,-1.2582980560553538,Yorkshire and The Humber
RP3630ZN,OTHER WASTE DISPOSAL; HAZARDOUS WASTE >10T/D,Mytum and Selby Waste Recycling Limited,Mill Cross Quarry Materials Recycling And Elv Facility Garden Lane Sherburn In Elmet West Yorkshire,LS25 6AT,448960.0,433000.0,Yorkshire,Wastewater,Fluoranthene,0.1,0.0,Hazardous Waste,Hazardous Waste,,53.79101987156163,-1.2582980560553538,Yorkshire and The Humber
RP3630ZN,OTHER WASTE DISPOSAL; HAZARDOUS WASTE >10T/D,Mytum and Selby Waste Recycling Limited,Mill Cross Quarry Materials Recycling And Elv Facility Garden Lane Sherburn In Elmet West Yorkshire,LS25 6AT,448960.0,433000.0,Yorkshire,Wastewater,Heptachlor,0.1,0.0,Hazardous Waste,Hazardous Waste,,53.79101987156163,-1.2582980560553538,Yorkshire and The Humber
JP3547JL,DISPOSAL OR RECOVERY OF HAZARDOUS WASTE WITH A CAPACITY EXCEEDING 10 TONNES PER DAY INVOLVING SOLVENT RECLAMATION OR REGENERATION,Fcc Recycling (Uk) Limited,Knottingley Process Plant Weeland Road West Yorkshire,WF11 8DZ,451180.0,423850.0,Yorkshire,Wastewater,Benzo(a)pyrene,1.0,0.0,Hazardous Waste,Hazardous Waste,,53.70857386899971,-1.226115421881878,Yorkshire and The Humber
KP3403PD,LOADING/STORAGE/TREATMENT ETC OF CRUDE OIL,Phillips 66 Limited,"Crude Oil terminals Ltd,Tetney Oil Terminal Tetney Lock Road Tetney Grimsby Lincolnshire",DN36 5NX,532830.0,402210.0,Lincolnshire and Northamptonshire,Controlled Waters,"Indeno(1,2,3-cd)pyrene",1.0,0.0,Refineries & Fuel,Refineries & Fuel,,53.49982027580484,0.0010690700525111871,East Midlands
KP3403PD,LOADING/STORAGE/TREATMENT ETC OF CRUDE OIL,Phillips 66 Limited,"Crude Oil terminals Ltd,Tetney Oil Terminal Tetney Lock Road Tetney Grimsby Lincolnshire",DN36 5NX,532830.0,402210.0,Lincolnshire and Northamptonshire,Controlled Waters,Fluoranthene,0.1,0.0,Refineries & Fuel,Refineries & Fuel,,53.49982027580484,0.0010690700525111871,East Midlands
KP3403PD,LOADING/STORAGE/TREATMENT ETC OF CRUDE OIL,Phillips 66 Limited,"Crude Oil terminals Ltd,Tetney Oil Terminal Tetney Lock Road Tetney Grimsby Lincolnshire",DN36 5NX,532830.0,402210.0,Lincolnshire and Northamptonshire,Controlled Waters,Benzo(a)pyrene,1.0,0.0,Refineries & Fuel,Refineries & Fuel,,53.49982027580484,0.0010690700525111871,East Midlands
PP3935CU,"WASTE LANDFILLING; >10 T/D WITH CAPACITY >25,000T EXCLUDING INERT WASTE",Recycled In Ardleigh Limited,Martells Quarry Slough Lane,CO7 7RU,605080.0,227680.0,East Anglia,Wastewater,Heptachlor,0.1,0.0,Landfill,Non Hazardous Landfill,,51.90988524352015,0.9801459429301658,East of England
PP3935CU,"WASTE LANDFILLING; >10 T/D WITH CAPACITY >25,000T EXCLUDING INERT WASTE",Recycled In Ardleigh Limited,Martells Quarry Slough Lane,CO7 7RU,605080.0,227680.0,East Anglia,Wastewater,"Indeno(1,2,3-cd)pyrene",1.0,0.0,Landfill,Non Hazardous Landfill,,51.90988524352015,0.9801459429301658,East of England
PP3935CU,"WASTE LANDFILLING; >10 T/D WITH CAPACITY >25,000T EXCLUDING INERT WASTE",Recycled In Ardleigh Limited,Martells Quarry Slough Lane,CO7 7RU,605080.0,227680.0,East Anglia,Wastewater,Benzo(a)pyrene,1.0,0.0,Landfill,Non Hazardous Landfill,,51.90988524352015,0.9801459429301658,East of England
PP3935CU,"WASTE LANDFILLING; >10 T/D WITH CAPACITY >25,000T EXCLUDING INERT WASTE",Recycled In Ardleigh Limited,Martells Quarry Slough Lane,CO7 7RU,605080.0,227680.0,East Anglia,Wastewater,Fluoranthene,0.1,0.0,Landfill,Non Hazardous Landfill,,51.90988524352015,0.9801459429301658,East of England
PP3935CU,"WASTE LANDFILLING; >10 T/D WITH CAPACITY >25,000T EXCLUDING INERT WASTE",Recycled In Ardleigh Limited,Martells Quarry Slough Lane,CO7 7RU,605080.0,227680.0,East Anglia,Wastewater,Cypermethrin,0.005,0.0,Landfill,Non Hazardous Landfill,1.3e-05,51.90988524352015,0.9801459429301658,East of England
GP3697SV,"TEMPORARY STORAGE OF HAZ WASTE NOT UNDER S 5.2 PENDING ACTIVITIES LISTED IN S 5.1, 5.2, 5.3 AND PARAGRAPH (B) OF THIS SECTION WITH A TOTAL CAPACITY > 50 TONNES, EXCL TEMP STORAGE WHERE GENERATED",Enva Plastics Limited,South Fen Road Lincolnshire,PE10 0DN,514260.0,318770.0,Lincolnshire and Northamptonshire,Wastewater,"Indeno(1,2,3-cd)pyrene",1.0,0.0,Metals Recycling,Metals Recycling,,52.75447078137254,-0.3084437237920978,East Midlands
GP3697SV,"TEMPORARY STORAGE OF HAZ WASTE NOT UNDER S 5.2 PENDING ACTIVITIES LISTED IN S 5.1, 5.2, 5.3 AND PARAGRAPH (B) OF THIS SECTION WITH A TOTAL CAPACITY > 50 TONNES, EXCL TEMP STORAGE WHERE GENERATED",Enva Plastics Limited,South Fen Road Lincolnshire,PE10 0DN,514260.0,318770.0,Lincolnshire and Northamptonshire,Wastewater,Benzo(a)pyrene,1.0,0.0,Metals Recycling,Metals Recycling,,52.75447078137254,-0.3084437237920978,East Midlands
GP3697SV,"TEMPORARY STORAGE OF HAZ WASTE NOT UNDER S 5.2 PENDING ACTIVITIES LISTED IN S 5.1, 5.2, 5.3 AND PARAGRAPH (B) OF THIS SECTION WITH A TOTAL CAPACITY > 50 TONNES, EXCL TEMP STORAGE WHERE GENERATED",Enva Plastics Limited,South Fen Road Lincolnshire,PE10 0DN,514260.0,318770.0,Lincolnshire and Northamptonshire,Wastewater,Fluoranthene,0.1,0.0,Metals Recycling,Metals Recycling,,52.75447078137254,-0.3084437237920978,East Midlands
GP3697SV,"TEMPORARY STORAGE OF HAZ WASTE NOT UNDER S 5.2 PENDING ACTIVITIES LISTED IN S 5.1, 5.2, 5.3 AND PARAGRAPH (B) OF THIS SECTION WITH A TOTAL CAPACITY > 50 TONNES, EXCL TEMP STORAGE WHERE GENERATED",Enva Plastics Limited,South Fen Road Lincolnshire,PE10 0DN,514260.0,318770.0,Lincolnshire and Northamptonshire,Wastewater,Heptachlor,0.1,0.0,Metals Recycling,Metals Recycling,,52.75447078137254,-0.3084437237920978,East Midlands
ANNNF2073,,Anglian Water,Lincoln(Canwick) STW,,499810.0,370880.0,Lincolnshire and Northamptonshire,Controlled Waters,Benzo(a)pyrene,1.0,0.0,Water Industry,Water Industry,,53.225598232515246,-0.5063982784808474,East Midlands
ANNNF2073,,Anglian Water,Lincoln(Canwick) STW,,499810.0,370880.0,Lincolnshire and Northamptonshire,Controlled Waters,"Indeno(1,2,3-cd)pyrene",1.0,0.0,Water Industry,Water Industry,,53.225598232515246,-0.5063982784808474,East Midlands
AW4TF1789,,Anglian Water,Whitlingham(Norwich) STW,,627800.0,307700.0,East Anglia,Controlled Waters,Benzo(a)pyrene,1.0,0.0,Water Industry,Water Industry,,52.61924889217021,1.363855620576636,East of England
AEETS12128,,Anglian Water,Cliff Quay(Ipswich) STW,,617200.0,241900.0,East Anglia,Controlled Waters,Fluoranthene,0.1,0.0,Water Industry,Water Industry,,52.03294921607046,1.1650600695103228,East of England
AEETS12128,,Anglian Water,Cliff Quay(Ipswich) STW,,617200.0,241900.0,East Anglia,Controlled Waters,"Indeno(1,2,3-cd)pyrene",1.0,0.0,Water Industry,Water Industry,,52.03294921607046,1.1650600695103228,East of England
AEETS12128,,Anglian Water,Cliff Quay(Ipswich) STW,,617200.0,241900.0,East Anglia,Controlled Waters,Benzo(a)pyrene,1.0,0.0,Water Industry,Water Industry,,52.03294921607046,1.1650600695103228,East of England
AW3TS519,,Anglian Water,Pyewipe (Grimsby) STW,,528280.0,413140.0,Lincolnshire and Northamptonshire,Controlled Waters,"Indeno(1,2,3-cd)pyrene",1.0,0.0,Water Industry,Water Industry,,53.599134825406814,-0.06300357585157099,
AW3TS519,,Anglian Water,Pyewipe (Grimsby) STW,,528280.0,413140.0,Lincolnshire and Northamptonshire,Controlled Waters,Benzo(a)pyrene,1.0,0.0,Water Industry,Water Industry,,53.599134825406814,-0.06300357585157099,
TP3109LG,"WASTE LANDFILLING; >10 T/D WITH CAPACITY >25,000T EXCLUDING INERT WASTE",South Tees Development Corporation,CLE 3/8 Landfill Site Cleveland Works Cleveland,TS10 5QW,454200.0,522000.0,North East,Wastewater,Heptachlor,0.1,0.0,Landfill,Non Hazardous Landfill,,54.59029344081636,-1.1627634077287692,North East
BU9068IM,"WASTE LANDFILLING; >10 T/D WITH CAPACITY >25,000T EXCLUDING INERT WASTE",Viridor Waste Management Limited,Pilsworth North Landfill Site Pilsworth Road,BL9 8QZ,382590.0,409570.0,Greater Manchester Merseyside and Cheshire,Wastewater,Heptachlor,0.1,0.0,Landfill,Non Hazardous Landfill,,53.58242740062886,-2.264440677183515,North West
PP3135SU,"WASTE LANDFILLING; >10 T/D WITH CAPACITY >25,000T EXCLUDING INERT WASTE",Tarmac Aggregates Limited,Brittons Hall Farm Landfill Site Chignal St James Essex,CM1 4LT,565960.0,210120.0,East Anglia,Wastewater,Heptachlor,0.1,0.0,Landfill,Non Hazardous Landfill,,51.76516490837623,0.40358913299333465,East of England
BJ7620ID,"PAPER, PULP AND BOARD; PRODUCING PAPER/BOARD >20T/D",JAMES CROPPER PLC,"Burneside Paer Mill,Burneside Mill Burneside Cumbria",LA9 6PZ,350600.0,495880.0,Cumbria and Lancashire,Wastewater,Cypermethrin,0.005,0.0,Paper and textiles,Paper & Pulp,1.3e-05,54.356043793927604,-2.7616188737668255,North West
NP3139PK,"WASTE LANDFILLING; >10 T/D WITH CAPACITY >25,000T EXCLUDING INERT WASTE",Suez Recycling And Recovery Uk Ltd,Harmondsworth Landfill Site Holloway Lane Middlesex,UB7 0AE,507000.0,175000.0,Hertfordshire and North London,Wastewater,"Indeno(1,2,3-cd)pyrene",1.0,0.0,Landfill,Non Hazardous Landfill,,51.46386768380172,-0.46110862821301507,London
NP3139PK,"WASTE LANDFILLING; >10 T/D WITH CAPACITY >25,000T EXCLUDING INERT WASTE",Suez Recycling And Recovery Uk Ltd,Harmondsworth Landfill Site Holloway Lane Middlesex,UB7 0AE,507000.0,175000.0,Hertfordshire and North London,Wastewater,Benzo(a)pyrene,1.0,0.0,Landfill,Non Hazardous Landfill,,51.46386768380172,-0.46110862821301507,London
NP3139PK,"WASTE LANDFILLING; >10 T/D WITH CAPACITY >25,000T EXCLUDING INERT WASTE",Suez Recycling And Recovery Uk Ltd,Harmondsworth Landfill Site Holloway Lane Middlesex,UB7 0AE,507000.0,175000.0,Hertfordshire and North London,Wastewater,Fluoranthene,0.1,0.0,Landfill,Non Hazardous Landfill,,51.46386768380172,-0.46110862821301507,London
WRA7409,,Yorkshire Water Services Limited,HUDDERSFIELD STW,HD2 1FG,417124.0,419244.0,Yorkshire,Controlled Waters,Cypermethrin,0.005,31.35,Water Industry,Water Industry,1.3e-05,53.6693954953469,-1.742295056114122,Yorkshire and The Humber
CSSA.0360,,THAMES WATER UTILITIES LTD,BECKTON STW,IG11 0AD,545470.0,181670.0,Hertfordshire and North London,Controlled Waters,"Indeno(1,2,3-cd)pyrene",1.0,19.4,Water Industry,Water Industry,,51.51523004416228,0.09507429939023963,London
E15,,Yorkshire Water Services Limited,Mitchell Laithes WwTW CHP Plant Long Lane Dewsbury West Yorkshire,WF12 8LL,426030.0,419980.0,Yorkshire,Controlled Waters,Cypermethrin,0.005,19.27,Water Industry,Water Industry,1.3e-05,53.67564500308029,-1.6074394637051335,Yorkshire and The Humber
CSSA.0360,,THAMES WATER UTILITIES LTD,BECKTON STW,IG11 0AD,545470.0,181670.0,Hertfordshire and North London,Controlled Waters,Benzo(a)pyrene,1.0,15.0,Water Industry,Water Industry,,51.51523004416228,0.09507429939023963,London
CSSA.0362,,THAMES WATER UTILITIES LTD,Crossness Sewage Treatment Works Belvedere Road London Greater London,SE2 9AQ,549100.0,180670.0,"Kent, South London and East Sussex",Controlled Waters,"Indeno(1,2,3-cd)pyrene",1.0,9.66,Water Industry,Water Industry,,51.50529938596011,0.14692716332163996,London
CNTD.0085,,THAMES WATER UTILITIES LTD,MOGDEN STW,TW7 7LP,516800.0,175900.0,Hertfordshire and North London,Controlled Waters,"Indeno(1,2,3-cd)pyrene",1.0,9.5,Water Industry,Water Industry,,51.47002108758989,-0.31980142224145863,London
T/10/35431/R,,SEVERN TRENT WATER LTD,Minworth Final ASP Effluent,B76 9BE,417150.0,291950.0,West Midlands,Controlled Waters,"Indeno(1,2,3-cd)pyrene",1.0,8.97,Water Industry,Water Industry,,52.52515798528092,-1.7486529341897021,West Midlands
CSSA.0362,,THAMES WATER UTILITIES LTD,Crossness Sewage Treatment Works Belvedere Road London Greater London,SE2 9AQ,549100.0,180670.0,"Kent, South London and East Sussex",Controlled Waters,Benzo(a)pyrene,1.0,7.46,Water Industry,Water Industry,,51.50529938596011,0.14692716332163996,London
CNTD.0085,,THAMES WATER UTILITIES LTD,MOGDEN STW,TW7 7LP,516800.0,175900.0,Hertfordshire and North London,Controlled Waters,Benzo(a)pyrene,1.0,7.34,Water Industry,Water Industry,,51.47002108758989,-0.31980142224145863,London
RP3206BE,COMBUSTION; ANY FUEL  =>50MW,British Steel Limited,Scunthorpe Integrated Iron and Steel Works Brigg Road,DN16 1XA,492720.0,408890.0,East Midlands,Controlled Waters,Benzo(a)pyrene,1.0,6.94,Metals,Ferrous,,53.56843547135038,-0.601410533649262,Yorkshire and The Humber
T/10/35431/R,,SEVERN TRENT WATER LTD,Minworth Final ASP Effluent,B76 9BE,417150.0,291950.0,West Midlands,Controlled Waters,Benzo(a)pyrene,1.0,6.93,Water Industry,Water Industry,,52.52515798528092,-1.7486529341897021,West Midlands
016940143,,UNITED UTILITIES WATER PLC,DAVYHULME,,374800.0,396460.0,Greater Manchester Merseyside and Cheshire,Controlled Waters,"Indeno(1,2,3-cd)pyrene",1.0,6.84,Water Industry,Water Industry,,53.46427432348601,-2.3810422309625947,North West
RP3206BE,COMBUSTION; ANY FUEL  =>50MW,British Steel Limited,Scunthorpe Integrated Iron and Steel Works Brigg Road,DN16 1XA,492720.0,408890.0,East Midlands,Controlled Waters,"Indeno(1,2,3-cd)pyrene",1.0,6.14,Metals,Ferrous,,53.56843547135038,-0.601410533649262,Yorkshire and The Humber
016940143,,UNITED UTILITIES WATER PLC,DAVYHULME,,374800.0,396460.0,Greater Manchester Merseyside and Cheshire,Controlled Waters,Benzo(a)pyrene,1.0,5.28,Water Industry,Water Industry,,53.46427432348601,-2.3810422309625947,North West
235/1695,,NORTHUMBRIAN WATER LTD,Howdon Sewage Treatment Works Northumberland Dock Road Wallsend Tyne And Wear,NE28 0QD,433340.0,566290.0,North East,Controlled Waters,"Indeno(1,2,3-cd)pyrene",1.0,4.74,Water Industry,Water Industry,,54.990089316955455,-1.4804801697261554,North East
235/1695,,NORTHUMBRIAN WATER LTD,Howdon Sewage Treatment Works Northumberland Dock Road Wallsend Tyne And Wear,NE28 0QD,433340.0,566290.0,North East,Controlled Waters,Benzo(a)pyrene,1.0,3.66,Water Industry,Water Industry,,54.990089316955455,-1.4804801697261554,North East
0166993397,,UNITED UTILITIES WATER PLC,Liverpool Waste Water Treatment Sandon Dock Regent Road Liverpool Merseyside,L3 0BE,333730.0,392800.0,Greater Manchester Merseyside and Cheshire,Controlled Waters,"Indeno(1,2,3-cd)pyrene",1.0,3.52,Water Industry,Water Industry,,53.427806585903376,-2.998815240786531,North West
100311,,Wessex Water,BRISTOL (AVONMOUTH) STW,BS11 9AA,353250.0,179400.0,Wessex,Controlled Waters,"Indeno(1,2,3-cd)pyrene",1.0,3.47,Water Industry,Water Industry,,51.511581191559195,-2.675054415150117,South West
CNTD.0072,,THAMES WATER UTILITIES LTD,DEEPHAMS STW,N9 0BA,535660.0,193170.0,Hertfordshire and North London,Controlled Waters,"Indeno(1,2,3-cd)pyrene",1.0,3.47,Water Industry,Water Industry,,51.62100912681586,-0.04177690146433094,London
CSSA.0360,,THAMES WATER UTILITIES LTD,BECKTON STW,IG11 0AD,545470.0,181670.0,Hertfordshire and North London,Controlled Waters,Fluoranthene,0.1,3.4,Water Industry,Water Industry,,51.51523004416228,0.09507429939023963,London
T/53/45014/R,,SEVERN TRENT WATER LTD,Wanlip Sewage Treatment Works Fillingate Wanlip Leicester Leicestershire,LE7 4PF,459760.0,311500.0,East Midlands,Controlled Waters,"Indeno(1,2,3-cd)pyrene",1.0,2.99,Water Industry,Water Industry,,52.69788886015215,-1.1171407605839059,East Midlands
T/64/45170/R,,SEVERN TRENT WATER LTD,Stoke Bardolph STW Nottingham,NG14 5HL,464730.0,342220.0,East Midlands,Controlled Waters,"Indeno(1,2,3-cd)pyrene",1.0,2.89,Water Industry,Water Industry,,52.97343472688653,-1.0375249549284704,East Midlands
0166993397,,UNITED UTILITIES WATER PLC,Liverpool Waste Water Treatment Sandon Dock Regent Road Liverpool Merseyside,L3 0BE,333730.0,392800.0,Greater Manchester Merseyside and Cheshire,Controlled Waters,Benzo(a)pyrene,1.0,2.72,Water Industry,Water Industry,,53.427806585903376,-2.998815240786531,North West
100311,,Wessex Water,BRISTOL (AVONMOUTH) STW,BS11 9AA,353250.0,179400.0,Wessex,Controlled Waters,Benzo(a)pyrene,1.0,2.68,Water Industry,Water Industry,,51.511581191559195,-2.675054415150117,South West
CNTD.0072,,THAMES WATER UTILITIES LTD,DEEPHAMS STW,N9 0BA,535660.0,193170.0,Hertfordshire and North London,Controlled Waters,Benzo(a)pyrene,1.0,2.68,Water Industry,Water Industry,,51.62100912681586,-0.04177690146433094,London
016950032,,UNITED UTILITIES WATER PLC,BOLTON,,376950.0,404520.0,Greater Manchester Merseyside and Cheshire,Controlled Waters,"Indeno(1,2,3-cd)pyrene",1.0,2.5,Water Industry,Water Industry,,53.536818464081755,-2.349253891884259,North West
T/53/45014/R,,SEVERN TRENT WATER LTD,Wanlip Sewage Treatment Works Fillingate Wanlip Leicester Leicestershire,LE7 4PF,459760.0,311500.0,East Midlands,Controlled Waters,Benzo(a)pyrene,1.0,2.31,Water Industry,Water Industry,,52.69788886015215,-1.1171407605839059,East Midlands
CNTD.0071,,THAMES WATER UTILITIES LTD,MAPLE LODGE STW,WD3 9SQ,504200.0,192000.0,Hertfordshire and North London,Controlled Waters,"Indeno(1,2,3-cd)pyrene",1.0,2.3,Water Industry,Water Industry,,51.61719085980753,-0.49637273526672454,East of England
S/11/25151/R,,SEVERN TRENT WATER LTD,Coventry (Finham) STW,CV3 6SD,433600.0,273700.0,West Midlands,Controlled Waters,"Indeno(1,2,3-cd)pyrene",1.0,2.3,Water Industry,Water Industry,,52.3603336558624,-1.5080303048358552,West Midlands
T/01/21819/R,,SEVERN TRENT WATER LTD,Strongford Sewage Treatment Works Barlaston Old Road Barlaston Stoke On Trent Staffordshire,ST12 9EX,387930.0,339120.0,West Midlands,Controlled Waters,"Indeno(1,2,3-cd)pyrene",1.0,2.23,Water Industry,Water Industry,,52.94932370402649,-2.1810843207600032,West Midlands
T/64/45170/R,,SEVERN TRENT WATER LTD,Stoke Bardolph STW Nottingham,NG14 5HL,464730.0,342220.0,East Midlands,Controlled Waters,Benzo(a)pyrene,1.0,2.23,Water Industry,Water Industry,,52.97343472688653,-1.0375249549284704,East Midlands
254/1920,,NORTHUMBRIAN WATER LTD,"Industrial Effluent Treatment Works,Bran Sands Tees Dock Road Cleveland",TS6 6UE,456210.0,524290.0,North East,Controlled Waters,"Indeno(1,2,3-cd)pyrene",1.0,2.14,Water Industry,Water Industry,,54.61065168486329,-1.1312244597131602,North East
017160064,,UNITED UTILITIES WATER PLC,PRESTON,,345450.0,427850.0,Cumbria and Lancashire,Controlled Waters,"Indeno(1,2,3-cd)pyrene",1.0,2.1,Water Industry,Water Industry,,53.744157847609756,-2.828594718178692,
WACT/257,,Southern Water,Budds Farm STW,PO9 1JW,470800.0,105570.0,Solent and South Downs,Controlled Waters,"Indeno(1,2,3-cd)pyrene",1.0,2.02,Water Industry,Water Industry,,50.84533022631547,-0.9957435813310475,South East
CNTD.0067,,THAMES WATER UTILITIES LTD,LONG REACH STW,DA1 5PP,555600.0,176700.0,"Kent, South London and East Sussex",Controlled Waters,"Indeno(1,2,3-cd)pyrene",1.0,1.94,Water Industry,Water Industry,,51.46787978063073,0.2387595087625488,South East
016950032,,UNITED UTILITIES WATER PLC,BOLTON,,376950.0,404520.0,Greater Manchester Merseyside and Cheshire,Controlled Waters,Benzo(a)pyrene,1.0,1.93,Water Industry,Water Industry,,53.536818464081755,-2.349253891884259,North West
CSSV.0382,,THAMES WATER UTILITIES LTD,BEDDINGTON STW,CR0 4TH,529520.0,166318.0,"Kent, South London and East Sussex",Controlled Waters,"Indeno(1,2,3-cd)pyrene",1.0,1.88,Water Industry,Water Industry,,51.38114353693676,-0.14026756827141423,London
CSSA.0364,,THAMES WATER UTILITIES LTD,RIVERSIDE STW,RM13 8RL,551500.0,181900.0,Hertfordshire and North London,Controlled Waters,"Indeno(1,2,3-cd)pyrene",1.0,1.88,Water Industry,Water Industry,,51.515713120730595,0.18200906924859406,London
S/11/25151/R,,SEVERN TRENT WATER LTD,Coventry (Finham) STW,CV3 6SD,433600.0,273700.0,West Midlands,Controlled Waters,Benzo(a)pyrene,1.0,1.78,Water Industry,Water Industry,,52.3603336558624,-1.5080303048358552,West Midlands
017280252,,UNITED UTILITIES WATER PLC,Fleetwood Wwtw Jameson Road Fleetwood Lancashire,FY7 8TW,333090.0,446180.0,Cumbria and Lancashire,Controlled Waters,"Indeno(1,2,3-cd)pyrene",1.0,1.77,Water Industry,Water Industry,,53.90743793916987,-3.0199685283693034,North West
CNTD.0071,,THAMES WATER UTILITIES LTD,MAPLE LODGE STW,WD3 9SQ,504200.0,192000.0,Hertfordshire and North London,Controlled Waters,Benzo(a)pyrene,1.0,1.77,Water Industry,Water Industry,,51.61719085980753,-0.49637273526672454,East of England
T/01/21819/R,,SEVERN TRENT WATER LTD,Strongford Sewage Treatment Works Barlaston Old Road Barlaston Stoke On Trent Staffordshire,ST12 9EX,387930.0,339120.0,West Midlands,Controlled Waters,Benzo(a)pyrene,1.0,1.72,Water Industry,Water Industry,,52.94932370402649,-2.1810843207600032,West Midlands
CSSA.0362,,THAMES WATER UTILITIES LTD,Crossness Sewage Treatment Works Belvedere Road London Greater London,SE2 9AQ,549100.0,180670.0,"Kent, South London and East Sussex",Controlled Waters,Fluoranthene,0.1,1.69,Water Industry,Water Industry,,51.50529938596011,0.14692716332163996,London
CNTD.0085,,THAMES WATER UTILITIES LTD,MOGDEN STW,TW7 7LP,516800.0,175900.0,Hertfordshire and North London,Controlled Waters,Fluoranthene,0.1,1.67,Water Industry,Water Industry,,51.47002108758989,-0.31980142224145863,London
T/48/12074/R,,SEVERN TRENT WATER LTD,Derby Sewage Treatment Works Chp Plant Megaloughton Lane Spondon Derby Derbyshire,DE21 7BR,438830.0,343470.0,East Midlands,Controlled Waters,"Indeno(1,2,3-cd)pyrene",1.0,1.66,Water Industry,Water Industry,,52.98716656830344,-1.42303516929143,East Midlands
254/1920,,NORTHUMBRIAN WATER LTD,"Industrial Effluent Treatment Works,Bran Sands Tees Dock Road Cleveland",TS6 6UE,456210.0,524290.0,North East,Controlled Waters,Benzo(a)pyrene,1.0,1.65,Water Industry,Water Industry,,54.61065168486329,-1.1312244597131602,North East
CLCR.0048,,THAMES WATER UTILITIES LTD,Rye Meads Combined Heat And Power Plant Off Rye Road Stanstead Abbotts Hertfordshire,SG12 8JY,539260.0,210400.0,Hertfordshire and North London,Controlled Waters,"Indeno(1,2,3-cd)pyrene",1.0,1.64,Water Industry,Water Industry,,51.77495262466496,0.017064528820277147,East of England
016950038,,UNITED UTILITIES WATER PLC,OLDHAM,,389260.0,404300.0,Greater Manchester Merseyside and Cheshire,Controlled Waters,"Indeno(1,2,3-cd)pyrene",1.0,1.63,Water Industry,Water Industry,,53.53523963672918,-2.163511580117871,North West
017160064,,UNITED UTILITIES WATER PLC,PRESTON,,345450.0,427850.0,Cumbria and Lancashire,Controlled Waters,Benzo(a)pyrene,1.0,1.63,Water Industry,Water Industry,,53.744157847609756,-2.828594718178692,
017081316,,UNITED UTILITIES WATER PLC,WIGAN,,348170.0,412020.0,Greater Manchester Merseyside and Cheshire,Controlled Waters,"Indeno(1,2,3-cd)pyrene",1.0,1.6,Water Industry,Water Industry,,53.602167032712885,-2.784707855761451,North West
T/10/35431/R,,SEVERN TRENT WATER LTD,Minworth Final ASP Effluent,B76 9BE,417150.0,291950.0,West Midlands,Controlled Waters,Fluoranthene,0.1,1.57,Water Industry,Water Industry,,52.52515798528092,-1.7486529341897021,West Midlands
WACT/257,,Southern Water,Budds Farm STW,PO9 1JW,470800.0,105570.0,Solent and South Downs,Controlled Waters,Benzo(a)pyrene,1.0,1.56,Water Industry,Water Industry,,50.84533022631547,-0.9957435813310475,South East
017160024,,UNITED UTILITIES WATER PLC,BLACKBURN,,360470.0,429410.0,Cumbria and Lancashire,Controlled Waters,"Indeno(1,2,3-cd)pyrene",1.0,1.54,Water Industry,Water Industry,,53.75953685781403,-2.601070202815933,North West
RP3206BE,COMBUSTION; ANY FUEL  =>50MW,British Steel Limited,Scunthorpe Integrated Iron and Steel Works Brigg Road,DN16 1XA,492720.0,408890.0,East Midlands,Controlled Waters,Fluoranthene,0.1,1.52,Metals,Ferrous,,53.56843547135038,-0.601410533649262,Yorkshire and The Humber
016983122,,UNITED UTILITIES WATER PLC,WARRINGTON NORTH,,358110.0,386960.0,Greater Manchester Merseyside and Cheshire,Controlled Waters,"Indeno(1,2,3-cd)pyrene",1.0,1.51,Water Industry,Water Industry,,53.37782195383272,-2.6311554534335007,North West
CNTD.0067,,THAMES WATER UTILITIES LTD,LONG REACH STW,DA1 5PP,555600.0,176700.0,"Kent, South London and East Sussex",Controlled Waters,Benzo(a)pyrene,1.0,1.5,Water Industry,Water Industry,,51.46787978063073,0.2387595087625488,South East
CSSA.0364,,THAMES WATER UTILITIES LTD,RIVERSIDE STW,RM13 8RL,551500.0,181900.0,Hertfordshire and North London,Controlled Waters,Benzo(a)pyrene,1.0,1.46,Water Industry,Water Industry,,51.515713120730595,0.18200906924859406,London
CSSV.0382,,THAMES WATER UTILITIES LTD,BEDDINGTON STW,CR0 4TH,529520.0,166318.0,"Kent, South London and East Sussex",Controlled Waters,Benzo(a)pyrene,1.0,1.45,Water Industry,Water Industry,,51.38114353693676,-0.14026756827141423,London
016950033,,UNITED UTILITIES WATER PLC,BURY,,380450.0,408050.0,Greater Manchester Merseyside and Cheshire,Controlled Waters,"Indeno(1,2,3-cd)pyrene",1.0,1.41,Water Industry,Water Industry,,53.568689506182324,-2.296668001953978,North West
016950041,,UNITED UTILITIES WATER PLC,ROCHDALE,,388160.0,412370.0,Greater Manchester Merseyside and Cheshire,Controlled Waters,"Indeno(1,2,3-cd)pyrene",1.0,1.41,Water Industry,Water Industry,,53.60775095500724,-2.1804168232172088,North West
017280252,,UNITED UTILITIES WATER PLC,Fleetwood Wwtw Jameson Road Fleetwood Lancashire,FY7 8TW,333090.0,446180.0,Cumbria and Lancashire,Controlled Waters,Benzo(a)pyrene,1.0,1.37,Water Industry,Water Industry,,53.90743793916987,-3.0199685283693034,North West
AWNNF13052,,Anglian Water,Great Billing STW,,483280.0,261550.0,Lincolnshire and Northamptonshire,Controlled Waters,"Indeno(1,2,3-cd)pyrene",1.0,1.31,Water Industry,Water Industry,,52.2458410921532,-0.7816391496402058,East Midlands
T/48/12074/R,,SEVERN TRENT WATER LTD,Derby Sewage Treatment Works Chp Plant Megaloughton Lane Spondon Derby Derbyshire,DE21 7BR,438830.0,343470.0,East Midlands,Controlled Waters,Benzo(a)pyrene,1.0,1.29,Water Industry,Water Industry,,52.98716656830344,-1.42303516929143,East Midlands
CLCR.0048,,THAMES WATER UTILITIES LTD,Rye Meads Combined Heat And Power Plant Off Rye Road Stanstead Abbotts Hertfordshire,SG12 8JY,539260.0,210400.0,Hertfordshire and North London,Controlled Waters,Benzo(a)pyrene,1.0,1.27,Water Industry,Water Industry,,51.77495262466496,0.017064528820277147,East of England
016950038,,UNITED UTILITIES WATER PLC,OLDHAM,,389260.0,404300.0,Greater Manchester Merseyside and Cheshire,Controlled Waters,Benzo(a)pyrene,1.0,1.26,Water Industry,Water Industry,,53.53523963672918,-2.163511580117871,North West
WRA6925,,Yorkshire Water Services Limited,BRADFORD ESHOLT STW,BD10 0PB,419030.0,439081.0,Yorkshire,Controlled Waters,Cypermethrin,0.005,1.24,Water Industry,Water Industry,1.3e-05,53.84762301892852,-1.7122320086876062,Yorkshire and The Humber
017081316,,UNITED UTILITIES WATER PLC,WIGAN,,348170.0,412020.0,Greater Manchester Merseyside and Cheshire,Controlled Waters,Benzo(a)pyrene,1.0,1.24,Water Industry,Water Industry,,53.602167032712885,-2.784707855761451,North West
CASM.0040,,THAMES WATER UTILITIES LTD,HOGSMILL A STW,KT1 3BW,519200.0,168500.0,"Kent, South London and East Sussex",Controlled Waters,"Indeno(1,2,3-cd)pyrene",1.0,1.22,Water Industry,Water Industry,,51.40301332636438,-0.2877532983545494,London
017160008,,UNITED UTILITIES WATER PLC,HYNDBURN,,375750.0,433550.0,Cumbria and Lancashire,Controlled Waters,"Indeno(1,2,3-cd)pyrene",1.0,1.21,Water Industry,Water Industry,,53.79768483713117,-2.3696373594073914,North West
S/06/55232/R,,SEVERN TRENT WATER LTD,Roundhill Sewage Treatment Wor Gibbett Lane Kinver West Midlands,DY7 6PX,303870.0,202830.0,West Midlands,Controlled Waters,"Indeno(1,2,3-cd)pyrene",1.0,1.21,Water Industry,Water Industry,,51.71593199808987,-3.392880616414023,
016940143,,UNITED UTILITIES WATER PLC,DAVYHULME,,374800.0,396460.0,Greater Manchester Merseyside and Cheshire,Controlled Waters,Fluoranthene,0.1,1.2,Water Industry,Water Industry,,53.46427432348601,-2.3810422309625947,North West
AWCNF10296,,Anglian Water,Cotton Valley STW,,488630.0,241460.0,East Anglia,Controlled Waters,"Indeno(1,2,3-cd)pyrene",1.0,1.19,Water Industry,Water Industry,,52.06443452129644,-0.7085359599756176,South East
017160024,,UNITED UTILITIES WATER PLC,BLACKBURN,,360470.0,429410.0,Cumbria and Lancashire,Controlled Waters,Benzo(a)pyrene,1.0,1.19,Water Industry,Water Industry,,53.75953685781403,-2.601070202815933,North West
A569/H/90,,Southern Water,Peel Common STW,PO14 2LJ,456500.0,103300.0,Solent and South Downs,Controlled Waters,"Indeno(1,2,3-cd)pyrene",1.0,1.19,Water Industry,Water Industry,,50.82648980553852,-1.1991825375250997,South East
AW4TF1789,,Anglian Water,Whitlingham(Norwich) STW,,627800.0,307700.0,East Anglia,Controlled Waters,"Indeno(1,2,3-cd)pyrene",1.0,1.19,Water Industry,Water Industry,,52.61924889217021,1.363855620576636,East of England
016983122,,UNITED UTILITIES WATER PLC,WARRINGTON NORTH,,358110.0,386960.0,Greater Manchester Merseyside and Cheshire,Controlled Waters,Benzo(a)pyrene,1.0,1.17,Water Industry,Water Industry,,53.37782195383272,-2.6311554534335007,North West
T/12/35338/R,,SEVERN TRENT WATER LTD,Coleshill STW,B46 1NX,419000.0,291000.0,West Midlands,Controlled Waters,"Indeno(1,2,3-cd)pyrene",1.0,1.12,Water Industry,Water Industry,,52.51655670471135,-1.721439707484814,West Midlands
CAWM.0942,,THAMES WATER UTILITIES LTD,READING STW,RG2 0RP,471100.0,170800.0,Thames,Controlled Waters,"Indeno(1,2,3-cd)pyrene",1.0,1.12,Water Industry,Water Industry,,51.43175105234219,-0.9786268415538915,South East
A74/S/87,,Southern Water,Portobello STW (Brighton),BN10 7BD,539300.0,101460.0,Solent and South Downs,Controlled Waters,"Indeno(1,2,3-cd)pyrene",1.0,1.1,Water Industry,Water Industry,,50.79597145410508,-0.02481221964020708,South East
016950033,,UNITED UTILITIES WATER PLC,BURY,,380450.0,408050.0,Greater Manchester Merseyside and Cheshire,Controlled Waters,Benzo(a)pyrene,1.0,1.09,Water Industry,Water Industry,,53.568689506182324,-2.296668001953978,North West
016950041,,UNITED UTILITIES WATER PLC,ROCHDALE,,388160.0,412370.0,Greater Manchester Merseyside and Cheshire,Controlled Waters,Benzo(a)pyrene,1.0,1.09,Water Industry,Water Industry,,53.60775095500724,-2.1804168232172088,North West
AW5NF5178,,Anglian Water,Flag Fen STW,,522140.0,298140.0,Lincolnshire and Northamptonshire,Controlled Waters,"Indeno(1,2,3-cd)pyrene",1.0,1.05,Water Industry,Water Industry,,52.56738396341251,-0.19938126113462898,East of England
CNTD.0058,,THAMES WATER UTILITIES LTD,LITTLE MARLOW STW,SL7 3RT,487800.0,187000.0,Thames,Controlled Waters,"Indeno(1,2,3-cd)pyrene",1.0,1.04,Water Industry,Water Industry,,51.57503906157903,-0.7344294503116684,South East
255/1144,,NORTHUMBRIAN WATER LTD,HENDON STW,SR1 2ES,441049.0,555891.0,North East,Controlled Waters,"Indeno(1,2,3-cd)pyrene",1.0,1.04,Water Industry,Water Industry,,54.89607337586726,-1.361489978558213,North East
CNTM.2237,,THAMES WATER UTILITIES LTD,SLOUGH STW,SL1 9EB,494100.0,179200.0,Thames,Controlled Waters,"Indeno(1,2,3-cd)pyrene",1.0,1.03,Water Industry,Water Industry,,51.503910638290265,-0.6456287673436109,South East
CNTD.0017,,THAMES WATER UTILITIES LTD,SWINDON STW,SN2 2DP,412700.0,185800.0,Thames,Controlled Waters,"Indeno(1,2,3-cd)pyrene",1.0,1.02,Water Industry,Water Industry,,51.57092949123404,-1.8181517865047485,South West
016930112,,UNITED UTILITIES WATER PLC,FAZAKERLEY,,339370.0,396600.0,Greater Manchester Merseyside and Cheshire,Controlled Waters,"Indeno(1,2,3-cd)pyrene",1.0,1.02,Water Industry,Water Industry,,53.46263823290822,-2.9146804259264933,North West
AWNNF13052,,Anglian Water,Great Billing STW,,483280.0,261550.0,Lincolnshire and Northamptonshire,Controlled Waters,Benzo(a)pyrene,1.0,1.01,Water Industry,Water Industry,,52.2458410921532,-0.7816391496402058,East Midlands
016940150,,UNITED UTILITIES WATER PLC,SALFORD,,379240.0,397980.0,Greater Manchester Merseyside and Cheshire,Controlled Waters,"Indeno(1,2,3-cd)pyrene",1.0,1.0,Water Industry,Water Industry,,53.47813124514825,-2.3142669891618586,North West
KP3536LL,DISPOSAL OF > 50 T/D NON-HAZARDOUS WASTE (> 100 T/D IF ONLY AD) INVOLVING PHYSICO-CHEMICAL TREATMENT,Yorkshire Water Services Limited,Neily Wwtw New Mill Road Holmfirth West Yorkshire,HD9 7AZ,414690.0,411650.0,Yorkshire,Controlled Waters,Cypermethrin,0.005,0.97,Biowaste Treatment,Biowaste Treatment,1.3e-05,53.601213129365455,-1.7794903945205673,Yorkshire and The Humber
235/1695,,NORTHUMBRIAN WATER LTD,Howdon Sewage Treatment Works Northumberland Dock Road Wallsend Tyne And Wear,NE28 0QD,433340.0,566290.0,North East,Controlled Waters,Fluoranthene,0.1,0.83,Water Industry,Water Industry,,54.990089316955455,-1.4804801697261554,North East
0166993397,,UNITED UTILITIES WATER PLC,Liverpool Waste Water Treatment Sandon Dock Regent Road Liverpool Merseyside,L3 0BE,333730.0,392800.0,Greater Manchester Merseyside and Cheshire,Controlled Waters,Fluoranthene,0.1,0.62,Water Industry,Water Industry,,53.427806585903376,-2.998815240786531,North West
100311,,Wessex Water,BRISTOL (AVONMOUTH) STW,BS11 9AA,353250.0,179400.0,Wessex,Controlled Waters,Fluoranthene,0.1,0.61,Water Industry,Water Industry,,51.511581191559195,-2.675054415150117,South West
CNTD.0072,,THAMES WATER UTILITIES LTD,DEEPHAMS STW,N9 0BA,535660.0,193170.0,Hertfordshire and North London,Controlled Waters,Fluoranthene,0.1,0.61,Water Industry,Water Industry,,51.62100912681586,-0.04177690146433094,London
LP3434HA,"WASTE LANDFILLING; >10 T/D WITH CAPACITY >25,000T EXCLUDING INERT WASTE",Bradley Park Waste Management Limited,Bradley Park Landfill Site Lower Quarry Road Huddersfield West Yorkshire,HD2 1FN,416350.0,421350.0,Yorkshire,Wastewater,Fluoranthene,0.1,0.57,Landfill,Non Hazardous Landfill,,53.68834894210262,-1.7538996405163412,Yorkshire and The Humber
T/53/45014/R,,SEVERN TRENT WATER LTD,Wanlip Sewage Treatment Works Fillingate Wanlip Leicester Leicestershire,LE7 4PF,459760.0,311500.0,East Midlands,Controlled Waters,Fluoranthene,0.1,0.53,Water Industry,Water Industry,,52.69788886015215,-1.1171407605839059,East Midlands
T/64/45170/R,,SEVERN TRENT WATER LTD,Stoke Bardolph STW Nottingham,NG14 5HL,464730.0,342220.0,East Midlands,Controlled Waters,Fluoranthene,0.1,0.51,Water Industry,Water Industry,,52.97343472688653,-1.0375249549284704,East Midlands
BS6025IF,"COATING, PRINTING AND TEXTILES; PRE-TREATING BY WASHING ETC >10T/DAY",Haworth Scouring Company Limited,CASHMERE WORKS BIRKSLAND STREET WEST YORKSHIRE,BD3 9SX,417800.0,432700.0,Yorkshire,Wastewater,Cypermethrin,0.005,0.5,Paper and textiles,Textiles,1.3e-05,53.79031504661774,-1.731294248366148,Yorkshire and The Humber
016950032,,UNITED UTILITIES WATER PLC,BOLTON,,376950.0,404520.0,Greater Manchester Merseyside and Cheshire,Controlled Waters,Fluoranthene,0.1,0.44,Water Industry,Water Industry,,53.536818464081755,-2.349253891884259,North West
BR4705IR,"COATING, PRINTING AND TEXTILES; PRE-TREATING BY WASHING ETC >10T/DAY",Standard Wool (UK) Limited,Eastfield Mills EASTFIELD MILLS WEST YORKSHIRE,WF12 8EH,424900.0,421400.0,Yorkshire,Wastewater,Cypermethrin,0.005,0.4151,Paper and textiles,Textiles,1.3e-05,53.68846267924885,-1.6244313027457664,Yorkshire and The Humber
CNTD.0071,,THAMES WATER UTILITIES LTD,MAPLE LODGE STW,WD3 9SQ,504200.0,192000.0,Hertfordshire and North London,Controlled Waters,Fluoranthene,0.1,0.4,Water Industry,Water Industry,,51.61719085980753,-0.49637273526672454,East of England
S/11/25151/R,,SEVERN TRENT WATER LTD,Coventry (Finham) STW,CV3 6SD,433600.0,273700.0,West Midlands,Controlled Waters,Fluoranthene,0.1,0.4,Water Industry,Water Industry,,52.3603336558624,-1.5080303048358552,West Midlands
T/01/21819/R,,SEVERN TRENT WATER LTD,Strongford Sewage Treatment Works Barlaston Old Road Barlaston Stoke On Trent Staffordshire,ST12 9EX,387930.0,339120.0,West Midlands,Controlled Waters,Fluoranthene,0.1,0.39,Water Industry,Water Industry,,52.94932370402649,-2.1810843207600032,West Midlands
254/1920,,NORTHUMBRIAN WATER LTD,"Industrial Effluent Treatment Works,Bran Sands Tees Dock Road Cleveland",TS6 6UE,456210.0,524290.0,North East,Controlled Waters,Fluoranthene,0.1,0.38,Water Industry,Water Industry,,54.61065168486329,-1.1312244597131602,North East
017160064,,UNITED UTILITIES WATER PLC,PRESTON,,345450.0,427850.0,Cumbria and Lancashire,Controlled Waters,Fluoranthene,0.1,0.37,Water Industry,Water Industry,,53.744157847609756,-2.828594718178692,
ZP3933LD,"WASTE LANDFILLING; >10 T/D WITH CAPACITY >25,000T EXCLUDING INERT WASTE",Severn Waste Services Limited,Hill & Moor Landfill Site Piddle Brook Lane Wyre Piddle Pershore Worcester,WR10 2LW,396900.0,248400.0,West Midlands,Wastewater,Fluoranthene,0.1,0.36,Landfill,Non Hazardous Landfill,,52.13389224398506,-2.046705579413225,West Midlands
WACT/257,,Southern Water,Budds Farm STW,PO9 1JW,470800.0,105570.0,Solent and South Downs,Controlled Waters,Fluoranthene,0.1,0.35,Water Industry,Water Industry,,50.84533022631547,-0.9957435813310475,South East
CNTD.0067,,THAMES WATER UTILITIES LTD,LONG REACH STW,DA1 5PP,555600.0,176700.0,"Kent, South London and East Sussex",Controlled Waters,Fluoranthene,0.1,0.34,Water Industry,Water Industry,,51.46787978063073,0.2387595087625488,South East
CSSV.0382,,THAMES WATER UTILITIES LTD,BEDDINGTON STW,CR0 4TH,529520.0,166318.0,"Kent, South London and East Sussex",Controlled Waters,Fluoranthene,0.1,0.33,Water Industry,Water Industry,,51.38114353693676,-0.14026756827141423,London
CSSA.0364,,THAMES WATER UTILITIES LTD,RIVERSIDE STW,RM13 8RL,551500.0,181900.0,Hertfordshire and North London,Controlled Waters,Fluoranthene,0.1,0.33,Water Industry,Water Industry,,51.515713120730595,0.18200906924859406,London
017280252,,UNITED UTILITIES WATER PLC,Fleetwood Wwtw Jameson Road Fleetwood Lancashire,FY7 8TW,333090.0,446180.0,Cumbria and Lancashire,Controlled Waters,Fluoranthene,0.1,0.31,Water Industry,Water Industry,,53.90743793916987,-3.0199685283693034,North West
T/48/12074/R,,SEVERN TRENT WATER LTD,Derby Sewage Treatment Works Chp Plant Megaloughton Lane Spondon Derby Derbyshire,DE21 7BR,438830.0,343470.0,East Midlands,Controlled Waters,Fluoranthene,0.1,0.29,Water Industry,Water Industry,,52.98716656830344,-1.42303516929143,East Midlands
016950038,,UNITED UTILITIES WATER PLC,OLDHAM,,389260.0,404300.0,Greater Manchester Merseyside and Cheshire,Controlled Waters,Fluoranthene,0.1,0.29,Water Industry,Water Industry,,53.53523963672918,-2.163511580117871,North West
CLCR.0048,,THAMES WATER UTILITIES LTD,Rye Meads Combined Heat And Power Plant Off Rye Road Stanstead Abbotts Hertfordshire,SG12 8JY,539260.0,210400.0,Hertfordshire and North London,Controlled Waters,Fluoranthene,0.1,0.29,Water Industry,Water Industry,,51.77495262466496,0.017064528820277147,East of England
017081316,,UNITED UTILITIES WATER PLC,WIGAN,,348170.0,412020.0,Greater Manchester Merseyside and Cheshire,Controlled Waters,Fluoranthene,0.1,0.28,Water Industry,Water Industry,,53.602167032712885,-2.784707855761451,North West
016983122,,UNITED UTILITIES WATER PLC,WARRINGTON NORTH,,358110.0,386960.0,Greater Manchester Merseyside and Cheshire,Controlled Waters,Fluoranthene,0.1,0.27,Water Industry,Water Industry,,53.37782195383272,-2.6311554534335007,North West
017160024,,UNITED UTILITIES WATER PLC,BLACKBURN,,360470.0,429410.0,Cumbria and Lancashire,Controlled Waters,Fluoranthene,0.1,0.27,Water Industry,Water Industry,,53.75953685781403,-2.601070202815933,North West
016950033,,UNITED UTILITIES WATER PLC,BURY,,380450.0,408050.0,Greater Manchester Merseyside and Cheshire,Controlled Waters,Fluoranthene,0.1,0.25,Water Industry,Water Industry,,53.568689506182324,-2.296668001953978,North West
016950041,,UNITED UTILITIES WATER PLC,ROCHDALE,,388160.0,412370.0,Greater Manchester Merseyside and Cheshire,Controlled Waters,Fluoranthene,0.1,0.25,Water Industry,Water Industry,,53.60775095500724,-2.1804168232172088,North West
AWNNF13052,,Anglian Water,Great Billing STW,,483280.0,261550.0,Lincolnshire and Northamptonshire,Controlled Waters,Fluoranthene,0.1,0.23,Water Industry,Water Industry,,52.2458410921532,-0.7816391496402058,East Midlands
AWCNF10296,,Anglian Water,Cotton Valley STW,,488630.0,241460.0,East Anglia,Controlled Waters,Fluoranthene,0.1,0.21,Water Industry,Water Industry,,52.06443452129644,-0.7085359599756176,South East
CASM.0040,,THAMES WATER UTILITIES LTD,HOGSMILL A STW,KT1 3BW,519200.0,168500.0,"Kent, South London and East Sussex",Controlled Waters,Fluoranthene,0.1,0.21,Water Industry,Water Industry,,51.40301332636438,-0.2877532983545494,London
017160008,,UNITED UTILITIES WATER PLC,HYNDBURN,,375750.0,433550.0,Cumbria and Lancashire,Controlled Waters,Fluoranthene,0.1,0.21,Water Industry,Water Industry,,53.79768483713117,-2.3696373594073914,North West
S/06/55232/R,,SEVERN TRENT WATER LTD,Roundhill Sewage Treatment Wor Gibbett Lane Kinver West Midlands,DY7 6PX,303870.0,202830.0,West Midlands,Controlled Waters,Fluoranthene,0.1,0.21,Water Industry,Water Industry,,51.71593199808987,-3.392880616414023,
A569/H/90,,Southern Water,Peel Common STW,PO14 2LJ,456500.0,103300.0,Solent and South Downs,Controlled Waters,Fluoranthene,0.1,0.21,Water Industry,Water Industry,,50.82648980553852,-1.1991825375250997,South East
AW4TF1789,,Anglian Water,Whitlingham(Norwich) STW,,627800.0,307700.0,East Anglia,Controlled Waters,Fluoranthene,0.1,0.21,Water Industry,Water Industry,,52.61924889217021,1.363855620576636,East of England
T/12/35338/R,,SEVERN TRENT WATER LTD,Coleshill STW,B46 1NX,419000.0,291000.0,West Midlands,Controlled Waters,Fluoranthene,0.1,0.2,Water Industry,Water Industry,,52.51655670471135,-1.721439707484814,West Midlands
CAWM.0942,,THAMES WATER UTILITIES LTD,READING STW,RG2 0RP,471100.0,170800.0,Thames,Controlled Waters,Fluoranthene,0.1,0.2,Water Industry,Water Industry,,51.43175105234219,-0.9786268415538915,South East
UP3230LR,Refining Mineral Oil (Secondary operations - oil movements and blending,Phillips 66 Limited,Humber Refinery Eastfield Road North Lincolnshire,DN40 3DW,516340.0,416480.0,Lincolnshire and Northamptonshire,Controlled Waters,Fluoranthene,0.1,0.19,Refineries & Fuel,Refineries & Fuel,,53.63192485822344,-0.24208748245039757,Yorkshire and The Humber
AW5NF5178,,Anglian Water,Flag Fen STW,,522140.0,298140.0,Lincolnshire and Northamptonshire,Controlled Waters,Fluoranthene,0.1,0.19,Water Industry,Water Industry,,52.56738396341251,-0.19938126113462898,East of England
BJ7433IQ,"PAPER, PULP AND BOARD; PRODUCING PAPER/BOARD >20T/D",Smurfit Kappa UK Limited,"Snodland Paper Mill CHP,Smurfit Kappa Townsend Hook Ltd Mill Street Kent",ME6 5AX,570780.0,161600.0,"Kent, South London and East Sussex",Controlled Waters,Cypermethrin,0.005,0.19,Paper and textiles,Paper & Pulp,1.3e-05,51.32785729236587,0.44983752235459606,South East
A74/S/87,,Southern Water,Portobello STW (Brighton),BN10 7BD,539300.0,101460.0,Solent and South Downs,Controlled Waters,Fluoranthene,0.1,0.19,Water Industry,Water Industry,,50.79597145410508,-0.02481221964020708,South East
CNTM.2237,,THAMES WATER UTILITIES LTD,SLOUGH STW,SL1 9EB,494100.0,179200.0,Thames,Controlled Waters,Fluoranthene,0.1,0.18,Water Industry,Water Industry,,51.503910638290265,-0.6456287673436109,South East
CNTD.0058,,THAMES WATER UTILITIES LTD,LITTLE MARLOW STW,SL7 3RT,487800.0,187000.0,Thames,Controlled Waters,Fluoranthene,0.1,0.18,Water Industry,Water Industry,,51.57503906157903,-0.7344294503116684,South East
CNTD.0017,,THAMES WATER UTILITIES LTD,SWINDON STW,SN2 2DP,412700.0,185800.0,Thames,Controlled Waters,Fluoranthene,0.1,0.18,Water Industry,Water Industry,,51.57092949123404,-1.8181517865047485,South West
016930112,,UNITED UTILITIES WATER PLC,FAZAKERLEY,,339370.0,396600.0,Greater Manchester Merseyside and Cheshire,Controlled Waters,Fluoranthene,0.1,0.18,Water Industry,Water Industry,,53.46263823290822,-2.9146804259264933,North West
016940150,,UNITED UTILITIES WATER PLC,SALFORD,,379240.0,397980.0,Greater Manchester Merseyside and Cheshire,Controlled Waters,Fluoranthene,0.1,0.18,Water Industry,Water Industry,,53.47813124514825,-2.3142669891618586,North West
255/1144,,NORTHUMBRIAN WATER LTD,HENDON STW,SR1 2ES,441049.0,555891.0,North East,Controlled Waters,Fluoranthene,0.1,0.18,Water Industry,Water Industry,,54.89607337586726,-1.361489978558213,North East
016993399,,UNITED UTILITIES WATER PLC,BIRKENHEAD,,332800.0,389400.0,Greater Manchester Merseyside and Cheshire,Controlled Waters,Fluoranthene,0.1,0.17,Water Industry,Water Industry,,53.3971324575507,-3.012083267411799,North West
AWNNF13399,,Anglian Water,Broadholme STW,,494150.0,268750.0,Lincolnshire and Northamptonshire,Controlled Waters,Fluoranthene,0.1,0.17,Water Industry,Water Industry,,52.30880249617189,-0.6204684010696924,East Midlands
016940151,,UNITED UTILITIES WATER PLC,STOCKPORT,,386520.0,389820.0,Greater Manchester Merseyside and Cheshire,Controlled Waters,Fluoranthene,0.1,0.17,Water Industry,Water Industry,,53.40502394305661,-2.2042249143718937,North West
S/06/55227/R,,SEVERN TRENT WATER LTD,Barnhurst STW,WV95HN,390000.0,301650.0,West Midlands,Controlled Waters,Fluoranthene,0.1,0.16,Water Industry,Water Industry,,52.61253137355055,-2.149118878174962,West Midlands
CASM.0340,,Anglian Water,SOUTHEND ON SEA STW,,581900.0,190600.0,East Anglia,Controlled Waters,Fluoranthene,0.1,0.16,Water Industry,Water Industry,,51.584894773533854,0.6241731351924702,East of England
CTCR.0709,,THAMES WATER UTILITIES LTD,OXFORD STW,OX4 4YU,454200.0,202200.0,Thames,Controlled Waters,Fluoranthene,0.1,0.15,Water Industry,Water Industry,,51.71591848737045,-1.2168679929874056,South East
ASCNF1033,,Anglian Water,Cambridge STW,,548350.0,261540.0,East Anglia,Controlled Waters,Fluoranthene,0.1,0.15,Water Industry,Water Industry,,52.23207645870105,0.1708411736842626,East of England
017160005,,UNITED UTILITIES WATER PLC,BURNLEY,,382550.0,435270.0,Cumbria and Lancashire,Controlled Waters,Fluoranthene,0.1,0.15,Water Industry,Water Industry,,53.813417898368776,-2.2665013916025725,North West
016920130,,UNITED UTILITIES WATER PLC,ST HELENS,,353820.0,395900.0,Greater Manchester Merseyside and Cheshire,Controlled Waters,Fluoranthene,0.1,0.15,Water Industry,Water Industry,,53.457815001619835,-2.6969509558081435,North West
S/20/21356/R,,SEVERN TRENT WATER LTD,Netheridge Sewerage Treatment Plant Hempsted Lane Hempsted GLoucester,GL2 5LF,381110.0,215700.0,West Midlands,Controlled Waters,Fluoranthene,0.1,0.15,Water Industry,Water Industry,,51.839581834363415,-2.275579360127801,South West
200976,,SOUTH WEST WATER LTD,Brokenbury STW (TORBAY),TQ5 0LL,289750.0,56310.0,"Devon, Cornwall and the Isles of Scilly",Controlled Waters,Fluoranthene,0.1,0.14,Water Industry,Water Industry,,50.39629958802472,-3.5524947785411247,South West
CNTW.0531,,Anglian Water,TILBURY STW,,565670.0,175350.0,East Anglia,Controlled Waters,Fluoranthene,0.1,0.13,Water Industry,Water Industry,,51.4528958108943,0.38297313813412337,East of England
AW1NF2460,,Anglian Water,Bedford STW,,508500.0,249600.0,East Anglia,Controlled Waters,Fluoranthene,0.1,0.13,Water Industry,Water Industry,,52.134058637941244,-0.41620486681391833,East of England
040415,,Wessex Water,BOURNEMOUTH (Holdenhurst) STW,BH7 7ES,413300.0,95230.0,Wessex,Controlled Waters,Fluoranthene,0.1,0.13,Water Industry,Water Industry,,50.75651622422837,-1.8128154360805653,South West
043091,,Wessex Water,POOLE STW,BH17 7BX,400700.0,93580.0,Wessex,Controlled Waters,Fluoranthene,0.1,0.13,Water Industry,Water Industry,,50.74182787954079,-1.991444522226778,South West
017270050,,UNITED UTILITIES WATER PLC,LANCASTER,,345680.0,458870.0,Cumbria and Lancashire,Controlled Waters,Fluoranthene,0.1,0.13,Water Industry,Water Industry,,54.02295513077801,-2.830617368693378,
T/24/35514/R,,SEVERN TRENT WATER LTD,Claymills Chp Plant Meadow Lane Clay Mills Nr Burton Staffordshire,DE13 0DB,426270.0,325780.0,West Midlands,Controlled Waters,Fluoranthene,0.1,0.13,Water Industry,Water Industry,,52.82890968304119,-1.6115476620963551,West Midlands
001229,,SOUTH WEST WATER LTD,EXETER STW (Countess Wear),EX2 7AA,294800.0,89000.0,"Devon, Cornwall and the Isles of Scilly",Controlled Waters,Fluoranthene,0.1,0.13,Water Industry,Water Industry,,50.69110641761321,-3.4907104289958726,South West
A726/IOW/97,,Southern Water,Sandown STW (Ventnor/Bembridge),PO36 8DE,460270.0,85220.0,Solent and South Downs,Controlled Waters,Fluoranthene,0.1,0.13,Water Industry,Water Industry,,50.663541553013175,-1.1486148651904486,South East
A720/K/97,,Southern Water,Motney Hill STW,ME8 7UA,582950.0,168380.0,"Kent, South London and East Sussex",Controlled Waters,Fluoranthene,0.1,0.13,Water Industry,Water Industry,,51.38497550557988,0.6278084434090928,South East
COPA/5586,,Southern Water,Millbrook STW,SO15 0HH,438850.0,112600.0,Solent and South Downs,Controlled Waters,Fluoranthene,0.1,0.13,Water Industry,Water Industry,,50.91156573195226,-1.4487767063232817,South East
AW3TS519,,Anglian Water,Pyewipe (Grimsby) STW,,528280.0,413140.0,Lincolnshire and Northamptonshire,Controlled Waters,Fluoranthene,0.1,0.13,Water Industry,Water Industry,,53.599134825406814,-0.06300357585157099,
016940144,,UNITED UTILITIES WATER PLC,ECCLES,,374960.0,397150.0,Greater Manchester Merseyside and Cheshire,Controlled Waters,Fluoranthene,0.1,0.12,Water Industry,Water Industry,,53.47048388729303,-2.3786875230934386,North West
017670049,,UNITED UTILITIES WATER PLC,CARLISLE WILLOWHOLME INDUSTRIAL ESTATE CARLISLE CUMBRIA,CA2 5SH,338470.0,556520.0,Cumbria and Lancashire,Controlled Waters,Fluoranthene,0.1,0.12,Water Industry,Water Industry,,54.89959994285756,-2.960999993430974,North West
CTCR.1340,,THAMES WATER UTILITIES LTD,CRAWLEY STW,RH10 3NW,528800.0,140200.0,"Kent, South London and East Sussex",Controlled Waters,Fluoranthene,0.1,0.12,Water Industry,Water Industry,,51.14658044206405,-0.16000559745613768,South East
300454,,SOUTH WEST WATER LTD,Plymouth Central STW,PL4 OPX,249800.0,53930.0,"Devon, Cornwall and the Isles of Scilly",Controlled Waters,Fluoranthene,0.1,0.12,Water Industry,Water Industry,,50.36605365411117,-4.1132599121048035,South West
CNTD.0024,,THAMES WATER UTILITIES LTD,CAMBERLEY STW,GU15 3DE,485800.0,159500.0,Thames,Controlled Waters,Fluoranthene,0.1,0.12,Water Industry,Water Industry,,51.32813662985067,-0.7699431370528544,South East
A857/S/P/98,,Southern Water,Bexhill & Hastings STW,TN32 8AY,577300.0,109200.0,Solent and South Downs,Controlled Waters,Fluoranthene,0.1,0.12,Water Industry,Water Industry,,50.85513773720249,0.5176207779836519,South East
A1112/K/00,,Southern Water,"Broomfield Bank WTW, Folkestone Road, Church Hougham, Dover, Kent",CT15 7AB,628500.0,140100.0,"Kent, South London and East Sussex",Controlled Waters,Fluoranthene,0.1,0.11,Water Industry,Water Industry,,51.114608629871924,1.2633435941591,South East
S/13/25443/R,,SEVERN TRENT WATER LTD,Warwick STW,CV34 6QW,427770.0,262900.0,West Midlands,Controlled Waters,Fluoranthene,0.1,0.11,Water Industry,Water Industry,,52.263566941302074,-1.594524975099739,West Midlands
S/20/25430/R,,SEVERN TRENT WATER LTD,Cheltenham STW,GL51 0TH,389930.0,224860.0,West Midlands,Controlled Waters,Fluoranthene,0.1,0.11,Water Industry,Water Industry,,51.92216852088476,-2.147834358765615,South West
A1106/S/P/99,,Southern Water,Langley Point STW - Eastbourne,BN21 1SA,564120.0,100950.0,Solent and South Downs,Controlled Waters,Fluoranthene,0.1,0.11,Water Industry,Water Industry,,50.78489824292885,0.3268494282698041,South East
A1107/S/CH/99,,Southern Water,East Worthing STW,BN11 2SA,516930.0,103610.0,Solent and South Downs,Controlled Waters,Fluoranthene,0.1,0.11,Water Industry,Water Industry,,50.82023809902321,-0.3413847912627039,South East
S/07/56066/R,,SEVERN TRENT WATER LTD,Worcester STW,WR2 4ZP,384361.0,253530.0,West Midlands,Controlled Waters,Fluoranthene,0.1,0.1,Water Industry,Water Industry,,52.17979766833557,-2.2301339588886964,West Midlands
100334,,Wessex Water,WESTON SUPER MARE STW,BS24 0AP,331100.0,156900.0,Wessex,Controlled Waters,Fluoranthene,0.1,0.1,Water Industry,Water Industry,,51.30702900915634,-2.989811329637559,South West
CNTW.0890,,Anglian Water,BASILDON,,573700.0,187400.0,East Anglia,Controlled Waters,Fluoranthene,0.1,0.1,Water Industry,Water Industry,,51.55873510304531,0.5043570910085773,
A.787/S/CH/97,,Southern Water,Ford (Bognor/Littlehampton) STW,BN18 0HY,499490.0,103030.0,Solent and South Downs,Controlled Waters,Fluoranthene,0.1,0.1,Water Industry,Water Industry,,50.81827977333457,-0.5890396595351772,South East
ANNNF2073,,Anglian Water,Lincoln(Canwick) STW,,499810.0,370880.0,Lincolnshire and Northamptonshire,Controlled Waters,Fluoranthene,0.1,0.1,Water Industry,Water Industry,,53.225598232515246,-0.5063982784808474,East Midlands
VP3137QZ,DISPOSAL OF > 50 T/D NON-HAZARDOUS WASTE (> 100 T/D IF ONLY AD) INVOLVING BIOLOGICAL TREATMENT,Wooltex UK Limited,Woodland Mill Dale Street Longwood Huddersfield Kirklees,HD3 4TG,411170.0,416440.0,Yorkshire,Wastewater,Cypermethrin,0.005,0.0553,Paper and textiles,Textiles,1.3e-05,53.644352589123514,-1.8325112330229427,Yorkshire and The Humber
EP3431FL,"PAPER, PULP AND BOARD; PRODUCING PAPER/BOARD >20T/D",Higher Kings Mill Limited,Higher Kings Mill Devon,EX15 1QJ,303100.0,108190.0,"Devon, Cornwall and the Isles of Scilly",Controlled Waters,Cypermethrin,0.005,0.0419,Paper and textiles,Paper & Pulp,1.3e-05,50.865067701844225,-3.3783060580514905,South West
AP3138CM,RECOVERY OR A MIX OF RECOVERY AND DISPOSAL OF > 50 T/D NON-HAZARDOUS WASTE (> 100 T/D IF ONLY AD) INVOLVING BIOLOGICAL TREATMENT,Urbaser Environmental Limited,Courtauld Road Waste Treatment Facility Courtauld Road Essex,SS3 1FL,574250.0,190810.0,East Anglia,Wastewater,"Indeno(1,2,3-cd)pyrene",1.0,0.04,Biowaste Treatment,Biowaste Treatment,,51.58919659535252,0.5139731026569887,East of England
AP3138CM,RECOVERY OR A MIX OF RECOVERY AND DISPOSAL OF > 50 T/D NON-HAZARDOUS WASTE (> 100 T/D IF ONLY AD) INVOLVING BIOLOGICAL TREATMENT,Urbaser Environmental Limited,Courtauld Road Waste Treatment Facility Courtauld Road Essex,SS3 1FL,574250.0,190810.0,East Anglia,Wastewater,Benzo(a)pyrene,1.0,0.04,Biowaste Treatment,Biowaste Treatment,,51.58919659535252,0.5139731026569887,East of England
AP3138CM,RECOVERY OR A MIX OF RECOVERY AND DISPOSAL OF > 50 T/D NON-HAZARDOUS WASTE (> 100 T/D IF ONLY AD) INVOLVING BIOLOGICAL TREATMENT,Urbaser Environmental Limited,Courtauld Road Waste Treatment Facility Courtauld Road Essex,SS3 1FL,574250.0,190810.0,East Anglia,Wastewater,Fluoranthene,0.1,0.04,Biowaste Treatment,Biowaste Treatment,,51.58919659535252,0.5139731026569887,East of England
BP3530RC,"COATING, PRINTING AND TEXTILES; PRE-TREATING BY WASHING ETC >10T/DAY",Harrison Gardner Dyers and Winders Limited,Royds Hall Lane Site Buttershaw Bradford,BD6 2NE,414300.0,429150.0,Yorkshire,Wastewater,Cypermethrin,0.005,0.036,Paper and textiles,Textiles,1.3e-05,53.75851505830772,-1.7845835965070347,Yorkshire and The Humber
QP3538XB,"COATING, PRINTING AND TEXTILES; PRE-TREATING BY WASHING ETC >10T/DAY",W.T.Johnson and Sons (Huddersfield) Ltd,Bankfield Mills Wakefield Road Moldgreen West Yorkshire,HD5 9BB,415560.0,416260.0,Yorkshire,Wastewater,Cypermethrin,0.005,0.0292,Paper and textiles,Textiles,1.3e-05,53.64262356653264,-1.7661151285136858,Yorkshire and The Humber
GP3134HG,"COATING, PRINTING AND TEXTILES; PRE-TREATING BY WASHING ETC >10T/DAY",Westex (Carpets) Limited,Calder Bank Mills Calder Bank Road,WF12 9QW,404230.0,404200.0,Yorkshire,Wastewater,Cypermethrin,0.005,0.024,Paper and textiles,Textiles,1.3e-05,53.53443682817512,-1.937650846092271,North West
NP3032WQ,"COATING, PRINTING AND TEXTILES; PRE-TREATING BY WASHING ETC >10T/DAY",Huddersfield Dyeing Company Limited,Canal Bank Dyeworks Canal Street Leeds Road West Yorkshire,HD1 6NY,415180.0,417860.0,Yorkshire,Wastewater,Cypermethrin,0.005,0.0198,Paper and textiles,Textiles,1.3e-05,53.65701561624113,-1.771785386059623,Yorkshire and The Humber
BR5035IT,"COATING, PRINTING AND TEXTILES; PRE-TREATING BY WASHING ETC >10T/DAY",Calder Textiles Limited,ANCHOR HOUSE DEWSBURY MILLS THORNHILL ROAD WEST YORKSHIRE,WF12 9QE,424000.0,420500.0,Yorkshire,Wastewater,Cypermethrin,0.005,0.01,Paper and textiles,Textiles,1.3e-05,53.68041544900611,-1.638128447226507,Yorkshire and The Humber
BK0205IE,"PAPER, PULP AND BOARD; PRODUCING PAPER/BOARD >20T/D",Essity UK Limited,PRUDHOE MILL PRINCESS WAY NORTHUMBERLAND,NE42 6HE,409470.0,563760.0,North East,Controlled Waters,Cypermethrin,0.005,0.0077,Paper and textiles,Paper & Pulp,1.3e-05,54.968374615253325,-1.853610607877221,North East
YP3536JE,"PAPER, PULP AND BOARD; PRODUCING PULP FROM TIMBER ETC",Portals De La Rue Ltd,Overton Mill Station Road Hampshire,RG25 3JG,451900.0,151000.0,"Kent, South London and East Sussex",Controlled Waters,Cypermethrin,0.005,0.0054,Paper and textiles,Paper & Pulp,1.3e-05,51.25581054405935,-1.2576668767203043,South East
