AUTHORISATION ID / PERMIT ID,ACTIVITY DESCRIPTION,OPERATOR NAME,SITE ADDRESS,SITE POSTCODE,EASTING,NORTHING,EA AREA NAME,ROUTE NAME,SUBSTANCE NAME,REPORTING THRESHOLD (kg),QUANTITY RELEASED (kg),REGULATED INDUSTRY SECTOR,REGULATED INDUSTRY SUB SECTOR,PNEC (??g/L),Latitude,Longitude,REGION
ANNNF2073,,Anglian Water,Lincoln(Canwick) STW,,499810,370880,Lincolnshire and Northamptonshire,Controlled Waters,Fluoranthene,0.1,0.11,Water Industry,Water Industry,,53.22559823,-0.506398278,East Midlands
ANNNF2073,,Anglian Water,Lincoln(Canwick) STW,,499810,370880,Lincolnshire and Northamptonshire,Controlled Waters,Benzo(a)pyrene,1,0,Water Industry,Water Industry,,53.22559823,-0.506398278,East Midlands
ANNNF2073,,Anglian Water,Lincoln(Canwick) STW,,499810,370880,Lincolnshire and Northamptonshire,Controlled Waters,"Indeno(1,2,3-cd)pyrene",1,0,Water Industry,Water Industry,,53.22559823,-0.506398278,East Midlands
AW5NF5179,,Anglian Water,Corby STW,,490600,288900,Lincolnshire and Northamptonshire,Controlled Waters,Benzo(a)pyrene,1,0,Water Industry,Water Industry,,52.4905002,-0.667077027,East Midlands
AW5NF5179,,Anglian Water,Corby STW,,490600,288900,Lincolnshire and Northamptonshire,Controlled Waters,Fluoranthene,0.1,0,Water Industry,Water Industry,,52.4905002,-0.667077027,East Midlands
AW5NF5179,,Anglian Water,Corby STW,,490600,288900,Lincolnshire and Northamptonshire,Controlled Waters,"Indeno(1,2,3-cd)pyrene",1,0,Water Industry,Water Industry,,52.4905002,-0.667077027,East Midlands
AWNNF13052,,Anglian Water,Great Billing STW,,483280,261550,Lincolnshire and Northamptonshire,Controlled Waters,"Indeno(1,2,3-cd)pyrene",1,1.37,Water Industry,Water Industry,,52.24584109,-0.78163915,East Midlands
AWNNF13052,,Anglian Water,Great Billing STW,,483280,261550,Lincolnshire and Northamptonshire,Controlled Waters,Benzo(a)pyrene,1,1.06,Water Industry,Water Industry,,52.24584109,-0.78163915,East Midlands
AWNNF13052,,Anglian Water,Great Billing STW,,483280,261550,Lincolnshire and Northamptonshire,Controlled Waters,Fluoranthene,0.1,0.24,Water Industry,Water Industry,,52.24584109,-0.78163915,East Midlands
AWNNF13399,,Anglian Water,Broadholme STW,,494150,268750,Lincolnshire and Northamptonshire,Controlled Waters,"Indeno(1,2,3-cd)pyrene",1,1.06,Water Industry,Water Industry,,52.3088025,-0.620468401,East Midlands
AWNNF13399,,Anglian Water,Broadholme STW,,494150,268750,Lincolnshire and Northamptonshire,Controlled Waters,Fluoranthene,0.1,0.19,Water Industry,Water Industry,,52.3088025,-0.620468401,East Midlands
AWNNF13399,,Anglian Water,Broadholme STW,,494150,268750,Lincolnshire and Northamptonshire,Controlled Waters,Benzo(a)pyrene,1,0,Water Industry,Water Industry,,52.3088025,-0.620468401,East Midlands
BJ6780IL,"PAPER, PULP AND BOARD; PRODUCING PAPER/BOARD >20T/D",SOFIDEL UK LIMITED,Leicester Paper Mill Waterside Road,LE5 1TZ,462610,307790,East Midlands,Wastewater,Cypermethrin,0.005,0,Paper and textiles,Paper & Pulp,1.30E-05,52.66422018,-1.075677928,East Midlands
BW0991IX,"WASTE LANDFILLING; >10 T/D WITH CAPACITY >25,000T EXCLUDING INERT WASTE",Viridor Limited,Erin Landfill Markham Lane Duckmanton Chesterfield Derbyshire,S44 5HS,444900,373000,Yorkshire,Wastewater,Fluoranthene,0.1,0,Landfill,Non Hazardous Landfill,,53.2521202,-1.328500562,East Midlands
BW2986IW,"WASTE LANDFILLING; >10 T/D WITH CAPACITY >25,000T EXCLUDING INERT WASTE",Lincwaste Limited,North Hykeham Landfill Site Whisby Road Skellingthorpe Lincoln Lincolnshire,LN6 3QZ,493050,367630,Lincolnshire and Northamptonshire,Wastewater,Fluoranthene,0.1,0,Landfill,Non Hazardous Landfill,,53.19761858,-0.608569312,East Midlands
CP3899SD,DISPOSAL OR RECOVERY OF HAZARDOUS WASTE WITH A CAPACITY EXCEEDING 10 TONNES PER DAY INVOLVING BIOLOGICAL TREATMENT,Environcom England Limited,Spittlegate Level Spittlegate Level Lincolnshire,NG31 7UH,491940,333440,Lincolnshire and Northamptonshire,Wastewater,Benzo(a)pyrene,1,0,Waste Treatment,Metals Recycling,,52.89056205,-0.634920759,East Midlands
CP3899SD,DISPOSAL OR RECOVERY OF HAZARDOUS WASTE WITH A CAPACITY EXCEEDING 10 TONNES PER DAY INVOLVING BIOLOGICAL TREATMENT,Environcom England Limited,Spittlegate Level Spittlegate Level Lincolnshire,NG31 7UH,491940,333440,Lincolnshire and Northamptonshire,Wastewater,Cypermethrin,0.005,0,Waste Treatment,Metals Recycling,1.30E-05,52.89056205,-0.634920759,East Midlands
CP3899SD,DISPOSAL OR RECOVERY OF HAZARDOUS WASTE WITH A CAPACITY EXCEEDING 10 TONNES PER DAY INVOLVING BIOLOGICAL TREATMENT,Environcom England Limited,Spittlegate Level Spittlegate Level Lincolnshire,NG31 7UH,491940,333440,Lincolnshire and Northamptonshire,Wastewater,Fluoranthene,0.1,0,Waste Treatment,Metals Recycling,,52.89056205,-0.634920759,East Midlands
CP3899SD,DISPOSAL OR RECOVERY OF HAZARDOUS WASTE WITH A CAPACITY EXCEEDING 10 TONNES PER DAY INVOLVING BIOLOGICAL TREATMENT,Environcom England Limited,Spittlegate Level Spittlegate Level Lincolnshire,NG31 7UH,491940,333440,Lincolnshire and Northamptonshire,Wastewater,Heptachlor,0.1,0,Waste Treatment,Metals Recycling,,52.89056205,-0.634920759,East Midlands
CP3899SD,DISPOSAL OR RECOVERY OF HAZARDOUS WASTE WITH A CAPACITY EXCEEDING 10 TONNES PER DAY INVOLVING BIOLOGICAL TREATMENT,Environcom England Limited,Spittlegate Level Spittlegate Level Lincolnshire,NG31 7UH,491940,333440,Lincolnshire and Northamptonshire,Wastewater,"Indeno(1,2,3-cd)pyrene",1,0,Waste Treatment,Metals Recycling,,52.89056205,-0.634920759,East Midlands
KP3403PD,LOADING/STORAGE/TREATMENT ETC OF CRUDE OIL,Phillips 66 Limited,"Crude Oil terminals Ltd,Tetney Oil Terminal Tetney Lock Road Tetney Grimsby Lincolnshire",DN36 5NX,532830,402210,Lincolnshire and Northamptonshire,Controlled Waters,Benzo(a)pyrene,1,0,Refineries & Fuel,Refineries & Fuel,,53.49982028,0.00106907,East Midlands
KP3403PD,LOADING/STORAGE/TREATMENT ETC OF CRUDE OIL,Phillips 66 Limited,"Crude Oil terminals Ltd,Tetney Oil Terminal Tetney Lock Road Tetney Grimsby Lincolnshire",DN36 5NX,532830,402210,Lincolnshire and Northamptonshire,Controlled Waters,Fluoranthene,0.1,0,Refineries & Fuel,Refineries & Fuel,,53.49982028,0.00106907,East Midlands
KP3403PD,LOADING/STORAGE/TREATMENT ETC OF CRUDE OIL,Phillips 66 Limited,"Crude Oil terminals Ltd,Tetney Oil Terminal Tetney Lock Road Tetney Grimsby Lincolnshire",DN36 5NX,532830,402210,Lincolnshire and Northamptonshire,Controlled Waters,"Indeno(1,2,3-cd)pyrene",1,0,Refineries & Fuel,Refineries & Fuel,,53.49982028,0.00106907,East Midlands
PP3630BC,"WASTE LANDFILLING; >10 T/D WITH CAPACITY >25,000T EXCLUDING INERT WASTE",Lincwaste Ltd,Kenwick Landfill London Road Lincolnshire,LN11 9QP,533110,386420,Lincolnshire and Northamptonshire,Controlled Waters,Benzo(a)pyrene,1,0,Landfill,Non Hazardous Landfill,,53.35790763,-0.001378729,East Midlands
PP3630BC,"WASTE LANDFILLING; >10 T/D WITH CAPACITY >25,000T EXCLUDING INERT WASTE",Lincwaste Ltd,Kenwick Landfill London Road Lincolnshire,LN11 9QP,533110,386420,Lincolnshire and Northamptonshire,Controlled Waters,Fluoranthene,0.1,0,Landfill,Non Hazardous Landfill,,53.35790763,-0.001378729,East Midlands
PP3630BC,"WASTE LANDFILLING; >10 T/D WITH CAPACITY >25,000T EXCLUDING INERT WASTE",Lincwaste Ltd,Kenwick Landfill London Road Lincolnshire,LN11 9QP,533110,386420,Lincolnshire and Northamptonshire,Controlled Waters,"Indeno(1,2,3-cd)pyrene",1,0,Landfill,Non Hazardous Landfill,,53.35790763,-0.001378729,East Midlands
T/48/12074/R,,SEVERN TRENT WATER LTD,Derby Sewage Treatment Works Chp Plant Megaloughton Lane Spondon Derby Derbyshire,DE21 7BR,438830,343470,East Midlands,Controlled Waters,"Indeno(1,2,3-cd)pyrene",1,1.89,Water Industry,Water Industry,,52.98716657,-1.423035169,East Midlands
T/48/12074/R,,SEVERN TRENT WATER LTD,Derby Sewage Treatment Works Chp Plant Megaloughton Lane Spondon Derby Derbyshire,DE21 7BR,438830,343470,East Midlands,Controlled Waters,Benzo(a)pyrene,1,1.46,Water Industry,Water Industry,,52.98716657,-1.423035169,East Midlands
T/48/12074/R,,SEVERN TRENT WATER LTD,Derby Sewage Treatment Works Chp Plant Megaloughton Lane Spondon Derby Derbyshire,DE21 7BR,438830,343470,East Midlands,Controlled Waters,Fluoranthene,0.1,0.33,Water Industry,Water Industry,,52.98716657,-1.423035169,East Midlands
T/53/45014/R,,SEVERN TRENT WATER LTD,Wanlip Sewage Treatment Works Fillingate Wanlip Leicester Leicestershire,LE7 4PF,459760,311500,East Midlands,Controlled Waters,"Indeno(1,2,3-cd)pyrene",1,2.99,Water Industry,Water Industry,,52.69788886,-1.117140761,East Midlands
T/53/45014/R,,SEVERN TRENT WATER LTD,Wanlip Sewage Treatment Works Fillingate Wanlip Leicester Leicestershire,LE7 4PF,459760,311500,East Midlands,Controlled Waters,Benzo(a)pyrene,1,2.31,Water Industry,Water Industry,,52.69788886,-1.117140761,East Midlands
T/53/45014/R,,SEVERN TRENT WATER LTD,Wanlip Sewage Treatment Works Fillingate Wanlip Leicester Leicestershire,LE7 4PF,459760,311500,East Midlands,Controlled Waters,Fluoranthene,0.1,0.53,Water Industry,Water Industry,,52.69788886,-1.117140761,East Midlands
T/64/45170/R,,SEVERN TRENT WATER LTD,Stoke Bardolph STW Nottingham,NG14 5HL,464730,342220,East Midlands,Controlled Waters,"Indeno(1,2,3-cd)pyrene",1,3.16,Water Industry,Water Industry,,52.97343473,-1.037524955,East Midlands
T/64/45170/R,,SEVERN TRENT WATER LTD,Stoke Bardolph STW Nottingham,NG14 5HL,464730,342220,East Midlands,Controlled Waters,Benzo(a)pyrene,1,2.44,Water Industry,Water Industry,,52.97343473,-1.037524955,East Midlands
T/64/45170/R,,SEVERN TRENT WATER LTD,Stoke Bardolph STW Nottingham,NG14 5HL,464730,342220,East Midlands,Controlled Waters,Fluoranthene,0.1,0.55,Water Industry,Water Industry,,52.97343473,-1.037524955,East Midlands
VP3130BK,"WASTE LANDFILLING; >10 T/D WITH CAPACITY >25,000T EXCLUDING INERT WASTE",ALAB ENVIRONMENTAL SERVICES LIMITED,NETTLETON BOTTOM QUARRY Rothwell Lincolnshire,LN7 6SR,512730,397880,Lincolnshire and Northamptonshire,Controlled Waters,Benzo(a)pyrene,1,0,Landfill,Non Hazardous Landfill,,53.46560447,-0.303351536,East Midlands
VP3130BK,"WASTE LANDFILLING; >10 T/D WITH CAPACITY >25,000T EXCLUDING INERT WASTE",ALAB ENVIRONMENTAL SERVICES LIMITED,NETTLETON BOTTOM QUARRY Rothwell Lincolnshire,LN7 6SR,512730,397880,Lincolnshire and Northamptonshire,Controlled Waters,Cypermethrin,0.005,0,Landfill,Non Hazardous Landfill,1.30E-05,53.46560447,-0.303351536,East Midlands
VP3130BK,"WASTE LANDFILLING; >10 T/D WITH CAPACITY >25,000T EXCLUDING INERT WASTE",ALAB ENVIRONMENTAL SERVICES LIMITED,NETTLETON BOTTOM QUARRY Rothwell Lincolnshire,LN7 6SR,512730,397880,Lincolnshire and Northamptonshire,Controlled Waters,Fluoranthene,0.1,0,Landfill,Non Hazardous Landfill,,53.46560447,-0.303351536,East Midlands
VP3130BK,"WASTE LANDFILLING; >10 T/D WITH CAPACITY >25,000T EXCLUDING INERT WASTE",ALAB ENVIRONMENTAL SERVICES LIMITED,NETTLETON BOTTOM QUARRY Rothwell Lincolnshire,LN7 6SR,512730,397880,Lincolnshire and Northamptonshire,Controlled Waters,Heptachlor,0.1,0,Landfill,Non Hazardous Landfill,,53.46560447,-0.303351536,East Midlands
VP3130BK,"WASTE LANDFILLING; >10 T/D WITH CAPACITY >25,000T EXCLUDING INERT WASTE",ALAB ENVIRONMENTAL SERVICES LIMITED,NETTLETON BOTTOM QUARRY Rothwell Lincolnshire,LN7 6SR,512730,397880,Lincolnshire and Northamptonshire,Controlled Waters,"Indeno(1,2,3-cd)pyrene",1,0,Landfill,Non Hazardous Landfill,,53.46560447,-0.303351536,East Midlands
XP3298NJ,"WASTE LANDFILLING; >10 T/D WITH CAPACITY >25,000T EXCLUDING INERT WASTE",Lincwaste Limited,Boston Landfill SLIPPERY GOWT LANE WYBERTON LINCOLNSHIRE,PE21 7AA,534500,341500,Lincolnshire and Northamptonshire,Controlled Waters,Benzo(a)pyrene,1,0,Landfill,Non Hazardous Landfill,,52.95402221,0.000639891,East Midlands
XP3298NJ,"WASTE LANDFILLING; >10 T/D WITH CAPACITY >25,000T EXCLUDING INERT WASTE",Lincwaste Limited,Boston Landfill SLIPPERY GOWT LANE WYBERTON LINCOLNSHIRE,PE21 7AA,534500,341500,Lincolnshire and Northamptonshire,Controlled Waters,Fluoranthene,0.1,0,Landfill,Non Hazardous Landfill,,52.95402221,0.000639891,East Midlands
ZP3009BB,"PAPER, PULP AND BOARD; PRODUCING PAPER/BOARD >20T/D",Northwood Tissue (Chesterfield) Ltd,Chesterfield Paper Mill Goyt Side Road Derbyshire,S40 2PH,436850,370600,Yorkshire,Wastewater,Cypermethrin,0.005,0,Paper and textiles,Paper & Pulp,1.30E-05,53.23116628,-1.449423475,East Midlands
AEETS12128,,Anglian Water,Cliff Quay(Ipswich) STW,,617200,241900,East Anglia,Controlled Waters,Fluoranthene,0.1,0.1,Water Industry,Water Industry,,52.03294922,1.16506007,East of England
AEETS12128,,Anglian Water,Cliff Quay(Ipswich) STW,,617200,241900,East Anglia,Controlled Waters,Benzo(a)pyrene,1,0,Water Industry,Water Industry,,52.03294922,1.16506007,East of England
AEETS12128,,Anglian Water,Cliff Quay(Ipswich) STW,,617200,241900,East Anglia,Controlled Waters,"Indeno(1,2,3-cd)pyrene",1,0,Water Industry,Water Industry,,52.03294922,1.16506007,East of England
AP3634FT,TREATMENT AND PROCESSING (OTHER THAN PACKAGING) OF ONLY VEGETABLE RAW MATERIALS WITH A FINISHED PRODUCT CAPACITY > 300 T/D (OR 600 T/D FOR OPERATIONS LESS THAN 90 CONSECUTIVE DAYS IN ANY YEAR_,Princes Limited,Food Factory Lynn Road Wisbech Lynn Road Wisbech Cambridgeshire,PE13 3DG,546900,310500,Lincolnshire and Northamptonshire,Wastewater,Cypermethrin,0.005,0,Food & Drink,Food & Drink,1.30E-05,52.67230218,0.171155241,East of England
AP3634FT,TREATMENT AND PROCESSING (OTHER THAN PACKAGING) OF ONLY VEGETABLE RAW MATERIALS WITH A FINISHED PRODUCT CAPACITY > 300 T/D (OR 600 T/D FOR OPERATIONS LESS THAN 90 CONSECUTIVE DAYS IN ANY YEAR_,Princes Limited,Food Factory Lynn Road Wisbech Lynn Road Wisbech Cambridgeshire,PE13 3DG,546900,310500,Lincolnshire and Northamptonshire,Wastewater,Heptachlor,0.1,0,Food & Drink,Food & Drink,,52.67230218,0.171155241,East of England
ASCNF1033,,Anglian Water,Cambridge STW,,548350,261540,East Anglia,Controlled Waters,Fluoranthene,0.1,0.15,Water Industry,Water Industry,,52.23207646,0.170841174,East of England
ASCNF1033,,Anglian Water,Cambridge STW,,548350,261540,East Anglia,Controlled Waters,Benzo(a)pyrene,1,0,Water Industry,Water Industry,,52.23207646,0.170841174,East of England
ASCNF1033,,Anglian Water,Cambridge STW,,548350,261540,East Anglia,Controlled Waters,"Indeno(1,2,3-cd)pyrene",1,0,Water Industry,Water Industry,,52.23207646,0.170841174,East of England
ASETS1046,,Anglian Water,Colchester(Haven) STW,,602250,223620,East Anglia,Controlled Waters,Benzo(a)pyrene,1,0,Water Industry,Water Industry,,51.87446424,0.936681821,East of England
ASETS1046,,Anglian Water,Colchester(Haven) STW,,602250,223620,East Anglia,Controlled Waters,Fluoranthene,0.1,0,Water Industry,Water Industry,,51.87446424,0.936681821,East of England
ASETS1046,,Anglian Water,Colchester(Haven) STW,,602250,223620,East Anglia,Controlled Waters,"Indeno(1,2,3-cd)pyrene",1,0,Water Industry,Water Industry,,51.87446424,0.936681821,East of England
AW1NF2460,,Anglian Water,Bedford STW,,508500,249600,East Anglia,Controlled Waters,Fluoranthene,0.1,0.14,Water Industry,Water Industry,,52.13405864,-0.416204867,East of England
AW1NF2460,,Anglian Water,Bedford STW,,508500,249600,East Anglia,Controlled Waters,Benzo(a)pyrene,1,0,Water Industry,Water Industry,,52.13405864,-0.416204867,East of England
AW1NF2460,,Anglian Water,Bedford STW,,508500,249600,East Anglia,Controlled Waters,"Indeno(1,2,3-cd)pyrene",1,0,Water Industry,Water Industry,,52.13405864,-0.416204867,East of England
AW2TSE9961-2,,Anglian Water,Chelmsford(Brookend) STW,,584000,208200,East Anglia,Controlled Waters,Fluoranthene,0.1,0.11,Water Industry,Water Industry,,51.74228839,0.663708692,East of England
AW2TSE9961-2,,Anglian Water,Chelmsford(Brookend) STW,,584000,208200,East Anglia,Controlled Waters,Benzo(a)pyrene,1,0,Water Industry,Water Industry,,51.74228839,0.663708692,East of England
AW2TSE9961-2,,Anglian Water,Chelmsford(Brookend) STW,,584000,208200,East Anglia,Controlled Waters,"Indeno(1,2,3-cd)pyrene",1,0,Water Industry,Water Industry,,51.74228839,0.663708692,East of England
AW4TF1789,,Anglian Water,Whitlingham(Norwich) STW,,627800,307700,East Anglia,Controlled Waters,"Indeno(1,2,3-cd)pyrene",1,1.28,Water Industry,Water Industry,,52.61924889,1.363855621,East of England
AW4TF1789,,Anglian Water,Whitlingham(Norwich) STW,,627800,307700,East Anglia,Controlled Waters,Fluoranthene,0.1,0.22,Water Industry,Water Industry,,52.61924889,1.363855621,East of England
AW4TF1789,,Anglian Water,Whitlingham(Norwich) STW,,627800,307700,East Anglia,Controlled Waters,Benzo(a)pyrene,1,0,Water Industry,Water Industry,,52.61924889,1.363855621,East of England
AW5NF5178,,Anglian Water,Flag Fen STW,,522140,298140,Lincolnshire and Northamptonshire,Controlled Waters,"Indeno(1,2,3-cd)pyrene",1,1.17,Water Industry,Water Industry,,52.56738396,-0.199381261,East of England
AW5NF5178,,Anglian Water,Flag Fen STW,,522140,298140,Lincolnshire and Northamptonshire,Controlled Waters,Fluoranthene,0.1,0.21,Water Industry,Water Industry,,52.56738396,-0.199381261,East of England
AW5NF5178,,Anglian Water,Flag Fen STW,,522140,298140,Lincolnshire and Northamptonshire,Controlled Waters,Benzo(a)pyrene,1,0,Water Industry,Water Industry,,52.56738396,-0.199381261,East of England
CASM.0340,,Anglian Water,SOUTHEND ON SEA STW,,581900,190600,East Anglia,Controlled Waters,"Indeno(1,2,3-cd)pyrene",1,1.02,Water Industry,Water Industry,,51.58489477,0.624173135,East of England
CASM.0340,,Anglian Water,SOUTHEND ON SEA STW,,581900,190600,East Anglia,Controlled Waters,Fluoranthene,0.1,0.18,Water Industry,Water Industry,,51.58489477,0.624173135,East of England
CASM.0340,,Anglian Water,SOUTHEND ON SEA STW,,581900,190600,East Anglia,Controlled Waters,Benzo(a)pyrene,1,0,Water Industry,Water Industry,,51.58489477,0.624173135,East of England
CLCR.0048,,THAMES WATER UTILITIES LTD,Rye Meads Combined Heat And Power Plant Off Rye Road Stanstead Abbotts Hertfordshire,SG12 8JY,539260,210400,Hertfordshire and North London,Controlled Waters,"Indeno(1,2,3-cd)pyrene",1,1.698,Water Industry,Water Industry,,51.77495262,0.017064529,East of England
CLCR.0048,,THAMES WATER UTILITIES LTD,Rye Meads Combined Heat And Power Plant Off Rye Road Stanstead Abbotts Hertfordshire,SG12 8JY,539260,210400,Hertfordshire and North London,Controlled Waters,Benzo(a)pyrene,1,1.319,Water Industry,Water Industry,,51.77495262,0.017064529,East of England
CLCR.0048,,THAMES WATER UTILITIES LTD,Rye Meads Combined Heat And Power Plant Off Rye Road Stanstead Abbotts Hertfordshire,SG12 8JY,539260,210400,Hertfordshire and North London,Controlled Waters,Fluoranthene,0.1,0.2997,Water Industry,Water Industry,,51.77495262,0.017064529,East of England
CNTD.0071,,THAMES WATER UTILITIES LTD,MAPLE LODGE STW,WD3 9SQ,504200,192000,Hertfordshire and North London,Controlled Waters,"Indeno(1,2,3-cd)pyrene",1,1.42,Water Industry,Water Industry,,51.61719086,-0.496372735,East of England
CNTD.0071,,THAMES WATER UTILITIES LTD,MAPLE LODGE STW,WD3 9SQ,504200,192000,Hertfordshire and North London,Controlled Waters,Benzo(a)pyrene,1,1.1,Water Industry,Water Industry,,51.61719086,-0.496372735,East of England
CNTD.0071,,THAMES WATER UTILITIES LTD,MAPLE LODGE STW,WD3 9SQ,504200,192000,Hertfordshire and North London,Controlled Waters,Fluoranthene,0.1,0.2506,Water Industry,Water Industry,,51.61719086,-0.496372735,East of England
CNTD.0084,,THAMES WATER UTILITIES LTD,LUTON STW,LU1 5TS,512300,217800,Hertfordshire and North London,Controlled Waters,Fluoranthene,0.1,0.1308,Water Industry,Water Industry,,51.8475121,-0.371113535,East of England
CNTW.0531,,Anglian Water,TILBURY STW,,565670,175350,East Anglia,Controlled Waters,Fluoranthene,0.1,0.11,Water Industry,Water Industry,,51.45289581,0.382973138,East of England
CNTW.0531,,Anglian Water,TILBURY STW,,565670,175350,East Anglia,Controlled Waters,Benzo(a)pyrene,1,0,Water Industry,Water Industry,,51.45289581,0.382973138,East of England
CNTW.0531,,Anglian Water,TILBURY STW,,565670,175350,East Anglia,Controlled Waters,"Indeno(1,2,3-cd)pyrene",1,0,Water Industry,Water Industry,,51.45289581,0.382973138,East of England
DP3439AZ,"WASTE LANDFILLING; >10 T/D WITH CAPACITY >25,000T EXCLUDING INERT WASTE",Norfolk County Council,Edgefield Landfill Site Holt Road Off B1149 Holt Norfolk,NR24 2RS,608380,335550,East Anglia,Wastewater,Fluoranthene,0.1,0,Landfill,Non Hazardous Landfill,,52.87703774,1.095117247,East of England
DP3938YY,TREATMENT AND PROCESSING (OTHER THAN PACKAGING) OF ONLY VEGETABLE RAW MATERIALS WITH A FINISHED PRODUCT CAPACITY > 300 T/D (OR 600 T/D FOR OPERATIONS LESS THAN 90 CONSECUTIVE DAYS IN ANY YEAR_,Kingsley Beverage Limited,2 Waterworth Road Peterborough,PE7 3AG,514540,294220,Lincolnshire and Northamptonshire,Wastewater,Benzo(a)pyrene,1,0,Food & Drink,Food & Drink,,52.53381049,-0.312808444,East of England
FP3132UE,"PAPER, PULP AND BOARD; PRODUCING PULP FROM TIMBER ETC",Palm Paper Limited,"Former British Sugar Site,Saddlebow Paper Mill Poplar Avenue Kings Lynn Norfolk",PE34 3AL,561200,317800,East Anglia,Controlled Waters,Cypermethrin,0.005,0,Paper and textiles,Paper & Pulp,1.30E-05,52.73380913,0.386030792,East of England
JP3734JP,INORGANIC CHEMICALS; NON METALS ETC EG CALCIUM CARBIDE,Coryton Asset Limited,Thames Enterprise Park Thames Oilport The Manorway Essex,SS17 9LL,575260,182580,East Anglia,Controlled Waters,Benzo(a)pyrene,1,0,Chemicals,Chemicals,,51.51495651,0.524440255,East of England
JP3734JP,INORGANIC CHEMICALS; NON METALS ETC EG CALCIUM CARBIDE,Coryton Asset Limited,Thames Enterprise Park Thames Oilport The Manorway Essex,SS17 9LL,575260,182580,East Anglia,Controlled Waters,Fluoranthene,0.1,0,Chemicals,Chemicals,,51.51495651,0.524440255,East of England
NP3139LM,REFINING MINERAL OILS,Haltermann Carless UK Limited,Harwich Refinery Foster Road Essex,CO12 4SS,622680,232010,East Anglia,Controlled Waters,Benzo(a)pyrene,1,0.04,Refineries & Fuel,Refineries & Fuel,,51.94200212,1.238398514,East of England
NP3139LM,REFINING MINERAL OILS,Haltermann Carless UK Limited,Harwich Refinery Foster Road Essex,CO12 4SS,622680,232010,East Anglia,Controlled Waters,Fluoranthene,0.1,0.04,Refineries & Fuel,Refineries & Fuel,,51.94200212,1.238398514,East of England
NP3497NN,DISPOSAL OF > 50 T/D NON-HAZARDOUS WASTE (> 100 T/D IF ONLY AD) INVOLVING PHYSICO-CHEMICAL TREATMENT ,Viridor Waste (Thames) Limited,Maple Lodge Denham Way Hertfordshire,WD3 9SQ,504200,192280,Hertfordshire and North London,Wastewater,Fluoranthene,0.1,0,Biowaste,Biowaste Treatment,,51.61970755,-0.496289561,East of England
NP3497NN,DISPOSAL OF > 50 T/D NON-HAZARDOUS WASTE (> 100 T/D IF ONLY AD) INVOLVING PHYSICO-CHEMICAL TREATMENT ,Viridor Waste (Thames) Limited,Maple Lodge Denham Way Hertfordshire,WD3 9SQ,504200,192280,Hertfordshire and North London,Wastewater,"Indeno(1,2,3-cd)pyrene",1,0,Biowaste,Biowaste Treatment,,51.61970755,-0.496289561,East of England
PP3135SU,"WASTE LANDFILLING; >10 T/D WITH CAPACITY >25,000T EXCLUDING INERT WASTE",Tarmac Aggregates Limited,Brittons Hall Farm Landfill Site Chignal St James Essex,CM1 4LT,565960,210120,East Anglia,Wastewater,Heptachlor,0.1,0,Landfill,Non Hazardous Landfill,,51.76516491,0.403589133,East of England
SP3436MH,DISPOSAL OF > 50 T/D NON-HAZARDOUS WASTE (> 100 T/D IF ONLY AD) INVOLVING BIOLOGICAL TREATMENT,Alpheus Environmental Limited,Sundon Leachate Treatment Plant Nr Old Park Farm Toddington Bedfordshire,LU5 6HP,503800,228080,East Anglia,Wastewater,Fluoranthene,0.1,0,Landfill,other,,51.94154944,-0.491371446,East of England
VP3838LP,DISPOSAL OR RECOVERY OF HAZARDOUS WASTE WITH A CAPACITY EXCEEDING 10 TONNES PER DAY INVOLVING PHYSICO-CHEMICAL TREATMENT,Oikos Storage Limited,Hole Haven Wharf Haven Road Canvey Island Essex,SS8 0NR,577850,182090,East Anglia,Controlled Waters,Benzo(a)pyrene,1,0,Waste Treatment,Hazardous,,51.50974637,0.561480306,East of England
VP3838LP,DISPOSAL OR RECOVERY OF HAZARDOUS WASTE WITH A CAPACITY EXCEEDING 10 TONNES PER DAY INVOLVING PHYSICO-CHEMICAL TREATMENT,Oikos Storage Limited,Hole Haven Wharf Haven Road Canvey Island Essex,SS8 0NR,577850,182090,East Anglia,Controlled Waters,Cypermethrin,0.005,0,Waste Treatment,Hazardous,1.30E-05,51.50974637,0.561480306,East of England
VP3838LP,DISPOSAL OR RECOVERY OF HAZARDOUS WASTE WITH A CAPACITY EXCEEDING 10 TONNES PER DAY INVOLVING PHYSICO-CHEMICAL TREATMENT,Oikos Storage Limited,Hole Haven Wharf Haven Road Canvey Island Essex,SS8 0NR,577850,182090,East Anglia,Controlled Waters,Fluoranthene,0.1,0,Waste Treatment,Hazardous,,51.50974637,0.561480306,East of England
VP3838LP,DISPOSAL OR RECOVERY OF HAZARDOUS WASTE WITH A CAPACITY EXCEEDING 10 TONNES PER DAY INVOLVING PHYSICO-CHEMICAL TREATMENT,Oikos Storage Limited,Hole Haven Wharf Haven Road Canvey Island Essex,SS8 0NR,577850,182090,East Anglia,Controlled Waters,Heptachlor,0.1,0,Waste Treatment,Hazardous,,51.50974637,0.561480306,East of England
VP3838LP,DISPOSAL OR RECOVERY OF HAZARDOUS WASTE WITH A CAPACITY EXCEEDING 10 TONNES PER DAY INVOLVING PHYSICO-CHEMICAL TREATMENT,Oikos Storage Limited,Hole Haven Wharf Haven Road Canvey Island Essex,SS8 0NR,577850,182090,East Anglia,Controlled Waters,"Indeno(1,2,3-cd)pyrene",1,0,Waste Treatment,Hazardous,,51.50974637,0.561480306,East of England
AEECS12290,,Anglian Water,Caister (Great Yarmouth) STW,,654620,309850,East Anglia,Controlled Waters,Benzo(a)pyrene,1,0,Water Industry,Water Industry,,52.62663561,1.760843273,East of England
AEECS12290,,Anglian Water,Caister (Great Yarmouth) STW,,654620,309850,East Anglia,Controlled Waters,Fluoranthene,0.1,0,Water Industry,Water Industry,,52.62663561,1.760843273,East of England
AEECS12290,,Anglian Water,Caister (Great Yarmouth) STW,,654620,309850,East Anglia,Controlled Waters,"Indeno(1,2,3-cd)pyrene",1,0,Water Industry,Water Industry,,52.62663561,1.760843273,East of England
AENTS13068,,Anglian Water,Wisbech W.Walton STW,,545800,314100,Lincolnshire and Northamptonshire,Controlled Waters,Benzo(a)pyrene,1,0,Water Industry,Water Industry,,52.7049387,0.156492431,East of England
AENTS13068,,Anglian Water,Wisbech W.Walton STW,,545800,314100,Lincolnshire and Northamptonshire,Controlled Waters,Fluoranthene,0.1,0,Water Industry,Water Industry,,52.7049387,0.156492431,East of England
AENTS13068,,Anglian Water,Wisbech W.Walton STW,,545800,314100,Lincolnshire and Northamptonshire,Controlled Waters,"Indeno(1,2,3-cd)pyrene",1,0,Water Industry,Water Industry,,52.7049387,0.156492431,East of England
CNTW.0890,,Anglian Water,BASILDON,,573700,187400,East Anglia,Controlled Waters,Benzo(a)pyrene,1,0,Water Industry,Water Industry,,51.5587351,0.504357091,East of England
CNTW.0890,,Anglian Water,BASILDON,,573700,187400,East Anglia,Controlled Waters,Fluoranthene,0.1,0,Water Industry,Water Industry,,51.5587351,0.504357091,East of England
CNTW.0890,,Anglian Water,BASILDON,,573700,187400,East Anglia,Controlled Waters,"Indeno(1,2,3-cd)pyrene",1,0,Water Industry,Water Industry,,51.5587351,0.504357091,East of England
CASM.0040,,THAMES WATER UTILITIES LTD,HOGSMILL A STW,KT1 3BW,519200,168500,"Kent, South London and East Sussex",Controlled Waters,Fluoranthene,0.1,0.1443,Water Industry,Water Industry,,51.40301333,-0.287753298,London
CNTD.0072,,THAMES WATER UTILITIES LTD,DEEPHAMS STW,N9 0BA,535660,193170,Hertfordshire and North London,Controlled Waters,"Indeno(1,2,3-cd)pyrene",1,3.585,Water Industry,Water Industry,,51.62100913,-0.041776901,London
CNTD.0072,,THAMES WATER UTILITIES LTD,DEEPHAMS STW,N9 0BA,535660,193170,Hertfordshire and North London,Controlled Waters,Benzo(a)pyrene,1,2.77,Water Industry,Water Industry,,51.62100913,-0.041776901,London
CNTD.0072,,THAMES WATER UTILITIES LTD,DEEPHAMS STW,N9 0BA,535660,193170,Hertfordshire and North London,Controlled Waters,Fluoranthene,0.1,0.6271,Water Industry,Water Industry,,51.62100913,-0.041776901,London
CNTD.0085,,THAMES WATER UTILITIES LTD,MOGDEN STW,TW7 7LP,516800,175900,Hertfordshire and North London,Controlled Waters,"Indeno(1,2,3-cd)pyrene",1,7.7,Water Industry,Water Industry,,51.47002109,-0.319801422,London
CNTD.0085,,THAMES WATER UTILITIES LTD,MOGDEN STW,TW7 7LP,516800,175900,Hertfordshire and North London,Controlled Waters,Benzo(a)pyrene,1,5.949,Water Industry,Water Industry,,51.47002109,-0.319801422,London
CNTD.0085,,THAMES WATER UTILITIES LTD,MOGDEN STW,TW7 7LP,516800,175900,Hertfordshire and North London,Controlled Waters,Fluoranthene,0.1,1.354,Water Industry,Water Industry,,51.47002109,-0.319801422,London
CSSA.0360,,THAMES WATER UTILITIES LTD,BECKTON STW,IG11 0AD,545470,181670,Hertfordshire and North London,Controlled Waters,"Indeno(1,2,3-cd)pyrene",1,21.32,Water Industry,Water Industry,,51.51523004,0.095074299,London
CSSA.0360,,THAMES WATER UTILITIES LTD,BECKTON STW,IG11 0AD,545470,181670,Hertfordshire and North London,Controlled Waters,Benzo(a)pyrene,1,16.48,Water Industry,Water Industry,,51.51523004,0.095074299,London
CSSA.0360,,THAMES WATER UTILITIES LTD,BECKTON STW,IG11 0AD,545470,181670,Hertfordshire and North London,Controlled Waters,Fluoranthene,0.1,3.741,Water Industry,Water Industry,,51.51523004,0.095074299,London
CSSA.0362,,THAMES WATER UTILITIES LTD,Crossness Sewage Treatment Works Belvedere Road London Greater London,SE2 9AQ,549100,180670,"Kent, South London and East Sussex",Controlled Waters,"Indeno(1,2,3-cd)pyrene",1,7.543,Water Industry,Water Industry,,51.50529939,0.146927163,London
CSSA.0362,,THAMES WATER UTILITIES LTD,Crossness Sewage Treatment Works Belvedere Road London Greater London,SE2 9AQ,549100,180670,"Kent, South London and East Sussex",Controlled Waters,Benzo(a)pyrene,1,5.833,Water Industry,Water Industry,,51.50529939,0.146927163,London
CSSA.0362,,THAMES WATER UTILITIES LTD,Crossness Sewage Treatment Works Belvedere Road London Greater London,SE2 9AQ,549100,180670,"Kent, South London and East Sussex",Controlled Waters,Fluoranthene,0.1,1.322,Water Industry,Water Industry,,51.50529939,0.146927163,London
CSSA.0364,,THAMES WATER UTILITIES LTD,RIVERSIDE STW,RM13 8RL,551500,181900,Hertfordshire and North London,Controlled Waters,"Indeno(1,2,3-cd)pyrene",1,1.669,Water Industry,Water Industry,,51.51571312,0.182009069,London
CSSA.0364,,THAMES WATER UTILITIES LTD,RIVERSIDE STW,RM13 8RL,551500,181900,Hertfordshire and North London,Controlled Waters,Benzo(a)pyrene,1,1.291,Water Industry,Water Industry,,51.51571312,0.182009069,London
CSSA.0364,,THAMES WATER UTILITIES LTD,RIVERSIDE STW,RM13 8RL,551500,181900,Hertfordshire and North London,Controlled Waters,Fluoranthene,0.1,0.2926,Water Industry,Water Industry,,51.51571312,0.182009069,London
CSSV.0382,,THAMES WATER UTILITIES LTD,BEDDINGTON STW,CR0 4TH,529520,166318,"Kent, South London and East Sussex",Controlled Waters,"Indeno(1,2,3-cd)pyrene",1,1.874,Water Industry,Water Industry,,51.38114354,-0.140267568,London
CSSV.0382,,THAMES WATER UTILITIES LTD,BEDDINGTON STW,CR0 4TH,529520,166318,"Kent, South London and East Sussex",Controlled Waters,Benzo(a)pyrene,1,1.451,Water Industry,Water Industry,,51.38114354,-0.140267568,London
CSSV.0382,,THAMES WATER UTILITIES LTD,BEDDINGTON STW,CR0 4TH,529520,166318,"Kent, South London and East Sussex",Controlled Waters,Fluoranthene,0.1,0.3282,Water Industry,Water Industry,,51.38114354,-0.140267568,London
VP3039SW,"WASTE LANDFILLING; >10 T/D WITH CAPACITY >25,000T EXCLUDING INERT WASTE",Viridor Waste Management Limited,105 Beddington Lane Beddington Surrey,CR0 4TD,529160,173250,"Kent, South London and East Sussex",Wastewater,Benzo(a)pyrene,1,2,Landfill,Non Hazardous Landfill,,51.44352253,-0.142914939,London
VP3039SW,"WASTE LANDFILLING; >10 T/D WITH CAPACITY >25,000T EXCLUDING INERT WASTE",Viridor Waste Management Limited,105 Beddington Lane Beddington Surrey,CR0 4TD,529160,173250,"Kent, South London and East Sussex",Wastewater,Fluoranthene,0.1,2,Landfill,Non Hazardous Landfill,,51.44352253,-0.142914939,London
VP3039SW,"WASTE LANDFILLING; >10 T/D WITH CAPACITY >25,000T EXCLUDING INERT WASTE",Viridor Waste Management Limited,105 Beddington Lane Beddington Surrey,CR0 4TD,529160,173250,"Kent, South London and East Sussex",Wastewater,Heptachlor,0.1,0,Landfill,Non Hazardous Landfill,,51.44352253,-0.142914939,London
235/1695,,NORTHUMBRIAN WATER LTD,Howdon Sewage Treatment Works Northumberland Dock Road Wallsend Tyne And Wear,NE28 0QD,433340,566290,North East,Controlled Waters,"Indeno(1,2,3-cd)pyrene",1,5.51,Water Industry,Water Industry,,54.99008932,-1.48048017,North East
235/1695,,NORTHUMBRIAN WATER LTD,Howdon Sewage Treatment Works Northumberland Dock Road Wallsend Tyne And Wear,NE28 0QD,433340,566290,North East,Controlled Waters,Benzo(a)pyrene,1,4.26,Water Industry,Water Industry,,54.99008932,-1.48048017,North East
235/1695,,NORTHUMBRIAN WATER LTD,Howdon Sewage Treatment Works Northumberland Dock Road Wallsend Tyne And Wear,NE28 0QD,433340,566290,North East,Controlled Waters,Fluoranthene,0.1,0.97,Water Industry,Water Industry,,54.99008932,-1.48048017,North East
25/04/1797,,NORTHUMBRIAN WATER LTD,Stressholme STW,UNKNOWN,428900,510400,North East,Controlled Waters,Fluoranthene,0.1,0.12,Water Industry,Water Industry,,54.48812312,-1.555398971,North East
25/04/1797,,NORTHUMBRIAN WATER LTD,Stressholme STW,UNKNOWN,428900,510400,North East,Controlled Waters,Benzo(a)pyrene,1,0,Water Industry,Water Industry,,54.48812312,-1.555398971,North East
25/04/1797,,NORTHUMBRIAN WATER LTD,Stressholme STW,UNKNOWN,428900,510400,North East,Controlled Waters,"Indeno(1,2,3-cd)pyrene",1,0,Water Industry,Water Industry,,54.48812312,-1.555398971,North East
254/1920,,NORTHUMBRIAN WATER LTD,Bran Sands Effluent Treatment Works Bran Sands Tees Dock Road Cleveland,TS6 6UE,456210,524290,North East,Controlled Waters,"Indeno(1,2,3-cd)pyrene",1,2.47,Water Industry,Water Industry,,54.61065168,-1.13122446,North East
254/1920,,NORTHUMBRIAN WATER LTD,Bran Sands Effluent Treatment Works Bran Sands Tees Dock Road Cleveland,TS6 6UE,456210,524290,North East,Controlled Waters,Benzo(a)pyrene,1,1.91,Water Industry,Water Industry,,54.61065168,-1.13122446,North East
254/1920,,NORTHUMBRIAN WATER LTD,Bran Sands Effluent Treatment Works Bran Sands Tees Dock Road Cleveland,TS6 6UE,456210,524290,North East,Controlled Waters,Fluoranthene,0.1,0.43,Water Industry,Water Industry,,54.61065168,-1.13122446,North East
254/1966,,NORTHUMBRIAN WATER LTD,SEATON CAREW STW,,451929,527633,North East,Controlled Waters,Fluoranthene,0.1,0.12,Water Industry,Water Industry,,54.64114858,-1.196907708,North East
254/1966,,NORTHUMBRIAN WATER LTD,SEATON CAREW STW,,451929,527633,North East,Controlled Waters,Benzo(a)pyrene,1,0,Water Industry,Water Industry,,54.64114858,-1.196907708,North East
254/1966,,NORTHUMBRIAN WATER LTD,SEATON CAREW STW,,451929,527633,North East,Controlled Waters,"Indeno(1,2,3-cd)pyrene",1,0,Water Industry,Water Industry,,54.64114858,-1.196907708,North East
255/1144,,NORTHUMBRIAN WATER LTD,HENDON STW,SR1 2ES,441049,555891,North East,Controlled Waters,"Indeno(1,2,3-cd)pyrene",1,1.25,Water Industry,Water Industry,,54.89607338,-1.361489979,North East
255/1144,,NORTHUMBRIAN WATER LTD,HENDON STW,SR1 2ES,441049,555891,North East,Controlled Waters,Fluoranthene,0.1,0.22,Water Industry,Water Industry,,54.89607338,-1.361489979,North East
255/1144,,NORTHUMBRIAN WATER LTD,HENDON STW,SR1 2ES,441049,555891,North East,Controlled Waters,Benzo(a)pyrene,1,0,Water Industry,Water Industry,,54.89607338,-1.361489979,North East
BK0205IE,"PAPER, PULP AND BOARD; PRODUCING PAPER/BOARD >20T/D",Essity UK Limited,PRUDHOE MILL PRINCESS WAY NORTHUMBERLAND,NE42 6HE,409470,563760,North East,Controlled Waters,Cypermethrin,0.005,0.0063,Paper and textiles,Paper & Pulp,1.30E-05,54.96837462,-1.853610608,North East
BS3590IE,ORGANIC CHEMICALS; HYDROCARBONS EG AROMATICS,Sabic UK Petrochemicals Limited,Wilton Olefins Installation Olefins Offices Wilton International Redcar,TS10 4RF,458200,521200,North East,Controlled Waters,Fluoranthene,0.1,0,Chemicals,Chemicals,,54.58266112,-1.101029346,North East
EP3830LE,"WASTE LANDFILLING; >10 T/D WITH CAPACITY >25,000T EXCLUDING INERT WASTE",ALAB ENVIRONMENTAL SERVICES LIMITED,Seaton Meadows Tofts Farm West Industrial Estate E Brenda Road Hartlepool Cleveland,TS25 2BS,453560,527960,North East,Controlled Waters,Benzo(a)pyrene,1,0,Landfill,Non Hazardous Landfill,,54.6439168,-1.171579484,North East
EP3830LE,"WASTE LANDFILLING; >10 T/D WITH CAPACITY >25,000T EXCLUDING INERT WASTE",ALAB ENVIRONMENTAL SERVICES LIMITED,Seaton Meadows Tofts Farm West Industrial Estate E Brenda Road Hartlepool Cleveland,TS25 2BS,453560,527960,North East,Controlled Waters,Cypermethrin,0.005,0,Landfill,Non Hazardous Landfill,1.30E-05,54.6439168,-1.171579484,North East
EP3830LE,"WASTE LANDFILLING; >10 T/D WITH CAPACITY >25,000T EXCLUDING INERT WASTE",ALAB ENVIRONMENTAL SERVICES LIMITED,Seaton Meadows Tofts Farm West Industrial Estate E Brenda Road Hartlepool Cleveland,TS25 2BS,453560,527960,North East,Controlled Waters,Fluoranthene,0.1,0,Landfill,Non Hazardous Landfill,,54.6439168,-1.171579484,North East
EP3830LE,"WASTE LANDFILLING; >10 T/D WITH CAPACITY >25,000T EXCLUDING INERT WASTE",ALAB ENVIRONMENTAL SERVICES LIMITED,Seaton Meadows Tofts Farm West Industrial Estate E Brenda Road Hartlepool Cleveland,TS25 2BS,453560,527960,North East,Controlled Waters,Heptachlor,0.1,0,Landfill,Non Hazardous Landfill,,54.6439168,-1.171579484,North East
EP3830LE,"WASTE LANDFILLING; >10 T/D WITH CAPACITY >25,000T EXCLUDING INERT WASTE",ALAB ENVIRONMENTAL SERVICES LIMITED,Seaton Meadows Tofts Farm West Industrial Estate E Brenda Road Hartlepool Cleveland,TS25 2BS,453560,527960,North East,Controlled Waters,"Indeno(1,2,3-cd)pyrene",1,0,Landfill,Non Hazardous Landfill,,54.6439168,-1.171579484,North East
JP3638HM,"FERROUS METALS; PRODUCING, MELTING OR REFINING",Sahaviriya Steel Industries UK Limited,Teeside Integrated Iron and Steelworks Steel House Redcar Cleveland,TS10 5QW,457690,524150,North East,Controlled Waters,Fluoranthene,0.1,0.52,Metals,Ferrous,,54.60922717,-1.108340364,North East
JP3638HM,"FERROUS METALS; PRODUCING, MELTING OR REFINING",Sahaviriya Steel Industries UK Limited,Teeside Integrated Iron and Steelworks Steel House Redcar Cleveland,TS10 5QW,457690,524150,North East,Controlled Waters,Benzo(a)pyrene,1,0,Metals,Ferrous,,54.60922717,-1.108340364,North East
JP3638HM,"FERROUS METALS; PRODUCING, MELTING OR REFINING",Sahaviriya Steel Industries UK Limited,Teeside Integrated Iron and Steelworks Steel House Redcar Cleveland,TS10 5QW,457690,524150,North East,Wastewater,Benzo(a)pyrene,1,0,Metals,Ferrous,,54.60922717,-1.108340364,North East
JP3638HM,"FERROUS METALS; PRODUCING, MELTING OR REFINING",Sahaviriya Steel Industries UK Limited,Teeside Integrated Iron and Steelworks Steel House Redcar Cleveland,TS10 5QW,457690,524150,North East,Wastewater,Fluoranthene,0.1,0,Metals,Ferrous,,54.60922717,-1.108340364,North East
JP3638HM,"FERROUS METALS; PRODUCING, MELTING OR REFINING",Sahaviriya Steel Industries UK Limited,Teeside Integrated Iron and Steelworks Steel House Redcar Cleveland,TS10 5QW,457690,524150,North East,Controlled Waters,"Indeno(1,2,3-cd)pyrene",1,0,Metals,Ferrous,,54.60922717,-1.108340364,North East
JP3638HM,"FERROUS METALS; PRODUCING, MELTING OR REFINING",Sahaviriya Steel Industries UK Limited,Teeside Integrated Iron and Steelworks Steel House Redcar Cleveland,TS10 5QW,457690,524150,North East,Wastewater,"Indeno(1,2,3-cd)pyrene",1,0,Metals,Ferrous,,54.60922717,-1.108340364,North East
LP3439LK,DISPOSAL OF > 50 T/D NON-HAZARDOUS WASTE (> 100 T/D IF ONLY AD) INVOLVING BIOLOGICAL TREATMENT,NORTHUMBRIAN WATER LTD,Bran Sands Effluent Treatment Works Bran Sands Tees Dock Road Cleveland,TS6 6UE,456210,524290,North East,Controlled Waters,"Indeno(1,2,3-cd)pyrene",1,0,Biowaste,Waste treatment,,54.61065168,-1.13122446,North East
LP3832NM,"WASTE LANDFILLING; >10 T/D WITH CAPACITY >25,000T EXCLUDING INERT WASTE",Durham County Council,Joint Stocks Landfill Joint Stocks Quarry Coxhoe Durham,DH6 4RT,433100,536500,North East,Wastewater,Benzo(a)pyrene,1,0,Landfill,Non Hazardous Landfill,,54.72241213,-1.487633445,North East
LP3832NM,"WASTE LANDFILLING; >10 T/D WITH CAPACITY >25,000T EXCLUDING INERT WASTE",Durham County Council,Joint Stocks Landfill Joint Stocks Quarry Coxhoe Durham,DH6 4RT,433100,536500,North East,Wastewater,Fluoranthene,0.1,0,Landfill,Non Hazardous Landfill,,54.72241213,-1.487633445,North East
RP3434HP,"WASTE LANDFILLING; >10 T/D WITH CAPACITY >25,000T EXCLUDING INERT WASTE",Sahaviriya Steel Industries UK Limited,Teeside Integrated Iron and Steelworks Steel House Redcar Cleveland,TS10 5QW,457690,524150,North East,Wastewater,Heptachlor,0.1,0,Landfill,Non Hazardous Landfill,,54.60922717,-1.108340364,North East
WP3537ZG,"WASTE LANDFILLING; >10 T/D WITH CAPACITY >25,000T EXCLUDING INERT WASTE",Octagon Green Solutions Limited,Blaydon Quarry Landfill Lead Road Greenside Blaydon Tyne And Wear,NE21 4SX,416200,562600,North East,Wastewater,Fluoranthene,0.1,0,Landfill,Non Hazardous Landfill,,54.95777899,-1.748554312,North East
WP3537ZG,"WASTE LANDFILLING; >10 T/D WITH CAPACITY >25,000T EXCLUDING INERT WASTE",Octagon Green Solutions Limited,Blaydon Quarry Landfill Lead Road Greenside Blaydon Tyne And Wear,NE21 4SX,416200,562600,North East,Wastewater,Heptachlor,0.1,0,Landfill,Non Hazardous Landfill,,54.95777899,-1.748554312,North East
166993397,,UNITED UTILITIES WATER PLC,Liverpool Waste Water Treatment Sandon Dock Regent Road Liverpool Merseyside,L3 0BE,333730,392800,Greater Manchester Merseyside and Cheshire,Controlled Waters,"Indeno(1,2,3-cd)pyrene",1,3.8,Water Industry,Water Industry,,53.42780659,-2.998815241,North West
166993397,,UNITED UTILITIES WATER PLC,Liverpool Waste Water Treatment Sandon Dock Regent Road Liverpool Merseyside,L3 0BE,333730,392800,Greater Manchester Merseyside and Cheshire,Controlled Waters,Benzo(a)pyrene,1,2.94,Water Industry,Water Industry,,53.42780659,-2.998815241,North West
166993397,,UNITED UTILITIES WATER PLC,Liverpool Waste Water Treatment Sandon Dock Regent Road Liverpool Merseyside,L3 0BE,333730,392800,Greater Manchester Merseyside and Cheshire,Controlled Waters,Fluoranthene,0.1,0.67,Water Industry,Water Industry,,53.42780659,-2.998815241,North West
16810030,,UNITED UTILITIES WATER PLC,ELLESMERE PORT,,343200,374650,Greater Manchester Merseyside and Cheshire,Controlled Waters,Benzo(a)pyrene,1,0,Water Industry,Water Industry,,53.26578798,-2.853049091,North West
16810030,,UNITED UTILITIES WATER PLC,ELLESMERE PORT,,343200,374650,Greater Manchester Merseyside and Cheshire,Controlled Waters,Fluoranthene,0.1,0,Water Industry,Water Industry,,53.26578798,-2.853049091,North West
16810030,,UNITED UTILITIES WATER PLC,ELLESMERE PORT,,343200,374650,Greater Manchester Merseyside and Cheshire,Controlled Waters,"Indeno(1,2,3-cd)pyrene",1,0,Water Industry,Water Industry,,53.26578798,-2.853049091,North West
16810068,,UNITED UTILITIES WATER PLC,CREWE,,366690,357370,Greater Manchester Merseyside and Cheshire,Controlled Waters,Fluoranthene,0.1,0.11,Water Industry,Water Industry,,53.11246624,-2.499080977,North West
16810068,,UNITED UTILITIES WATER PLC,CREWE,,366690,357370,Greater Manchester Merseyside and Cheshire,Controlled Waters,Benzo(a)pyrene,1,0,Water Industry,Water Industry,,53.11246624,-2.499080977,North West
16810068,,UNITED UTILITIES WATER PLC,CREWE,,366690,357370,Greater Manchester Merseyside and Cheshire,Controlled Waters,"Indeno(1,2,3-cd)pyrene",1,0,Water Industry,Water Industry,,53.11246624,-2.499080977,North West
16920130,,UNITED UTILITIES WATER PLC,ST HELENS,,353820,395900,Greater Manchester Merseyside and Cheshire,Controlled Waters,"Indeno(1,2,3-cd)pyrene",1,1.09,Water Industry,Water Industry,,53.457815,-2.696950956,North West
16920130,,UNITED UTILITIES WATER PLC,ST HELENS,,353820,395900,Greater Manchester Merseyside and Cheshire,Controlled Waters,Fluoranthene,0.1,0.19,Water Industry,Water Industry,,53.457815,-2.696950956,North West
16920130,,UNITED UTILITIES WATER PLC,ST HELENS,,353820,395900,Greater Manchester Merseyside and Cheshire,Controlled Waters,Benzo(a)pyrene,1,0,Water Industry,Water Industry,,53.457815,-2.696950956,North West
16930112,,UNITED UTILITIES WATER PLC,FAZAKERLEY,,339370,396600,Greater Manchester Merseyside and Cheshire,Controlled Waters,"Indeno(1,2,3-cd)pyrene",1,1.09,Water Industry,Water Industry,,53.46263823,-2.914680426,North West
16930112,,UNITED UTILITIES WATER PLC,FAZAKERLEY,,339370,396600,Greater Manchester Merseyside and Cheshire,Controlled Waters,Fluoranthene,0.1,0.19,Water Industry,Water Industry,,53.46263823,-2.914680426,North West
16930112,,UNITED UTILITIES WATER PLC,FAZAKERLEY,,339370,396600,Greater Manchester Merseyside and Cheshire,Controlled Waters,Benzo(a)pyrene,1,0,Water Industry,Water Industry,,53.46263823,-2.914680426,North West
16940143,,UNITED UTILITIES WATER PLC,DAVYHULME,,374800,396460,Greater Manchester Merseyside and Cheshire,Controlled Waters,"Indeno(1,2,3-cd)pyrene",1,5.98,Water Industry,Water Industry,,53.46427432,-2.381042231,North West
16940143,,UNITED UTILITIES WATER PLC,DAVYHULME,,374800,396460,Greater Manchester Merseyside and Cheshire,Controlled Waters,Benzo(a)pyrene,1,4.62,Water Industry,Water Industry,,53.46427432,-2.381042231,North West
16940143,,UNITED UTILITIES WATER PLC,DAVYHULME,,374800,396460,Greater Manchester Merseyside and Cheshire,Controlled Waters,Fluoranthene,0.1,1.05,Water Industry,Water Industry,,53.46427432,-2.381042231,North West
16940144,,UNITED UTILITIES WATER PLC,ECCLES,,374960,397150,Greater Manchester Merseyside and Cheshire,Controlled Waters,Fluoranthene,0.1,0.13,Water Industry,Water Industry,,53.47048389,-2.378687523,North West
16940144,,UNITED UTILITIES WATER PLC,ECCLES,,374960,397150,Greater Manchester Merseyside and Cheshire,Controlled Waters,Benzo(a)pyrene,1,0,Water Industry,Water Industry,,53.47048389,-2.378687523,North West
16940144,,UNITED UTILITIES WATER PLC,ECCLES,,374960,397150,Greater Manchester Merseyside and Cheshire,Controlled Waters,"Indeno(1,2,3-cd)pyrene",1,0,Water Industry,Water Industry,,53.47048389,-2.378687523,North West
16940150,,UNITED UTILITIES WATER PLC,SALFORD,,379240,397980,Greater Manchester Merseyside and Cheshire,Controlled Waters,Fluoranthene,0.1,0.14,Water Industry,Water Industry,,53.47813125,-2.314266989,North West
16940150,,UNITED UTILITIES WATER PLC,SALFORD,,379240,397980,Greater Manchester Merseyside and Cheshire,Controlled Waters,Benzo(a)pyrene,1,0,Water Industry,Water Industry,,53.47813125,-2.314266989,North West
16940150,,UNITED UTILITIES WATER PLC,SALFORD,,379240,397980,Greater Manchester Merseyside and Cheshire,Controlled Waters,"Indeno(1,2,3-cd)pyrene",1,0,Water Industry,Water Industry,,53.47813125,-2.314266989,North West
16940151,,UNITED UTILITIES WATER PLC,STOCKPORT,,386520,389820,Greater Manchester Merseyside and Cheshire,Controlled Waters,"Indeno(1,2,3-cd)pyrene",1,1.02,Water Industry,Water Industry,,53.40502394,-2.204224914,North West
16940151,,UNITED UTILITIES WATER PLC,STOCKPORT,,386520,389820,Greater Manchester Merseyside and Cheshire,Controlled Waters,Fluoranthene,0.1,0.18,Water Industry,Water Industry,,53.40502394,-2.204224914,North West
16940151,,UNITED UTILITIES WATER PLC,STOCKPORT,,386520,389820,Greater Manchester Merseyside and Cheshire,Controlled Waters,Benzo(a)pyrene,1,0,Water Industry,Water Industry,,53.40502394,-2.204224914,North West
16950032,,UNITED UTILITIES WATER PLC,BOLTON,,376950,404520,Greater Manchester Merseyside and Cheshire,Controlled Waters,"Indeno(1,2,3-cd)pyrene",1,2.69,Water Industry,Water Industry,,53.53681846,-2.349253892,North West
16950032,,UNITED UTILITIES WATER PLC,BOLTON,,376950,404520,Greater Manchester Merseyside and Cheshire,Controlled Waters,Benzo(a)pyrene,1,2.08,Water Industry,Water Industry,,53.53681846,-2.349253892,North West
16950032,,UNITED UTILITIES WATER PLC,BOLTON,,376950,404520,Greater Manchester Merseyside and Cheshire,Controlled Waters,Fluoranthene,0.1,0.47,Water Industry,Water Industry,,53.53681846,-2.349253892,North West
16950033,,UNITED UTILITIES WATER PLC,BURY,,380450,408050,Greater Manchester Merseyside and Cheshire,Controlled Waters,"Indeno(1,2,3-cd)pyrene",1,1.71,Water Industry,Water Industry,,53.56868951,-2.296668002,North West
16950033,,UNITED UTILITIES WATER PLC,BURY,,380450,408050,Greater Manchester Merseyside and Cheshire,Controlled Waters,Benzo(a)pyrene,1,1.32,Water Industry,Water Industry,,53.56868951,-2.296668002,North West
16950033,,UNITED UTILITIES WATER PLC,BURY,,380450,408050,Greater Manchester Merseyside and Cheshire,Controlled Waters,Fluoranthene,0.1,0.3,Water Industry,Water Industry,,53.56868951,-2.296668002,North West
16950038,,UNITED UTILITIES WATER PLC,OLDHAM,,389260,404300,Greater Manchester Merseyside and Cheshire,Controlled Waters,"Indeno(1,2,3-cd)pyrene",1,1.46,Water Industry,Water Industry,,53.53523964,-2.16351158,North West
16950038,,UNITED UTILITIES WATER PLC,OLDHAM,,389260,404300,Greater Manchester Merseyside and Cheshire,Controlled Waters,Benzo(a)pyrene,1,1.13,Water Industry,Water Industry,,53.53523964,-2.16351158,North West
16950038,,UNITED UTILITIES WATER PLC,OLDHAM,,389260,404300,Greater Manchester Merseyside and Cheshire,Controlled Waters,Fluoranthene,0.1,0.26,Water Industry,Water Industry,,53.53523964,-2.16351158,North West
16950041,,UNITED UTILITIES WATER PLC,ROCHDALE,,388160,412370,Greater Manchester Merseyside and Cheshire,Controlled Waters,"Indeno(1,2,3-cd)pyrene",1,1.56,Water Industry,Water Industry,,53.60775096,-2.180416823,North West
16950041,,UNITED UTILITIES WATER PLC,ROCHDALE,,388160,412370,Greater Manchester Merseyside and Cheshire,Controlled Waters,Benzo(a)pyrene,1,1.2,Water Industry,Water Industry,,53.60775096,-2.180416823,North West
16950041,,UNITED UTILITIES WATER PLC,ROCHDALE,,388160,412370,Greater Manchester Merseyside and Cheshire,Controlled Waters,Fluoranthene,0.1,0.27,Water Industry,Water Industry,,53.60775096,-2.180416823,North West
16983122,,UNITED UTILITIES WATER PLC,WARRINGTON NORTH,,358110,386960,Greater Manchester Merseyside and Cheshire,Controlled Waters,"Indeno(1,2,3-cd)pyrene",1,1.69,Water Industry,Water Industry,,53.37782195,-2.631155453,North West
16983122,,UNITED UTILITIES WATER PLC,WARRINGTON NORTH,,358110,386960,Greater Manchester Merseyside and Cheshire,Controlled Waters,Benzo(a)pyrene,1,1.31,Water Industry,Water Industry,,53.37782195,-2.631155453,North West
16983122,,UNITED UTILITIES WATER PLC,WARRINGTON NORTH,,358110,386960,Greater Manchester Merseyside and Cheshire,Controlled Waters,Fluoranthene,0.1,0.3,Water Industry,Water Industry,,53.37782195,-2.631155453,North West
16993399,,UNITED UTILITIES WATER PLC,BIRKENHEAD,,332800,389400,Greater Manchester Merseyside and Cheshire,Controlled Waters,"Indeno(1,2,3-cd)pyrene",1,1.09,Water Industry,Water Industry,,53.39713246,-3.012083267,North West
16993399,,UNITED UTILITIES WATER PLC,BIRKENHEAD,,332800,389400,Greater Manchester Merseyside and Cheshire,Controlled Waters,Fluoranthene,0.1,0.19,Water Industry,Water Industry,,53.39713246,-3.012083267,North West
16993399,,UNITED UTILITIES WATER PLC,BIRKENHEAD,,332800,389400,Greater Manchester Merseyside and Cheshire,Controlled Waters,Benzo(a)pyrene,1,0,Water Industry,Water Industry,,53.39713246,-3.012083267,North West
17081316,,UNITED UTILITIES WATER PLC,WIGAN,,348170,412020,Greater Manchester Merseyside and Cheshire,Controlled Waters,"Indeno(1,2,3-cd)pyrene",1,1.79,Water Industry,Water Industry,,53.60216703,-2.784707856,North West
17081316,,UNITED UTILITIES WATER PLC,WIGAN,,348170,412020,Greater Manchester Merseyside and Cheshire,Controlled Waters,Benzo(a)pyrene,1,1.39,Water Industry,Water Industry,,53.60216703,-2.784707856,North West
17081316,,UNITED UTILITIES WATER PLC,WIGAN,,348170,412020,Greater Manchester Merseyside and Cheshire,Controlled Waters,Fluoranthene,0.1,0.32,Water Industry,Water Industry,,53.60216703,-2.784707856,North West
17160005,,UNITED UTILITIES WATER PLC,BURNLEY,,382550,435270,Cumbria and Lancashire,Controlled Waters,Fluoranthene,0.1,0.16,Water Industry,Water Industry,,53.8134179,-2.266501392,North West
17160005,,UNITED UTILITIES WATER PLC,BURNLEY,,382550,435270,Cumbria and Lancashire,Controlled Waters,Benzo(a)pyrene,1,0,Water Industry,Water Industry,,53.8134179,-2.266501392,North West
17160005,,UNITED UTILITIES WATER PLC,BURNLEY,,382550,435270,Cumbria and Lancashire,Controlled Waters,"Indeno(1,2,3-cd)pyrene",1,0,Water Industry,Water Industry,,53.8134179,-2.266501392,North West
17160008,,UNITED UTILITIES WATER PLC,HYNDBURN,,375750,433550,Cumbria and Lancashire,Controlled Waters,"Indeno(1,2,3-cd)pyrene",1,1.25,Water Industry,Water Industry,,53.79768484,-2.369637359,North West
17160008,,UNITED UTILITIES WATER PLC,HYNDBURN,,375750,433550,Cumbria and Lancashire,Controlled Waters,Fluoranthene,0.1,0.22,Water Industry,Water Industry,,53.79768484,-2.369637359,North West
17160008,,UNITED UTILITIES WATER PLC,HYNDBURN,,375750,433550,Cumbria and Lancashire,Controlled Waters,Benzo(a)pyrene,1,0,Water Industry,Water Industry,,53.79768484,-2.369637359,North West
17160024,,UNITED UTILITIES WATER PLC,BLACKBURN,,360470,429410,Cumbria and Lancashire,Controlled Waters,"Indeno(1,2,3-cd)pyrene",1,1.42,Water Industry,Water Industry,,53.75953686,-2.601070203,North West
17160024,,UNITED UTILITIES WATER PLC,BLACKBURN,,360470,429410,Cumbria and Lancashire,Controlled Waters,Benzo(a)pyrene,1,1.1,Water Industry,Water Industry,,53.75953686,-2.601070203,North West
17160024,,UNITED UTILITIES WATER PLC,BLACKBURN,,360470,429410,Cumbria and Lancashire,Controlled Waters,Fluoranthene,0.1,0.25,Water Industry,Water Industry,,53.75953686,-2.601070203,North West
17280252,,UNITED UTILITIES WATER PLC,Fleetwood Wwtw Jameson Road Fleetwood Lancashire,FY7 8TW,333090,446180,Cumbria and Lancashire,Controlled Waters,"Indeno(1,2,3-cd)pyrene",1,1.81,Water Industry,Water Industry,,53.90743794,-3.019968528,North West
17280252,,UNITED UTILITIES WATER PLC,Fleetwood Wwtw Jameson Road Fleetwood Lancashire,FY7 8TW,333090,446180,Cumbria and Lancashire,Controlled Waters,Benzo(a)pyrene,1,1.4,Water Industry,Water Industry,,53.90743794,-3.019968528,North West
17280252,,UNITED UTILITIES WATER PLC,Fleetwood Wwtw Jameson Road Fleetwood Lancashire,FY7 8TW,333090,446180,Cumbria and Lancashire,Controlled Waters,Fluoranthene,0.1,0.32,Water Industry,Water Industry,,53.90743794,-3.019968528,North West
17670049,,UNITED UTILITIES WATER PLC,CARLISLE WILLOWHOLME INDUSTRIAL ESTATE CARLISLE CUMBRIA,CA2 5SH,338470,556520,Cumbria and Lancashire,Controlled Waters,Fluoranthene,0.1,0.14,Water Industry,Water Industry,,54.89959994,-2.960999993,North West
17670049,,UNITED UTILITIES WATER PLC,CARLISLE WILLOWHOLME INDUSTRIAL ESTATE CARLISLE CUMBRIA,CA2 5SH,338470,556520,Cumbria and Lancashire,Controlled Waters,Benzo(a)pyrene,1,0,Water Industry,Water Industry,,54.89959994,-2.960999993,North West
17670049,,UNITED UTILITIES WATER PLC,CARLISLE WILLOWHOLME INDUSTRIAL ESTATE CARLISLE CUMBRIA,CA2 5SH,338470,556520,Cumbria and Lancashire,Controlled Waters,"Indeno(1,2,3-cd)pyrene",1,0,Water Industry,Water Industry,,54.89959994,-2.960999993,North West
BJ7620ID,"PAPER, PULP AND BOARD; PRODUCING PULP FROM TIMBER ETC",JAMES CROPPER PLC,Burneside Paper Mill Burneside Cumbria,LA9 6PZ,350600,495880,Cumbria and Lancashire,Wastewater,Cypermethrin,0.005,0,Paper and textiles,Paper & Pulp,1.30E-05,54.35604379,-2.761618874,North West
BM6093IS,"WASTE LANDFILLING; >10 T/D WITH CAPACITY >25,000T EXCLUDING INERT WASTE",Fcc Waste Services (Uk) Limited,Bennett Bank Landfill Thwaite Flat Barrow in Furness Cumbria,LA14 4QH,321500,475000,Cumbria and Lancashire,Wastewater,Heptachlor,0.1,0,Landfill,Non Hazardous Landfill,,54.16477532,-3.203809255,North West
BS7722ID,"WASTE LANDFILLING; >10 T/D WITH CAPACITY >25,000T EXCLUDING INERT WASTE",3C Waste Limited,Maw Green Landfill Maw Green Lane Crewe,CW1 5NG,371700,357500,Greater Manchester Merseyside and Cheshire,Wastewater,Benzo(a)pyrene,1,0,Landfill,Non Hazardous Landfill,,53.11392517,-2.4242491,North West
BS7722ID,"WASTE LANDFILLING; >10 T/D WITH CAPACITY >25,000T EXCLUDING INERT WASTE",3C Waste Limited,Maw Green Landfill Maw Green Lane Crewe,CW1 5NG,371700,357500,Greater Manchester Merseyside and Cheshire,Wastewater,Cypermethrin,0.005,0,Landfill,Non Hazardous Landfill,1.30E-05,53.11392517,-2.4242491,North West
BS7722ID,"WASTE LANDFILLING; >10 T/D WITH CAPACITY >25,000T EXCLUDING INERT WASTE",3C Waste Limited,Maw Green Landfill Maw Green Lane Crewe,CW1 5NG,371700,357500,Greater Manchester Merseyside and Cheshire,Wastewater,Fluoranthene,0.1,0,Landfill,Non Hazardous Landfill,,53.11392517,-2.4242491,North West
BS7722ID,"WASTE LANDFILLING; >10 T/D WITH CAPACITY >25,000T EXCLUDING INERT WASTE",3C Waste Limited,Maw Green Landfill Maw Green Lane Crewe,CW1 5NG,371700,357500,Greater Manchester Merseyside and Cheshire,Wastewater,Heptachlor,0.1,0,Landfill,Non Hazardous Landfill,,53.11392517,-2.4242491,North West
BS7722ID,"WASTE LANDFILLING; >10 T/D WITH CAPACITY >25,000T EXCLUDING INERT WASTE",3C Waste Limited,Maw Green Landfill Maw Green Lane Crewe,CW1 5NG,371700,357500,Greater Manchester Merseyside and Cheshire,Wastewater,"Indeno(1,2,3-cd)pyrene",1,0,Landfill,Non Hazardous Landfill,,53.11392517,-2.4242491,North West
BU3485IS,ORGANIC CHEMICALS; HALOGEN CONTAINING COMPOUNDS EG HALOCARBONS,F2 CHEMICALS LTD,F2 Chemicals Limited Lea Lane Preston Lancashire,PR4 0RZ,347550,431250,Cumbria and Lancashire,Wastewater,Fluoranthene,0.1,0,Chemicals,Chemicals,,53.77493008,-2.797335665,North West
BV8725IT,"WASTE LANDFILLING; >10 T/D WITH CAPACITY >25,000T EXCLUDING INERT WASTE",Cumbria Waste Management Ltd,"Distington Hazardous Waste Transfer Station,PITWOOD ROAD LILLYHALL WORKINGTON CUMBRIA",CA14 4JP,302500,524300,Cumbria and Lancashire,Wastewater,Fluoranthene,0.1,0,Landfill,Non Hazardous Landfill,,54.60442527,-3.510902008,North West
CM0017801,,DWR CYMRU CYFYNGEDIG LTD,"SEALAND ROAD, CHESTER",CH1 4LD,339300,366600,Greater Manchester Merseyside and Cheshire,Controlled Waters,Fluoranthene,0.1,0.12,Water Industry,Water Industry,,53.19300444,-2.909977265,North West
CM0017801,,DWR CYMRU CYFYNGEDIG LTD,"SEALAND ROAD, CHESTER",CH1 4LD,339300,366600,Greater Manchester Merseyside and Cheshire,Controlled Waters,Benzo(a)pyrene,1,0,Water Industry,Water Industry,,53.19300444,-2.909977265,North West
CM0017801,,DWR CYMRU CYFYNGEDIG LTD,"SEALAND ROAD, CHESTER",CH1 4LD,339300,366600,Greater Manchester Merseyside and Cheshire,Controlled Waters,"Indeno(1,2,3-cd)pyrene",1,0,Water Industry,Water Industry,,53.19300444,-2.909977265,North West
DP3333KT,"WASTE LANDFILLING; >10 T/D WITH CAPACITY >25,000T EXCLUDING INERT WASTE",Saint-Gobain Construction Products UK Limited,Kirkby Thore Works Landfill Site Kirkby Thore Works Kirkby Thore Cumbria,CA10 1XU,364126,527191,Cumbria and Lancashire,Controlled Waters,Fluoranthene,0.1,0,Landfill,Non Hazardous Landfill,,54.63855365,-2.557325018,North West
DP3333KT,"WASTE LANDFILLING; >10 T/D WITH CAPACITY >25,000T EXCLUDING INERT WASTE",Saint-Gobain Construction Products UK Limited,Kirkby Thore Works Landfill Site Kirkby Thore Works Kirkby Thore Cumbria,CA10 1XU,364126,527191,Cumbria and Lancashire,Wastewater,Fluoranthene,0.1,0,Landfill,Non Hazardous Landfill,,54.63855365,-2.557325018,North West
DP3336SQ,"PAPER, PULP AND BOARD; PRODUCING PAPER/BOARD >20T/D",Vernacare Limited,Bolton Paper Mill Folds Road,BL1 2TX,372300,409800,Greater Manchester Merseyside and Cheshire,Wastewater,Cypermethrin,0.005,0,Paper and textiles,Paper & Pulp,1.30E-05,53.58404986,-2.419882175,North West
GP3896CS,DISPOSAL OR RECOVERY OF HAZARDOUS WASTE WITH A CAPACITY EXCEEDING 10 TONNES PER DAY INVOLVING PHYSICO-CHEMICAL TREATMENT,G. M. P. Baird Limited,Tonge Bridge Off Hypatia Street Bury Road Lancashire,BL2 6AA,372840,409390,Greater Manchester Merseyside and Cheshire,Wastewater,Benzo(a)pyrene,1,0,Waste Treatment,Metals Recycling,,53.58039312,-2.411689852,North West
GP3896CS,DISPOSAL OR RECOVERY OF HAZARDOUS WASTE WITH A CAPACITY EXCEEDING 10 TONNES PER DAY INVOLVING PHYSICO-CHEMICAL TREATMENT,G. M. P. Baird Limited,Tonge Bridge Off Hypatia Street Bury Road Lancashire,BL2 6AA,372840,409390,Greater Manchester Merseyside and Cheshire,Wastewater,Fluoranthene,0.1,0,Waste Treatment,Metals Recycling,,53.58039312,-2.411689852,North West
GP3896CS,DISPOSAL OR RECOVERY OF HAZARDOUS WASTE WITH A CAPACITY EXCEEDING 10 TONNES PER DAY INVOLVING PHYSICO-CHEMICAL TREATMENT,G. M. P. Baird Limited,Tonge Bridge Off Hypatia Street Bury Road Lancashire,BL2 6AA,372840,409390,Greater Manchester Merseyside and Cheshire,Wastewater,"Indeno(1,2,3-cd)pyrene",1,0,Waste Treatment,Metals Recycling,,53.58039312,-2.411689852,North West
GP3937PZ,DISPOSAL OF > 50 T/D NON-HAZARDOUS WASTE (> 100 T/D IF ONLY AD) INVOLVING BIOLOGICAL TREATMENT,Suez Recycling and Recovery Lancashire Limited,"Jameson Road Phase 2, Jameson Road, Fleetwood, Lancashire",FY7 8TW,333030,445730,Cumbria and Lancashire,Wastewater,Benzo(a)pyrene,1,0,Landfill,other,,53.90338631,-3.020783041,North West
GP3937PZ,DISPOSAL OF > 50 T/D NON-HAZARDOUS WASTE (> 100 T/D IF ONLY AD) INVOLVING BIOLOGICAL TREATMENT,Suez Recycling and Recovery Lancashire Limited,"Jameson Road Phase 2, Jameson Road, Fleetwood, Lancashire",FY7 8TW,333030,445730,Cumbria and Lancashire,Wastewater,Fluoranthene,0.1,0,Landfill,other,,53.90338631,-3.020783041,North West
GP3937PZ,DISPOSAL OF > 50 T/D NON-HAZARDOUS WASTE (> 100 T/D IF ONLY AD) INVOLVING BIOLOGICAL TREATMENT,Suez Recycling and Recovery Lancashire Limited,"Jameson Road Phase 2, Jameson Road, Fleetwood, Lancashire",FY7 8TW,333030,445730,Cumbria and Lancashire,Wastewater,Heptachlor,0.1,0,Landfill,other,,53.90338631,-3.020783041,North West
GP3937PZ,DISPOSAL OF > 50 T/D NON-HAZARDOUS WASTE (> 100 T/D IF ONLY AD) INVOLVING BIOLOGICAL TREATMENT,Suez Recycling and Recovery Lancashire Limited,"Jameson Road Phase 2, Jameson Road, Fleetwood, Lancashire",FY7 8TW,333030,445730,Cumbria and Lancashire,Wastewater,"Indeno(1,2,3-cd)pyrene",1,0,Landfill,other,,53.90338631,-3.020783041,North West
JP3338ST,"WASTE LANDFILLING; >10 T/D WITH CAPACITY >25,000T EXCLUDING INERT WASTE",Woods Waste Limited,Westby Landfill Site Annas Road Lancashire,FY4 5JY,335810,431170,Cumbria and Lancashire,Controlled Waters,Benzo(a)pyrene,1,0,Landfill,Non Hazardous Landfill,,53.77289394,-2.975431238,North West
JP3338ST,"WASTE LANDFILLING; >10 T/D WITH CAPACITY >25,000T EXCLUDING INERT WASTE",Woods Waste Limited,Westby Landfill Site Annas Road Lancashire,FY4 5JY,335810,431170,Cumbria and Lancashire,Controlled Waters,Cypermethrin,0.005,0,Landfill,Non Hazardous Landfill,1.30E-05,53.77289394,-2.975431238,North West
JP3338ST,"WASTE LANDFILLING; >10 T/D WITH CAPACITY >25,000T EXCLUDING INERT WASTE",Woods Waste Limited,Westby Landfill Site Annas Road Lancashire,FY4 5JY,335810,431170,Cumbria and Lancashire,Controlled Waters,Fluoranthene,0.1,0,Landfill,Non Hazardous Landfill,,53.77289394,-2.975431238,North West
JP3338ST,"WASTE LANDFILLING; >10 T/D WITH CAPACITY >25,000T EXCLUDING INERT WASTE",Woods Waste Limited,Westby Landfill Site Annas Road Lancashire,FY4 5JY,335810,431170,Cumbria and Lancashire,Controlled Waters,Heptachlor,0.1,0,Landfill,Non Hazardous Landfill,,53.77289394,-2.975431238,North West
JP3338ST,"WASTE LANDFILLING; >10 T/D WITH CAPACITY >25,000T EXCLUDING INERT WASTE",Woods Waste Limited,Westby Landfill Site Annas Road Lancashire,FY4 5JY,335810,431170,Cumbria and Lancashire,Controlled Waters,"Indeno(1,2,3-cd)pyrene",1,0,Landfill,Non Hazardous Landfill,,53.77289394,-2.975431238,North West
LP3232ZM,"PAPER, PULP AND BOARD; PRODUCING PAPER/BOARD >20T/D",Northwood Tissue (Lancaster) Limited,Np. Lancaster Tissue Lansil Way Lansil Industrial Estate,LA1 3QY,348510,463390,Cumbria and Lancashire,Wastewater,Cypermethrin,0.005,0,Paper and textiles,Paper & Pulp,1.30E-05,54.06386589,-2.788194076,North West
UP3639LY,"WASTE LANDFILLING; >10 T/D WITH CAPACITY >25,000T EXCLUDING INERT WASTE",3C Waste Limited,Danes Moss Landfill Site Gawsworth Macclesfield Cheshire,SK11 9QP,390500,371500,Greater Manchester Merseyside and Cheshire,Wastewater,Benzo(a)pyrene,1,0,Landfill,Non Hazardous Landfill,,53.24043946,-2.143804169,North West
UP3639LY,"WASTE LANDFILLING; >10 T/D WITH CAPACITY >25,000T EXCLUDING INERT WASTE",3C Waste Limited,Danes Moss Landfill Site Gawsworth Macclesfield Cheshire,SK11 9QP,390500,371500,Greater Manchester Merseyside and Cheshire,Wastewater,Cypermethrin,0.005,0,Landfill,Non Hazardous Landfill,1.30E-05,53.24043946,-2.143804169,North West
UP3639LY,"WASTE LANDFILLING; >10 T/D WITH CAPACITY >25,000T EXCLUDING INERT WASTE",3C Waste Limited,Danes Moss Landfill Site Gawsworth Macclesfield Cheshire,SK11 9QP,390500,371500,Greater Manchester Merseyside and Cheshire,Wastewater,Fluoranthene,0.1,0,Landfill,Non Hazardous Landfill,,53.24043946,-2.143804169,North West
UP3639LY,"WASTE LANDFILLING; >10 T/D WITH CAPACITY >25,000T EXCLUDING INERT WASTE",3C Waste Limited,Danes Moss Landfill Site Gawsworth Macclesfield Cheshire,SK11 9QP,390500,371500,Greater Manchester Merseyside and Cheshire,Wastewater,Heptachlor,0.1,0,Landfill,Non Hazardous Landfill,,53.24043946,-2.143804169,North West
UP3639LY,"WASTE LANDFILLING; >10 T/D WITH CAPACITY >25,000T EXCLUDING INERT WASTE",3C Waste Limited,Danes Moss Landfill Site Gawsworth Macclesfield Cheshire,SK11 9QP,390500,371500,Greater Manchester Merseyside and Cheshire,Wastewater,"Indeno(1,2,3-cd)pyrene",1,0,Landfill,Non Hazardous Landfill,,53.24043946,-2.143804169,North West
VP3936UG,DISPOSAL OR RECOVERY OF HAZ WASTE WITH  CAPACITY EXCEEDING 10 TONNES PER DAY INVOLVING REPACKAGING PRIOR TO SUBMISSION TO ANY OF THE OTHER ACTIVITIES LISTED IN THIS SECTION OR IN SECTION 5.1,Future Industrial Services Limited,Acornfield Road Waste Management Centre Acornfield Road Knowsley Industrial Park Merseyside,L33 7UF,343780,398870,Greater Manchester Merseyside and Cheshire,Wastewater,Benzo(a)pyrene,1,0,Waste Treatment,Hazardous,,53.48352987,-2.848672101,North West
VP3936UG,DISPOSAL OR RECOVERY OF HAZ WASTE WITH  CAPACITY EXCEEDING 10 TONNES PER DAY INVOLVING REPACKAGING PRIOR TO SUBMISSION TO ANY OF THE OTHER ACTIVITIES LISTED IN THIS SECTION OR IN SECTION 5.1,Future Industrial Services Limited,Acornfield Road Waste Management Centre Acornfield Road Knowsley Industrial Park Merseyside,L33 7UF,343780,398870,Greater Manchester Merseyside and Cheshire,Wastewater,Cypermethrin,0.005,0,Waste Treatment,Hazardous,1.30E-05,53.48352987,-2.848672101,North West
VP3936UG,DISPOSAL OR RECOVERY OF HAZ WASTE WITH  CAPACITY EXCEEDING 10 TONNES PER DAY INVOLVING REPACKAGING PRIOR TO SUBMISSION TO ANY OF THE OTHER ACTIVITIES LISTED IN THIS SECTION OR IN SECTION 5.1,Future Industrial Services Limited,Acornfield Road Waste Management Centre Acornfield Road Knowsley Industrial Park Merseyside,L33 7UF,343780,398870,Greater Manchester Merseyside and Cheshire,Wastewater,Fluoranthene,0.1,0,Waste Treatment,Hazardous,,53.48352987,-2.848672101,North West
VP3936UG,DISPOSAL OR RECOVERY OF HAZ WASTE WITH  CAPACITY EXCEEDING 10 TONNES PER DAY INVOLVING REPACKAGING PRIOR TO SUBMISSION TO ANY OF THE OTHER ACTIVITIES LISTED IN THIS SECTION OR IN SECTION 5.1,Future Industrial Services Limited,Acornfield Road Waste Management Centre Acornfield Road Knowsley Industrial Park Merseyside,L33 7UF,343780,398870,Greater Manchester Merseyside and Cheshire,Wastewater,Heptachlor,0.1,0,Waste Treatment,Hazardous,,53.48352987,-2.848672101,North West
VP3936UG,DISPOSAL OR RECOVERY OF HAZ WASTE WITH  CAPACITY EXCEEDING 10 TONNES PER DAY INVOLVING REPACKAGING PRIOR TO SUBMISSION TO ANY OF THE OTHER ACTIVITIES LISTED IN THIS SECTION OR IN SECTION 5.1,Future Industrial Services Limited,Acornfield Road Waste Management Centre Acornfield Road Knowsley Industrial Park Merseyside,L33 7UF,343780,398870,Greater Manchester Merseyside and Cheshire,Wastewater,"Indeno(1,2,3-cd)pyrene",1,0,Waste Treatment,Hazardous,,53.48352987,-2.848672101,North West
WP3331SK,DISPOSAL OR RECOVERY OF HAZARDOUS WASTE WITH A CAPACITY EXCEEDING 10 TONNES PER DAY INVOLVING PHYSICO-CHEMICAL TREATMENT,Collier Industrial Waste Limited,Trafford Park Waste Treatment Centre Nash Road Trafford Park Manchester Greater Manchester,M17 1SX,377400,397600,Greater Manchester Merseyside and Cheshire,Controlled Waters,Benzo(a)pyrene,1,0,Waste Treatment,Hazardous,,53.47463952,-2.341962979,North West
WP3331SK,DISPOSAL OR RECOVERY OF HAZARDOUS WASTE WITH A CAPACITY EXCEEDING 10 TONNES PER DAY INVOLVING PHYSICO-CHEMICAL TREATMENT,Collier Industrial Waste Limited,Trafford Park Waste Treatment Centre Nash Road Trafford Park Manchester Greater Manchester,M17 1SX,377400,397600,Greater Manchester Merseyside and Cheshire,Wastewater,Benzo(a)pyrene,1,0,Waste Treatment,Hazardous,,53.47463952,-2.341962979,North West
WP3331SK,DISPOSAL OR RECOVERY OF HAZARDOUS WASTE WITH A CAPACITY EXCEEDING 10 TONNES PER DAY INVOLVING PHYSICO-CHEMICAL TREATMENT,Collier Industrial Waste Limited,Trafford Park Waste Treatment Centre Nash Road Trafford Park Manchester Greater Manchester,M17 1SX,377400,397600,Greater Manchester Merseyside and Cheshire,Wastewater,Cypermethrin,0.005,0,Waste Treatment,Hazardous,1.30E-05,53.47463952,-2.341962979,North West
WP3331SK,DISPOSAL OR RECOVERY OF HAZARDOUS WASTE WITH A CAPACITY EXCEEDING 10 TONNES PER DAY INVOLVING PHYSICO-CHEMICAL TREATMENT,Collier Industrial Waste Limited,Trafford Park Waste Treatment Centre Nash Road Trafford Park Manchester Greater Manchester,M17 1SX,377400,397600,Greater Manchester Merseyside and Cheshire,Controlled Waters,Cypermethrin,0.005,0,Waste Treatment,Hazardous,1.30E-05,53.47463952,-2.341962979,North West
WP3331SK,DISPOSAL OR RECOVERY OF HAZARDOUS WASTE WITH A CAPACITY EXCEEDING 10 TONNES PER DAY INVOLVING PHYSICO-CHEMICAL TREATMENT,Collier Industrial Waste Limited,Trafford Park Waste Treatment Centre Nash Road Trafford Park Manchester Greater Manchester,M17 1SX,377400,397600,Greater Manchester Merseyside and Cheshire,Controlled Waters,Fluoranthene,0.1,0,Waste Treatment,Hazardous,,53.47463952,-2.341962979,North West
WP3331SK,DISPOSAL OR RECOVERY OF HAZARDOUS WASTE WITH A CAPACITY EXCEEDING 10 TONNES PER DAY INVOLVING PHYSICO-CHEMICAL TREATMENT,Collier Industrial Waste Limited,Trafford Park Waste Treatment Centre Nash Road Trafford Park Manchester Greater Manchester,M17 1SX,377400,397600,Greater Manchester Merseyside and Cheshire,Wastewater,Fluoranthene,0.1,0,Waste Treatment,Hazardous,,53.47463952,-2.341962979,North West
WP3331SK,DISPOSAL OR RECOVERY OF HAZARDOUS WASTE WITH A CAPACITY EXCEEDING 10 TONNES PER DAY INVOLVING PHYSICO-CHEMICAL TREATMENT,Collier Industrial Waste Limited,Trafford Park Waste Treatment Centre Nash Road Trafford Park Manchester Greater Manchester,M17 1SX,377400,397600,Greater Manchester Merseyside and Cheshire,Controlled Waters,Heptachlor,0.1,0,Waste Treatment,Hazardous,,53.47463952,-2.341962979,North West
WP3331SK,DISPOSAL OR RECOVERY OF HAZARDOUS WASTE WITH A CAPACITY EXCEEDING 10 TONNES PER DAY INVOLVING PHYSICO-CHEMICAL TREATMENT,Collier Industrial Waste Limited,Trafford Park Waste Treatment Centre Nash Road Trafford Park Manchester Greater Manchester,M17 1SX,377400,397600,Greater Manchester Merseyside and Cheshire,Wastewater,Heptachlor,0.1,0,Waste Treatment,Hazardous,,53.47463952,-2.341962979,North West
WP3331SK,DISPOSAL OR RECOVERY OF HAZARDOUS WASTE WITH A CAPACITY EXCEEDING 10 TONNES PER DAY INVOLVING PHYSICO-CHEMICAL TREATMENT,Collier Industrial Waste Limited,Trafford Park Waste Treatment Centre Nash Road Trafford Park Manchester Greater Manchester,M17 1SX,377400,397600,Greater Manchester Merseyside and Cheshire,Controlled Waters,"Indeno(1,2,3-cd)pyrene",1,0,Waste Treatment,Hazardous,,53.47463952,-2.341962979,North West
WP3331SK,DISPOSAL OR RECOVERY OF HAZARDOUS WASTE WITH A CAPACITY EXCEEDING 10 TONNES PER DAY INVOLVING PHYSICO-CHEMICAL TREATMENT,Collier Industrial Waste Limited,Trafford Park Waste Treatment Centre Nash Road Trafford Park Manchester Greater Manchester,M17 1SX,377400,397600,Greater Manchester Merseyside and Cheshire,Wastewater,"Indeno(1,2,3-cd)pyrene",1,0,Waste Treatment,Hazardous,,53.47463952,-2.341962979,North West
ZP3433AQ,"WASTE LANDFILLING; >10 T/D WITH CAPACITY >25,000T EXCLUDING INERT WASTE",Whitehead Restoration Ltd,Whitehead Landfill Lower Green Lane Astley Lancashire,M29 7JZ,370860,399350,Greater Manchester Merseyside and Cheshire,Wastewater,Heptachlor,0.1,0,Landfill,Non Hazardous Landfill,,53.49004604,-2.440655845,North West
17160064,,UNITED UTILITIES WATER PLC,PRESTON,,345450,427850,Cumbria and Lancashire,Controlled Waters,"Indeno(1,2,3-cd)pyrene",1,1.79,Water Industry,Water Industry,,53.74415785,-2.828594718,North West
17160064,,UNITED UTILITIES WATER PLC,PRESTON,,345450,427850,Cumbria and Lancashire,Controlled Waters,Benzo(a)pyrene,1,1.39,Water Industry,Water Industry,,53.74415785,-2.828594718,North West
17160064,,UNITED UTILITIES WATER PLC,PRESTON,,345450,427850,Cumbria and Lancashire,Controlled Waters,Fluoranthene,0.1,0.32,Water Industry,Water Industry,,53.74415785,-2.828594718,North West
A.787/S/CH/97,,Southern Water,Ford (Bognor/Littlehampton) STW,BN18 0HY,499490,103030,Solent and South Downs,Controlled Waters,Fluoranthene,0.1,0.11,Water Industry,Water Industry,,50.81827977,-0.58903966,South East
A.787/S/CH/97,,Southern Water,Ford (Bognor/Littlehampton) STW,BN18 0HY,499490,103030,Solent and South Downs,Controlled Waters,Benzo(a)pyrene,1,0,Water Industry,Water Industry,,50.81827977,-0.58903966,South East
A.787/S/CH/97,,Southern Water,Ford (Bognor/Littlehampton) STW,BN18 0HY,499490,103030,Solent and South Downs,Controlled Waters,"Indeno(1,2,3-cd)pyrene",1,0,Water Industry,Water Industry,,50.81827977,-0.58903966,South East
A1106/S/P/99,,Southern Water,Langley Point STW - Eastbourne,BN21 1SA,564120,100950,Solent and South Downs,Controlled Waters,Fluoranthene,0.1,0.12,Water Industry,Water Industry,,50.78489824,0.326849428,South East
A1106/S/P/99,,Southern Water,Langley Point STW - Eastbourne,BN21 1SA,564120,100950,Solent and South Downs,Controlled Waters,Benzo(a)pyrene,1,0,Water Industry,Water Industry,,50.78489824,0.326849428,South East
A1106/S/P/99,,Southern Water,Langley Point STW - Eastbourne,BN21 1SA,564120,100950,Solent and South Downs,Controlled Waters,"Indeno(1,2,3-cd)pyrene",1,0,Water Industry,Water Industry,,50.78489824,0.326849428,South East
A1107/S/CH/99,,Southern Water,East Worthing STW,BN11 2SA,516930,103610,Solent and South Downs,Controlled Waters,Fluoranthene,0.1,0.12,Water Industry,Water Industry,,50.8202381,-0.341384791,South East
A1107/S/CH/99,,Southern Water,East Worthing STW,BN11 2SA,516930,103610,Solent and South Downs,Controlled Waters,Benzo(a)pyrene,1,0,Water Industry,Water Industry,,50.8202381,-0.341384791,South East
A1107/S/CH/99,,Southern Water,East Worthing STW,BN11 2SA,516930,103610,Solent and South Downs,Controlled Waters,"Indeno(1,2,3-cd)pyrene",1,0,Water Industry,Water Industry,,50.8202381,-0.341384791,South East
A1112/K/00,,Southern Water,"Broomfield Bank WTW, Folkestone Road, Church Hougham, Dover, Kent",CT15 7AB,628500,140100,"Kent, South London and East Sussex",Controlled Waters,Fluoranthene,0.1,0.12,Water Industry,Water Industry,,51.11460863,1.263343594,South East
A1112/K/00,,Southern Water,"Broomfield Bank WTW, Folkestone Road, Church Hougham, Dover, Kent",CT15 7AB,628500,140100,"Kent, South London and East Sussex",Controlled Waters,Benzo(a)pyrene,1,0,Water Industry,Water Industry,,51.11460863,1.263343594,South East
A1112/K/00,,Southern Water,"Broomfield Bank WTW, Folkestone Road, Church Hougham, Dover, Kent",CT15 7AB,628500,140100,"Kent, South London and East Sussex",Controlled Waters,"Indeno(1,2,3-cd)pyrene",1,0,Water Industry,Water Industry,,51.11460863,1.263343594,South East
A569/H/90,,Southern Water,Peel Common STW,PO14 2LJ,456500,103300,Solent and South Downs,Controlled Waters,"Indeno(1,2,3-cd)pyrene",1,1.28,Water Industry,Water Industry,,50.82648981,-1.199182538,South East
A569/H/90,,Southern Water,Peel Common STW,PO14 2LJ,456500,103300,Solent and South Downs,Controlled Waters,Fluoranthene,0.1,0.23,Water Industry,Water Industry,,50.82648981,-1.199182538,South East
A569/H/90,,Southern Water,Peel Common STW,PO14 2LJ,456500,103300,Solent and South Downs,Controlled Waters,Benzo(a)pyrene,1,0,Water Industry,Water Industry,,50.82648981,-1.199182538,South East
A720/K/97,,Southern Water,Motney Hill STW,ME8 7UA,582950,168380,"Kent, South London and East Sussex",Controlled Waters,Fluoranthene,0.1,0.13,Water Industry,Water Industry,,51.38497551,0.627808443,South East
A720/K/97,,Southern Water,Motney Hill STW,ME8 7UA,582950,168380,"Kent, South London and East Sussex",Controlled Waters,Benzo(a)pyrene,1,0,Water Industry,Water Industry,,51.38497551,0.627808443,South East
A720/K/97,,Southern Water,Motney Hill STW,ME8 7UA,582950,168380,"Kent, South London and East Sussex",Controlled Waters,"Indeno(1,2,3-cd)pyrene",1,0,Water Industry,Water Industry,,51.38497551,0.627808443,South East
A726/IOW/97,,Southern Water,Sandown STW (Ventnor/Bembridge),PO36 8DE,460270,85220,Solent and South Downs,Controlled Waters,Fluoranthene,0.1,0.14,Water Industry,Water Industry,,50.66354155,-1.148614865,South East
A726/IOW/97,,Southern Water,Sandown STW (Ventnor/Bembridge),PO36 8DE,460270,85220,Solent and South Downs,Controlled Waters,Benzo(a)pyrene,1,0,Water Industry,Water Industry,,50.66354155,-1.148614865,South East
A726/IOW/97,,Southern Water,Sandown STW (Ventnor/Bembridge),PO36 8DE,460270,85220,Solent and South Downs,Controlled Waters,"Indeno(1,2,3-cd)pyrene",1,0,Water Industry,Water Industry,,50.66354155,-1.148614865,South East
A74/S/87,,Southern Water,Portobello STW (Brighton),BN10 7BD,539300,101460,Solent and South Downs,Controlled Waters,"Indeno(1,2,3-cd)pyrene",1,1.14,Water Industry,Water Industry,,50.79597145,-0.02481222,South East
A74/S/87,,Southern Water,Portobello STW (Brighton),BN10 7BD,539300,101460,Solent and South Downs,Controlled Waters,Fluoranthene,0.1,0.2,Water Industry,Water Industry,,50.79597145,-0.02481222,South East
A74/S/87,,Southern Water,Portobello STW (Brighton),BN10 7BD,539300,101460,Solent and South Downs,Controlled Waters,Benzo(a)pyrene,1,0,Water Industry,Water Industry,,50.79597145,-0.02481222,South East
A805/K/98,,Southern Water,Ashford STW,TN25 9QB,602020,143250,"Kent, South London and East Sussex",Controlled Waters,Benzo(a)pyrene,1,0,Water Industry,Water Industry,,51.15283806,0.887320109,South East
A805/K/98,,Southern Water,Ashford STW,TN25 9QB,602020,143250,"Kent, South London and East Sussex",Controlled Waters,Fluoranthene,0.1,0,Water Industry,Water Industry,,51.15283806,0.887320109,South East
A805/K/98,,Southern Water,Ashford STW,TN25 9QB,602020,143250,"Kent, South London and East Sussex",Controlled Waters,"Indeno(1,2,3-cd)pyrene",1,0,Water Industry,Water Industry,,51.15283806,0.887320109,South East
A857/S/P/98,,Southern Water,Bexhill & Hastings STW,TN32 8AY,577300,109200,Solent and South Downs,Controlled Waters,Fluoranthene,0.1,0.13,Water Industry,Water Industry,,50.85513774,0.517620778,South East
A857/S/P/98,,Southern Water,Bexhill & Hastings STW,TN32 8AY,577300,109200,Solent and South Downs,Controlled Waters,Benzo(a)pyrene,1,0,Water Industry,Water Industry,,50.85513774,0.517620778,South East
A857/S/P/98,,Southern Water,Bexhill & Hastings STW,TN32 8AY,577300,109200,Solent and South Downs,Controlled Waters,"Indeno(1,2,3-cd)pyrene",1,0,Water Industry,Water Industry,,50.85513774,0.517620778,South East
AWCNF10296,,Anglian Water,Cotton Valley STW,,488630,241460,East Anglia,Controlled Waters,"Indeno(1,2,3-cd)pyrene",1,1.27,Water Industry,Water Industry,,52.06443452,-0.70853596,South East
AWCNF10296,,Anglian Water,Cotton Valley STW,,488630,241460,East Anglia,Controlled Waters,Fluoranthene,0.1,0.22,Water Industry,Water Industry,,52.06443452,-0.70853596,South East
AWCNF10296,,Anglian Water,Cotton Valley STW,,488630,241460,East Anglia,Controlled Waters,Benzo(a)pyrene,1,0,Water Industry,Water Industry,,52.06443452,-0.70853596,South East
BJ7379IZ,"PAPER, PULP AND BOARD; PRODUCING PAPER/BOARD >20T/D",Kimberly-Clark Limited,Northfleet Mill Crete Hall Road Kent,DA11 9AD,562990,174390,"Kent, South London and East Sussex",Controlled Waters,Cypermethrin,0.005,0,Paper and textiles,Paper & Pulp,1.30E-05,51.44504835,0.343995053,South East
BJ7433IQ,"PAPER, PULP AND BOARD; PRODUCING PAPER/BOARD >20T/D",Smurfit Kappa UK Limited,Snodland Paper Mill Mill Street KENT,ME6 5AX,570780,161600,"Kent, South London and East Sussex",Controlled Waters,Cypermethrin,0.005,0.0793,Paper and textiles,Paper & Pulp,1.30E-05,51.32785729,0.449837522,South East
BV7222IV,"WASTE LANDFILLING; >10 T/D WITH CAPACITY >25,000T EXCLUDING INERT WASTE",Summerleaze Ltd,Hurst Landfill Site Whistley Court and Lea Farm Mohawk Way Woodley Berkshire,RG5 4UE,478600,173400,Thames,Wastewater,Benzo(a)pyrene,1,0,Landfill,Non Hazardous Landfill,,51.45413531,-0.870185398,South East
BV9900IS,"WASTE LANDFILLING; >10 T/D WITH CAPACITY >25,000T EXCLUDING INERT WASTE",VIRIDOR WASTE MANAGEMENT LTD,Horton Landfill Small Dole West Sussex,BN5 9XH,520970,112410,Solent and South Downs,Controlled Waters,Benzo(a)pyrene,1,0,Landfill,Non Hazardous Landfill,,50.89850707,-0.281152684,South East
BV9900IS,"WASTE LANDFILLING; >10 T/D WITH CAPACITY >25,000T EXCLUDING INERT WASTE",VIRIDOR WASTE MANAGEMENT LTD,Horton Landfill Small Dole West Sussex,BN5 9XH,520970,112410,Solent and South Downs,Controlled Waters,Fluoranthene,0.1,0,Landfill,Non Hazardous Landfill,,50.89850707,-0.281152684,South East
CNTD.0044,,THAMES WATER UTILITIES LTD,ESHER STW,KT10 8AU,513500,166000,"Kent, South London and East Sussex",Controlled Waters,Fluoranthene,0.1,0.1343,Water Industry,Water Industry,,51.38171143,-0.370459257,South East
CNTD.0067,,THAMES WATER UTILITIES LTD,LONG REACH STW,DA1 5PP,555600,176700,"Kent, South London and East Sussex",Controlled Waters,"Indeno(1,2,3-cd)pyrene",1,3.754,Water Industry,Water Industry,,51.46787978,0.238759509,South East
CNTD.0067,,THAMES WATER UTILITIES LTD,LONG REACH STW,DA1 5PP,555600,176700,"Kent, South London and East Sussex",Controlled Waters,Benzo(a)pyrene,1,2.896,Water Industry,Water Industry,,51.46787978,0.238759509,South East
CNTD.0067,,THAMES WATER UTILITIES LTD,LONG REACH STW,DA1 5PP,555600,176700,"Kent, South London and East Sussex",Controlled Waters,Fluoranthene,0.1,0.6555,Water Industry,Water Industry,,51.46787978,0.238759509,South East
COPA/5571,,Southern Water,"Eastleigh STW, Chickenhall Lane, Eastleigh",SO50 6RQ,446530,118170,Solent and South Downs,Controlled Waters,Fluoranthene,0.1,0.1,Water Industry,Water Industry,,50.96108318,-1.33883556,South East
COPA/5571,,Southern Water,"Eastleigh STW, Chickenhall Lane, Eastleigh",SO50 6RQ,446530,118170,Solent and South Downs,Controlled Waters,Benzo(a)pyrene,1,0,Water Industry,Water Industry,,50.96108318,-1.33883556,South East
COPA/5571,,Southern Water,"Eastleigh STW, Chickenhall Lane, Eastleigh",SO50 6RQ,446530,118170,Solent and South Downs,Controlled Waters,"Indeno(1,2,3-cd)pyrene",1,0,Water Industry,Water Industry,,50.96108318,-1.33883556,South East
COPA/5586,,Southern Water,Millbrook STW,SO15 0HH,438850,112600,Solent and South Downs,Controlled Waters,Fluoranthene,0.1,0.14,Water Industry,Water Industry,,50.91156573,-1.448776706,South East
COPA/5586,,Southern Water,Millbrook STW,SO15 0HH,438850,112600,Solent and South Downs,Controlled Waters,Benzo(a)pyrene,1,0,Water Industry,Water Industry,,50.91156573,-1.448776706,South East
COPA/5586,,Southern Water,Millbrook STW,SO15 0HH,438850,112600,Solent and South Downs,Controlled Waters,"Indeno(1,2,3-cd)pyrene",1,0,Water Industry,Water Industry,,50.91156573,-1.448776706,South East
CP3935PU,"WASTE LANDFILLING; >10 T/D WITH CAPACITY >25,000T EXCLUDING INERT WASTE",Viridor Waste Management Limited,Squabb Wood Landfill Site Salisbury Road Shootash Hampshire,SO51 6GA,432770,121520,Solent and South Downs,Wastewater,Benzo(a)pyrene,1,0,Landfill,Non Hazardous Landfill,,50.99215054,-1.534453888,South East
CP3935PU,"WASTE LANDFILLING; >10 T/D WITH CAPACITY >25,000T EXCLUDING INERT WASTE",Viridor Waste Management Limited,Squabb Wood Landfill Site Salisbury Road Shootash Hampshire,SO51 6GA,432770,121520,Solent and South Downs,Wastewater,Fluoranthene,0.1,0,Landfill,Non Hazardous Landfill,,50.99215054,-1.534453888,South East
CTCR.1340,,THAMES WATER UTILITIES LTD,CRAWLEY STW,RH10 3NW,528800,140200,"Kent, South London and East Sussex",Controlled Waters,Fluoranthene,0.1,0.1844,Water Industry,Water Industry,,51.14658044,-0.160005597,South East
FB3301CV,"WASTE LANDFILLING; >10 T/D WITH CAPACITY >25,000T EXCLUDING INERT WASTE",Opes MRF 2013 Limited,Finmere Quarry Landfill Finmere Quarry Banbury Road Finmere Buckinghamshire,MK18 4AJ,462620,232620,East Anglia,Wastewater,Benzo(a)pyrene,1,0,Landfill,Inert Landfill,,51.98851288,-1.089505104,South East
FB3301CV,"WASTE LANDFILLING; >10 T/D WITH CAPACITY >25,000T EXCLUDING INERT WASTE",Opes MRF 2013 Limited,Finmere Quarry Landfill Finmere Quarry Banbury Road Finmere Buckinghamshire,MK18 4AJ,462620,232620,East Anglia,Wastewater,Cypermethrin,0.005,0,Landfill,Inert Landfill,1.30E-05,51.98851288,-1.089505104,South East
FB3301CV,"WASTE LANDFILLING; >10 T/D WITH CAPACITY >25,000T EXCLUDING INERT WASTE",Opes MRF 2013 Limited,Finmere Quarry Landfill Finmere Quarry Banbury Road Finmere Buckinghamshire,MK18 4AJ,462620,232620,East Anglia,Wastewater,Fluoranthene,0.1,0,Landfill,Inert Landfill,,51.98851288,-1.089505104,South East
FB3301CV,"WASTE LANDFILLING; >10 T/D WITH CAPACITY >25,000T EXCLUDING INERT WASTE",Opes MRF 2013 Limited,Finmere Quarry Landfill Finmere Quarry Banbury Road Finmere Buckinghamshire,MK18 4AJ,462620,232620,East Anglia,Wastewater,Heptachlor,0.1,0,Landfill,Inert Landfill,,51.98851288,-1.089505104,South East
FP3599LH,DISPOSAL OR RECOVERY OF HAZ WASTE WITH CAPACITY EXCEEDING 10 TONNES PER DAY INVOLVING BLENDING OR MIXING PRIOR TO SUBMISSION TO ANY OF THE OTHER ACTIVITIES LISTED IN THIS SECTION OR IN SECTION 5.1,BKP Waste & Recycling Limited,BKP Hazardous Waste Transfer and Treatment Station Unit 8 Casbrook Park Bunny Lane Timsbury Hampshire,SO51 0PG,436000,124880,Solent and South Downs,Controlled Waters,Benzo(a)pyrene,1,0,Waste Treatment,Hazardous,,51.02217087,-1.48810118,South East
FP3599LH,DISPOSAL OR RECOVERY OF HAZ WASTE WITH CAPACITY EXCEEDING 10 TONNES PER DAY INVOLVING BLENDING OR MIXING PRIOR TO SUBMISSION TO ANY OF THE OTHER ACTIVITIES LISTED IN THIS SECTION OR IN SECTION 5.1,BKP Waste & Recycling Limited,BKP Hazardous Waste Transfer and Treatment Station Unit 8 Casbrook Park Bunny Lane Timsbury Hampshire,SO51 0PG,436000,124880,Solent and South Downs,Wastewater,Benzo(a)pyrene,1,0,Waste Treatment,Hazardous,,51.02217087,-1.48810118,South East
FP3599LH,DISPOSAL OR RECOVERY OF HAZ WASTE WITH CAPACITY EXCEEDING 10 TONNES PER DAY INVOLVING BLENDING OR MIXING PRIOR TO SUBMISSION TO ANY OF THE OTHER ACTIVITIES LISTED IN THIS SECTION OR IN SECTION 5.1,BKP Waste & Recycling Limited,BKP Hazardous Waste Transfer and Treatment Station Unit 8 Casbrook Park Bunny Lane Timsbury Hampshire,SO51 0PG,436000,124880,Solent and South Downs,Wastewater,Cypermethrin,0.005,0,Waste Treatment,Hazardous,1.30E-05,51.02217087,-1.48810118,South East
FP3599LH,DISPOSAL OR RECOVERY OF HAZ WASTE WITH CAPACITY EXCEEDING 10 TONNES PER DAY INVOLVING BLENDING OR MIXING PRIOR TO SUBMISSION TO ANY OF THE OTHER ACTIVITIES LISTED IN THIS SECTION OR IN SECTION 5.1,BKP Waste & Recycling Limited,BKP Hazardous Waste Transfer and Treatment Station Unit 8 Casbrook Park Bunny Lane Timsbury Hampshire,SO51 0PG,436000,124880,Solent and South Downs,Controlled Waters,Cypermethrin,0.005,0,Waste Treatment,Hazardous,1.30E-05,51.02217087,-1.48810118,South East
FP3599LH,DISPOSAL OR RECOVERY OF HAZ WASTE WITH CAPACITY EXCEEDING 10 TONNES PER DAY INVOLVING BLENDING OR MIXING PRIOR TO SUBMISSION TO ANY OF THE OTHER ACTIVITIES LISTED IN THIS SECTION OR IN SECTION 5.1,BKP Waste & Recycling Limited,BKP Hazardous Waste Transfer and Treatment Station Unit 8 Casbrook Park Bunny Lane Timsbury Hampshire,SO51 0PG,436000,124880,Solent and South Downs,Wastewater,Fluoranthene,0.1,0,Waste Treatment,Hazardous,,51.02217087,-1.48810118,South East
FP3599LH,DISPOSAL OR RECOVERY OF HAZ WASTE WITH CAPACITY EXCEEDING 10 TONNES PER DAY INVOLVING BLENDING OR MIXING PRIOR TO SUBMISSION TO ANY OF THE OTHER ACTIVITIES LISTED IN THIS SECTION OR IN SECTION 5.1,BKP Waste & Recycling Limited,BKP Hazardous Waste Transfer and Treatment Station Unit 8 Casbrook Park Bunny Lane Timsbury Hampshire,SO51 0PG,436000,124880,Solent and South Downs,Controlled Waters,Fluoranthene,0.1,0,Waste Treatment,Hazardous,,51.02217087,-1.48810118,South East
FP3599LH,DISPOSAL OR RECOVERY OF HAZ WASTE WITH CAPACITY EXCEEDING 10 TONNES PER DAY INVOLVING BLENDING OR MIXING PRIOR TO SUBMISSION TO ANY OF THE OTHER ACTIVITIES LISTED IN THIS SECTION OR IN SECTION 5.1,BKP Waste & Recycling Limited,BKP Hazardous Waste Transfer and Treatment Station Unit 8 Casbrook Park Bunny Lane Timsbury Hampshire,SO51 0PG,436000,124880,Solent and South Downs,Wastewater,Heptachlor,0.1,0,Waste Treatment,Hazardous,,51.02217087,-1.48810118,South East
FP3599LH,DISPOSAL OR RECOVERY OF HAZ WASTE WITH CAPACITY EXCEEDING 10 TONNES PER DAY INVOLVING BLENDING OR MIXING PRIOR TO SUBMISSION TO ANY OF THE OTHER ACTIVITIES LISTED IN THIS SECTION OR IN SECTION 5.1,BKP Waste & Recycling Limited,BKP Hazardous Waste Transfer and Treatment Station Unit 8 Casbrook Park Bunny Lane Timsbury Hampshire,SO51 0PG,436000,124880,Solent and South Downs,Controlled Waters,Heptachlor,0.1,0,Waste Treatment,Hazardous,,51.02217087,-1.48810118,South East
FP3599LH,DISPOSAL OR RECOVERY OF HAZ WASTE WITH CAPACITY EXCEEDING 10 TONNES PER DAY INVOLVING BLENDING OR MIXING PRIOR TO SUBMISSION TO ANY OF THE OTHER ACTIVITIES LISTED IN THIS SECTION OR IN SECTION 5.1,BKP Waste & Recycling Limited,BKP Hazardous Waste Transfer and Treatment Station Unit 8 Casbrook Park Bunny Lane Timsbury Hampshire,SO51 0PG,436000,124880,Solent and South Downs,Controlled Waters,"Indeno(1,2,3-cd)pyrene",1,0,Waste Treatment,Hazardous,,51.02217087,-1.48810118,South East
FP3599LH,DISPOSAL OR RECOVERY OF HAZ WASTE WITH CAPACITY EXCEEDING 10 TONNES PER DAY INVOLVING BLENDING OR MIXING PRIOR TO SUBMISSION TO ANY OF THE OTHER ACTIVITIES LISTED IN THIS SECTION OR IN SECTION 5.1,BKP Waste & Recycling Limited,BKP Hazardous Waste Transfer and Treatment Station Unit 8 Casbrook Park Bunny Lane Timsbury Hampshire,SO51 0PG,436000,124880,Solent and South Downs,Wastewater,"Indeno(1,2,3-cd)pyrene",1,0,Waste Treatment,Hazardous,,51.02217087,-1.48810118,South East
RP26/73,,Southern Water,Aylesford STW,ME20 7DA,572100,159500,"Kent, South London and East Sussex",Controlled Waters,Benzo(a)pyrene,1,0,Water Industry,Water Industry,,51.30859458,0.467751906,South East
RP26/73,,Southern Water,Aylesford STW,ME20 7DA,572100,159500,"Kent, South London and East Sussex",Controlled Waters,Fluoranthene,0.1,0,Water Industry,Water Industry,,51.30859458,0.467751906,South East
RP26/73,,Southern Water,Aylesford STW,ME20 7DA,572100,159500,"Kent, South London and East Sussex",Controlled Waters,"Indeno(1,2,3-cd)pyrene",1,0,Water Industry,Water Industry,,51.30859458,0.467751906,South East
VP3803BB,"PAPER, PULP AND BOARD; PRODUCING PAPER/BOARD >20T/D",Arjowiggins Chartham Mill Limited,Chartham Paper Mill STATION ROAD CHARTHAM KENT,CT4 7JA,610770,155020,"Kent, South London and East Sussex",Controlled Waters,Cypermethrin,0.005,0,Paper and textiles,Paper & Pulp,1.30E-05,51.25537327,1.019162462,South East
WACT/257,,Southern Water,Budds Farm STW,PO9 1JW,470800,105570,Solent and South Downs,Controlled Waters,"Indeno(1,2,3-cd)pyrene",1,2,Water Industry,Water Industry,,50.84533023,-0.995743581,South East
WACT/257,,Southern Water,Budds Farm STW,PO9 1JW,470800,105570,Solent and South Downs,Controlled Waters,Benzo(a)pyrene,1,1.55,Water Industry,Water Industry,,50.84533023,-0.995743581,South East
WACT/257,,Southern Water,Budds Farm STW,PO9 1JW,470800,105570,Solent and South Downs,Controlled Waters,Fluoranthene,0.1,0.35,Water Industry,Water Industry,,50.84533023,-0.995743581,South East
XP3434HX,"WASTE LANDFILLING; >10 T/D WITH CAPACITY >25,000T EXCLUDING INERT WASTE",VIRIDOR WASTE MANAGEMENT LTD,Shelford Landfill Site Shelford Farm Estate Shalloak Road Kent,CT2 0PU,616500,160150,"Kent, South London and East Sussex",Wastewater,Benzo(a)pyrene,1,100,Landfill,Non Hazardous Landfill,,51.29928854,1.104257111,South East
XP3434HX,"WASTE LANDFILLING; >10 T/D WITH CAPACITY >25,000T EXCLUDING INERT WASTE",VIRIDOR WASTE MANAGEMENT LTD,Shelford Landfill Site Shelford Farm Estate Shalloak Road Kent,CT2 0PU,616500,160150,"Kent, South London and East Sussex",Wastewater,Fluoranthene,0.1,100,Landfill,Non Hazardous Landfill,,51.29928854,1.104257111,South East
XP3434HX,"WASTE LANDFILLING; >10 T/D WITH CAPACITY >25,000T EXCLUDING INERT WASTE",VIRIDOR WASTE MANAGEMENT LTD,Shelford Landfill Site Shelford Farm Estate Shalloak Road Kent,CT2 0PU,616500,160150,"Kent, South London and East Sussex",Wastewater,Heptachlor,0.1,0,Landfill,Non Hazardous Landfill,,51.29928854,1.104257111,South East
YP3536JE,"PAPER, PULP AND BOARD; PRODUCING PULP FROM TIMBER ETC",Portals De La Rue Limited,OVERTON MILL OVERTON,RG25 3JG,451900,151000,"Kent, South London and East Sussex",Controlled Waters,Cypermethrin,0.005,0.0559,Paper and textiles,Paper & Pulp,1.30E-05,51.25581054,-1.257666877,South East
1229,,SOUTH WEST WATER LTD,EXETER STW (Countess Wear),EX2 7AA,294800,89000,"Devon, Cornwall and the Isles of Scilly",Controlled Waters,Fluoranthene,0.1,0.14,Water Industry,Water Industry,,50.69110642,-3.490710429,South West
1229,,SOUTH WEST WATER LTD,EXETER STW (Countess Wear),EX2 7AA,294800,89000,"Devon, Cornwall and the Isles of Scilly",Controlled Waters,Benzo(a)pyrene,1,0,Water Industry,Water Industry,,50.69110642,-3.490710429,South West
1229,,SOUTH WEST WATER LTD,EXETER STW (Countess Wear),EX2 7AA,294800,89000,"Devon, Cornwall and the Isles of Scilly",Controlled Waters,"Indeno(1,2,3-cd)pyrene",1,0,Water Industry,Water Industry,,50.69110642,-3.490710429,South West
10005,,Wessex Water,BATH (SALTFORD) STW,BS31 3ER,368900,168800,Wessex,Controlled Waters,Fluoranthene,0.1,0.1,Water Industry,Water Industry,,51.41735548,-2.448613053,South West
10005,,Wessex Water,BATH (SALTFORD) STW,BS31 3ER,368900,168800,Wessex,Controlled Waters,Benzo(a)pyrene,1,0,Water Industry,Water Industry,,51.41735548,-2.448613053,South West
10005,,Wessex Water,BATH (SALTFORD) STW,BS31 3ER,368900,168800,Wessex,Controlled Waters,"Indeno(1,2,3-cd)pyrene",1,0,Water Industry,Water Industry,,51.41735548,-2.448613053,South West
40415,,Wessex Water,BOURNEMOUTH (Holdenhurst) STW,BH7 7ES,413300,95230,Wessex,Controlled Waters,Fluoranthene,0.1,0.14,Water Industry,Water Industry,,50.75651622,-1.812815436,South West
40415,,Wessex Water,BOURNEMOUTH (Holdenhurst) STW,BH7 7ES,413300,95230,Wessex,Controlled Waters,Benzo(a)pyrene,1,0,Water Industry,Water Industry,,50.75651622,-1.812815436,South West
40415,,Wessex Water,BOURNEMOUTH (Holdenhurst) STW,BH7 7ES,413300,95230,Wessex,Controlled Waters,"Indeno(1,2,3-cd)pyrene",1,0,Water Industry,Water Industry,,50.75651622,-1.812815436,South West
43091,,Wessex Water,POOLE STW,BH17 7BX,400700,93580,Wessex,Controlled Waters,Fluoranthene,0.1,0.13,Water Industry,Water Industry,,50.74182788,-1.991444522,South West
43091,,Wessex Water,POOLE STW,BH17 7BX,400700,93580,Wessex,Controlled Waters,Benzo(a)pyrene,1,0,Water Industry,Water Industry,,50.74182788,-1.991444522,South West
43091,,Wessex Water,POOLE STW,BH17 7BX,400700,93580,Wessex,Controlled Waters,"Indeno(1,2,3-cd)pyrene",1,0,Water Industry,Water Industry,,50.74182788,-1.991444522,South West
100311,,Wessex Water,BRISTOL (AVONMOUTH) STW,BS11 9AA,353250,179400,Wessex,Controlled Waters,"Indeno(1,2,3-cd)pyrene",1,3.92,Water Industry,Water Industry,,51.51158119,-2.675054415,South West
100311,,Wessex Water,BRISTOL (AVONMOUTH) STW,BS11 9AA,353250,179400,Wessex,Controlled Waters,Benzo(a)pyrene,1,3.03,Water Industry,Water Industry,,51.51158119,-2.675054415,South West
100311,,Wessex Water,BRISTOL (AVONMOUTH) STW,BS11 9AA,353250,179400,Wessex,Controlled Waters,Fluoranthene,0.1,0.69,Water Industry,Water Industry,,51.51158119,-2.675054415,South West
100334,,Wessex Water,WESTON SUPER MARE STW,BS24 0AP,331100,156900,Wessex,Controlled Waters,Fluoranthene,0.1,0.12,Water Industry,Water Industry,,51.30702901,-2.98981133,South West
100334,,Wessex Water,WESTON SUPER MARE STW,BS24 0AP,331100,156900,Wessex,Controlled Waters,Benzo(a)pyrene,1,0,Water Industry,Water Industry,,51.30702901,-2.98981133,South West
100334,,Wessex Water,WESTON SUPER MARE STW,BS24 0AP,331100,156900,Wessex,Controlled Waters,"Indeno(1,2,3-cd)pyrene",1,0,Water Industry,Water Industry,,51.30702901,-2.98981133,South West
200976,,SOUTH WEST WATER LTD,Brokenbury STW (TORBAY),TQ5 0LL,289750,56310,"Devon, Cornwall and the Isles of Scilly",Controlled Waters,Fluoranthene,0.1,0.16,Water Industry,Water Industry,,50.39629959,-3.552494779,South West
200976,,SOUTH WEST WATER LTD,Brokenbury STW (TORBAY),TQ5 0LL,289750,56310,"Devon, Cornwall and the Isles of Scilly",Controlled Waters,Benzo(a)pyrene,1,0,Water Industry,Water Industry,,50.39629959,-3.552494779,South West
200976,,SOUTH WEST WATER LTD,Brokenbury STW (TORBAY),TQ5 0LL,289750,56310,"Devon, Cornwall and the Isles of Scilly",Controlled Waters,"Indeno(1,2,3-cd)pyrene",1,0,Water Industry,Water Industry,,50.39629959,-3.552494779,South West
300454,,SOUTH WEST WATER LTD,Plymouth Central STW,PL4 OPX,249800,53930,"Devon, Cornwall and the Isles of Scilly",Controlled Waters,Fluoranthene,0.1,0.12,Water Industry,Water Industry,,50.36605365,-4.113259912,South West
300454,,SOUTH WEST WATER LTD,Plymouth Central STW,PL4 OPX,249800,53930,"Devon, Cornwall and the Isles of Scilly",Controlled Waters,Benzo(a)pyrene,1,0,Water Industry,Water Industry,,50.36605365,-4.113259912,South West
300454,,SOUTH WEST WATER LTD,Plymouth Central STW,PL4 OPX,249800,53930,"Devon, Cornwall and the Isles of Scilly",Controlled Waters,"Indeno(1,2,3-cd)pyrene",1,0,Water Industry,Water Industry,,50.36605365,-4.113259912,South West
BJ4302IZ,"PAPER, PULP AND BOARD; PRODUCING PAPER/BOARD >20T/D",Hollingsworth and Vose Company Limited,Winchcombe Paper Mill Postlip Mills Winchcombe Cheltenham Gloucestershire,GL54 5BB,400900,227100,West Midlands,Controlled Waters,Cypermethrin,0.005,0,Paper and textiles,Paper & Pulp,1.30E-05,51.94240051,-1.988315576,South West
BK6785IE,"WASTE LANDFILLING; >10 T/D WITH CAPACITY >25,000T EXCLUDING INERT WASTE",Viridor Waste (Somerset) Ltd,Walpole Recovery Facility and Landfill Site Pawlett Bridgwater Somerset,TA6 4TF,330890,142640,Wessex,Wastewater,Benzo(a)pyrene,1,0,Landfill,Non Hazardous Landfill,,51.17879879,-2.99006632,South West
BK6785IE,"WASTE LANDFILLING; >10 T/D WITH CAPACITY >25,000T EXCLUDING INERT WASTE",Viridor Waste (Somerset) Ltd,Walpole Recovery Facility and Landfill Site Pawlett Bridgwater Somerset,TA6 4TF,330890,142640,Wessex,Wastewater,Fluoranthene,0.1,0,Landfill,Non Hazardous Landfill,,51.17879879,-2.99006632,South West
BK6858ID,"WASTE LANDFILLING; >10 T/D WITH CAPACITY >25,000T EXCLUDING INERT WASTE",Viridor Waste Management Limited,Sands Farm Landfill Sand Pit Road Calne Wiltshire,SN11 8TR,401500,170900,Wessex,Wastewater,Benzo(a)pyrene,1,0,Landfill,Non Hazardous Landfill,,51.43709555,-1.979810204,South West
BK6858ID,"WASTE LANDFILLING; >10 T/D WITH CAPACITY >25,000T EXCLUDING INERT WASTE",Viridor Waste Management Limited,Sands Farm Landfill Sand Pit Road Calne Wiltshire,SN11 8TR,401500,170900,Wessex,Wastewater,Fluoranthene,0.1,0,Landfill,Non Hazardous Landfill,,51.43709555,-1.979810204,South West
BV2204IZ,"WASTE LANDFILLING; >10 T/D WITH CAPACITY >25,000T EXCLUDING INERT WASTE",Viridor Waste Management Limited,Lean Quarry Landfill Site Horningtops Cornwall,PL14 3QD,226700,61300,"Devon, Cornwall and the Isles of Scilly",Wastewater,Fluoranthene,0.1,0.48079,Landfill,Non Hazardous Landfill,,50.42592044,-4.441169245,South West
BV2204IZ,"WASTE LANDFILLING; >10 T/D WITH CAPACITY >25,000T EXCLUDING INERT WASTE",Viridor Waste Management Limited,Lean Quarry Landfill Site Horningtops Cornwall,PL14 3QD,226700,61300,"Devon, Cornwall and the Isles of Scilly",Wastewater,Benzo(a)pyrene,1,0,Landfill,Non Hazardous Landfill,,50.42592044,-4.441169245,South West
BV2204IZ,"WASTE LANDFILLING; >10 T/D WITH CAPACITY >25,000T EXCLUDING INERT WASTE",Viridor Waste Management Limited,Lean Quarry Landfill Site Horningtops Cornwall,PL14 3QD,226700,61300,"Devon, Cornwall and the Isles of Scilly",Wastewater,Heptachlor,0.1,0,Landfill,Non Hazardous Landfill,,50.42592044,-4.441169245,South West
BX4054ID,"WASTE LANDFILLING; >10 T/D WITH CAPACITY >25,000T EXCLUDING INERT WASTE",VIRIDOR WASTE MANAGEMENT LTD,Trigon Hill Landfill Bere-Regis to Wareham Road Near Wareham Dorset,BH20 7PB,389600,89400,Wessex,Wastewater,Benzo(a)pyrene,1,0,Landfill,Non Hazardous Landfill,,50.70414374,-2.148637222,South West
BX4054ID,"WASTE LANDFILLING; >10 T/D WITH CAPACITY >25,000T EXCLUDING INERT WASTE",VIRIDOR WASTE MANAGEMENT LTD,Trigon Hill Landfill Bere-Regis to Wareham Road Near Wareham Dorset,BH20 7PB,389600,89400,Wessex,Wastewater,Fluoranthene,0.1,0,Landfill,Non Hazardous Landfill,,50.70414374,-2.148637222,South West
EP3431FL,"PAPER, PULP AND BOARD; PRODUCING PAPER/BOARD >20T/D",Higher Kings Mill Limited,Higher Kings Mill Devon,EX15 1QJ,303100,108190,"Devon, Cornwall and the Isles of Scilly",Controlled Waters,Cypermethrin,0.005,0,Paper and textiles,Paper & Pulp,1.30E-05,50.8650677,-3.378306058,South West
KP3839MV,"WASTE LANDFILLING; >10 T/D WITH CAPACITY >25,000T EXCLUDING INERT WASTE",Grundon Waste Management Ltd,Wingmoor Farm Waste Treatment Facility Stoke Orchard Road Cheltenham Gloucestershire,GL52 4DG,393700,227300,West Midlands,Wastewater,Heptachlor,0.1,0,Landfill,Landfill,,51.94416224,-2.093060773,South West
QP3230LE,"WASTE LANDFILLING; >10 T/D WITH CAPACITY >25,000T EXCLUDING INERT WASTE",WESTCOMBE WASTE LTD,WHISCOMBE HILL LANDFILL SITE WESTCOMBE HILL SOMERTONFIELD ROAD SOMERSET,TA11 6PZ,346500,129300,Wessex,Wastewater,Benzo(a)pyrene,1,0,Landfill,Non Hazardous Landfill,,51.06053264,-2.764790934,South West
RP3530BC,"WASTE LANDFILLING; >10 T/D WITH CAPACITY >25,000T EXCLUDING INERT WASTE",Viridor Waste Management Limited,"Broadpath Landfill, Uffculme, Devon EX15 3EP",EX15 3EP,306640,113360,"Devon, Cornwall and the Isles of Scilly",Wastewater,Benzo(a)pyrene,1,0,Landfill,Non Hazardous Landfill,,50.91212915,-3.329340506,South West
RP3530BC,"WASTE LANDFILLING; >10 T/D WITH CAPACITY >25,000T EXCLUDING INERT WASTE",Viridor Waste Management Limited,"Broadpath Landfill, Uffculme, Devon EX15 3EP",EX15 3EP,306640,113360,"Devon, Cornwall and the Isles of Scilly",Wastewater,Fluoranthene,0.1,0,Landfill,Non Hazardous Landfill,,50.91212915,-3.329340506,South West
S/20/21356/R,,SEVERN TRENT WATER LTD,Netheridge Sewerage Treatment Plant Hempsted Lane Hempsted GLoucester,GL2 5LF,381110,215700,West Midlands,Controlled Waters,Fluoranthene,0.1,0.16,Water Industry,Water Industry,,51.83958183,-2.27557936,South West
S/20/21356/R,,SEVERN TRENT WATER LTD,Netheridge Sewerage Treatment Plant Hempsted Lane Hempsted GLoucester,GL2 5LF,381110,215700,West Midlands,Controlled Waters,Benzo(a)pyrene,1,0,Water Industry,Water Industry,,51.83958183,-2.27557936,South West
S/20/21356/R,,SEVERN TRENT WATER LTD,Netheridge Sewerage Treatment Plant Hempsted Lane Hempsted GLoucester,GL2 5LF,381110,215700,West Midlands,Controlled Waters,"Indeno(1,2,3-cd)pyrene",1,0,Water Industry,Water Industry,,51.83958183,-2.27557936,South West
S/20/25430/R,,SEVERN TRENT WATER LTD,Cheltenham STW,GL51 0TH,389930,224860,West Midlands,Controlled Waters,Fluoranthene,0.1,0.14,Water Industry,Water Industry,,51.92216852,-2.147834359,South West
S/20/25430/R,,SEVERN TRENT WATER LTD,Cheltenham STW,GL51 0TH,389930,224860,West Midlands,Controlled Waters,Benzo(a)pyrene,1,0,Water Industry,Water Industry,,51.92216852,-2.147834359,South West
S/20/25430/R,,SEVERN TRENT WATER LTD,Cheltenham STW,GL51 0TH,389930,224860,West Midlands,Controlled Waters,"Indeno(1,2,3-cd)pyrene",1,0,Water Industry,Water Industry,,51.92216852,-2.147834359,South West
UP3139BB,"WASTE LANDFILLING; >10 T/D WITH CAPACITY >25,000T EXCLUDING INERT WASTE",Viridor Waste (Somerset) Ltd,Dimmer Landfill Site Dimmer Somerset,BA7 7NR,361260,131380,Wessex,Wastewater,Benzo(a)pyrene,1,0,Landfill,Non Hazardous Landfill,,51.08042409,-2.554410196,South West
UP3139BB,"WASTE LANDFILLING; >10 T/D WITH CAPACITY >25,000T EXCLUDING INERT WASTE",Viridor Waste (Somerset) Ltd,Dimmer Landfill Site Dimmer Somerset,BA7 7NR,361260,131380,Wessex,Wastewater,Fluoranthene,0.1,0,Landfill,Non Hazardous Landfill,,51.08042409,-2.554410196,South West
UP3139BB,"WASTE LANDFILLING; >10 T/D WITH CAPACITY >25,000T EXCLUDING INERT WASTE",Viridor Waste (Somerset) Ltd,Dimmer Landfill Site Dimmer Somerset,BA7 7NR,361260,131380,Wessex,Controlled Waters,Heptachlor,0.1,0,Landfill,Non Hazardous Landfill,,51.08042409,-2.554410196,South West
WP3833FT,THE INCINERATION OF NON-HAZARDOUS WASTE IN AN INCINERATION OR CO-INCINERATION PLANT WITH A CAPACITY EXCEEDING 3 TONNES PER HOUR.,Mvv Environment Devonport Limited,Devonport EfW CHP Facility Creek Road Plymouth,PL5 1FL,244700,57400,"Devon, Cornwall and the Isles of Scilly",Wastewater,Benzo(a)pyrene,1,0,EfW,EfW,,50.39591259,-4.186348486,South West
WP3833FT,THE INCINERATION OF NON-HAZARDOUS WASTE IN AN INCINERATION OR CO-INCINERATION PLANT WITH A CAPACITY EXCEEDING 3 TONNES PER HOUR.,Mvv Environment Devonport Limited,Devonport EfW CHP Facility Creek Road Plymouth,PL5 1FL,244700,57400,"Devon, Cornwall and the Isles of Scilly",Wastewater,Fluoranthene,0.1,0,EfW,EfW,,50.39591259,-4.186348486,South West
ZP3035PH,"WASTE LANDFILLING; >10 T/D WITH CAPACITY >25,000T EXCLUDING INERT WASTE",Viridor Waste Management Limited,Tatchells Landfill Site Seven Barrows Bere Road Coldharbour Dorset,BH20 7PA,390750,88810,Wessex,Wastewater,Benzo(a)pyrene,1,0,Landfill,Non Hazardous Landfill,,50.69885772,-2.132337266,South West
ZP3035PH,"WASTE LANDFILLING; >10 T/D WITH CAPACITY >25,000T EXCLUDING INERT WASTE",Viridor Waste Management Limited,Tatchells Landfill Site Seven Barrows Bere Road Coldharbour Dorset,BH20 7PA,390750,88810,Wessex,Wastewater,Fluoranthene,0.1,0,Landfill,Non Hazardous Landfill,,50.69885772,-2.132337266,South West
S/06/55232/R,,SEVERN TRENT WATER LTD,Roundhill Sewage Treatment Wor Gibbett Lane Kinver West Midlands,DY7 6PX,303870,202830,West Midlands,Controlled Waters,"Indeno(1,2,3-cd)pyrene",1,1.38,Water Industry,Water Industry,,51.715932,-3.392880616,West Midlands
S/06/55232/R,,SEVERN TRENT WATER LTD,Roundhill Sewage Treatment Wor Gibbett Lane Kinver West Midlands,DY7 6PX,303870,202830,West Midlands,Controlled Waters,Benzo(a)pyrene,1,1.07,Water Industry,Water Industry,,51.715932,-3.392880616,West Midlands
S/06/55232/R,,SEVERN TRENT WATER LTD,Roundhill Sewage Treatment Wor Gibbett Lane Kinver West Midlands,DY7 6PX,303870,202830,West Midlands,Controlled Waters,Fluoranthene,0.1,0.24,Water Industry,Water Industry,,51.715932,-3.392880616,West Midlands
BB3109LT,DISPOSAL OR RECOVERY OF HAZ WASTE WITH CAPACITY EXCEEDING 10 TONNES PER DAY INVOLVING BLENDING OR MIXING PRIOR TO SUBMISSION TO ANY OF THE OTHER ACTIVITIES LISTED IN THIS SECTION OR IN SECTION 5.1,Envirocom (North West) Ltd,West Midlands Recycling Centre Rufford Street Lye Stourbridge West Midlands,DY9 7DP,391740,284490,West Midlands,Wastewater,Benzo(a)pyrene,1,0,Waste Treatment,Metals Recycling,,52.45829513,-2.122989015,West Midlands
BB3109LT,DISPOSAL OR RECOVERY OF HAZ WASTE WITH CAPACITY EXCEEDING 10 TONNES PER DAY INVOLVING BLENDING OR MIXING PRIOR TO SUBMISSION TO ANY OF THE OTHER ACTIVITIES LISTED IN THIS SECTION OR IN SECTION 5.1,Envirocom (North West) Ltd,West Midlands Recycling Centre Rufford Street Lye Stourbridge West Midlands,DY9 7DP,391740,284490,West Midlands,Wastewater,Cypermethrin,0.005,0,Waste Treatment,Metals Recycling,1.30E-05,52.45829513,-2.122989015,West Midlands
BB3109LT,DISPOSAL OR RECOVERY OF HAZ WASTE WITH CAPACITY EXCEEDING 10 TONNES PER DAY INVOLVING BLENDING OR MIXING PRIOR TO SUBMISSION TO ANY OF THE OTHER ACTIVITIES LISTED IN THIS SECTION OR IN SECTION 5.1,Envirocom (North West) Ltd,West Midlands Recycling Centre Rufford Street Lye Stourbridge West Midlands,DY9 7DP,391740,284490,West Midlands,Wastewater,Fluoranthene,0.1,0,Waste Treatment,Metals Recycling,,52.45829513,-2.122989015,West Midlands
BB3109LT,DISPOSAL OR RECOVERY OF HAZ WASTE WITH CAPACITY EXCEEDING 10 TONNES PER DAY INVOLVING BLENDING OR MIXING PRIOR TO SUBMISSION TO ANY OF THE OTHER ACTIVITIES LISTED IN THIS SECTION OR IN SECTION 5.1,Envirocom (North West) Ltd,West Midlands Recycling Centre Rufford Street Lye Stourbridge West Midlands,DY9 7DP,391740,284490,West Midlands,Wastewater,Heptachlor,0.1,0,Waste Treatment,Metals Recycling,,52.45829513,-2.122989015,West Midlands
BB3109LT,DISPOSAL OR RECOVERY OF HAZ WASTE WITH CAPACITY EXCEEDING 10 TONNES PER DAY INVOLVING BLENDING OR MIXING PRIOR TO SUBMISSION TO ANY OF THE OTHER ACTIVITIES LISTED IN THIS SECTION OR IN SECTION 5.1,Envirocom (North West) Ltd,West Midlands Recycling Centre Rufford Street Lye Stourbridge West Midlands,DY9 7DP,391740,284490,West Midlands,Wastewater,"Indeno(1,2,3-cd)pyrene",1,0,Waste Treatment,Metals Recycling,,52.45829513,-2.122989015,West Midlands
BU5992IT,"WASTE LANDFILLING; >10 T/D WITH CAPACITY >25,000T EXCLUDING INERT WASTE",Shropshire Waste Management Limited,BARNSLEY LANE LANDFILL SITE LODGE FARM BARNSLEY LANE SHROPSHIRE,WV15 5HG,375890,292460,West Midlands,Wastewater,Benzo(a)pyrene,1,0,Landfill,Non Hazardous Landfill,,52.52947051,-2.356827848,West Midlands
BU5992IT,"WASTE LANDFILLING; >10 T/D WITH CAPACITY >25,000T EXCLUDING INERT WASTE",Shropshire Waste Management Limited,BARNSLEY LANE LANDFILL SITE LODGE FARM BARNSLEY LANE SHROPSHIRE,WV15 5HG,375890,292460,West Midlands,Wastewater,Fluoranthene,0.1,0,Landfill,Non Hazardous Landfill,,52.52947051,-2.356827848,West Midlands
BU5992IT,"WASTE LANDFILLING; >10 T/D WITH CAPACITY >25,000T EXCLUDING INERT WASTE",Shropshire Waste Management Limited,BARNSLEY LANE LANDFILL SITE LODGE FARM BARNSLEY LANE SHROPSHIRE,WV15 5HG,375890,292460,West Midlands,Wastewater,Heptachlor,0.1,0,Landfill,Non Hazardous Landfill,,52.52947051,-2.356827848,West Midlands
BU5992IT,"WASTE LANDFILLING; >10 T/D WITH CAPACITY >25,000T EXCLUDING INERT WASTE",Shropshire Waste Management Limited,BARNSLEY LANE LANDFILL SITE LODGE FARM BARNSLEY LANE SHROPSHIRE,WV15 5HG,375890,292460,West Midlands,Wastewater,"Indeno(1,2,3-cd)pyrene",1,0,Landfill,Non Hazardous Landfill,,52.52947051,-2.356827848,West Midlands
HP3630QR,DISPOSAL OR RECOVERY OF HAZARDOUS WASTE WITH A CAPACITY EXCEEDING 10 TONNES PER DAY INVOLVING PHYSICO-CHEMICAL TREATMENT,Slicker Recycling Limited,Wolverhampton Waste Facility Lincoln Street West Midlands,WV10 0DX,392400,299010,West Midlands,Wastewater,Benzo(a)pyrene,1,0,Waste treatment,Hazardous,,52.58883781,-2.11361296,West Midlands
HP3630QR,DISPOSAL OR RECOVERY OF HAZARDOUS WASTE WITH A CAPACITY EXCEEDING 10 TONNES PER DAY INVOLVING PHYSICO-CHEMICAL TREATMENT,Slicker Recycling Limited,Wolverhampton Waste Facility Lincoln Street West Midlands,WV10 0DX,392400,299010,West Midlands,Wastewater,Cypermethrin,0.005,0,Waste treatment,Hazardous,1.30E-05,52.58883781,-2.11361296,West Midlands
HP3630QR,DISPOSAL OR RECOVERY OF HAZARDOUS WASTE WITH A CAPACITY EXCEEDING 10 TONNES PER DAY INVOLVING PHYSICO-CHEMICAL TREATMENT,Slicker Recycling Limited,Wolverhampton Waste Facility Lincoln Street West Midlands,WV10 0DX,392400,299010,West Midlands,Wastewater,Fluoranthene,0.1,0,Waste treatment,Hazardous,,52.58883781,-2.11361296,West Midlands
HP3630QR,DISPOSAL OR RECOVERY OF HAZARDOUS WASTE WITH A CAPACITY EXCEEDING 10 TONNES PER DAY INVOLVING PHYSICO-CHEMICAL TREATMENT,Slicker Recycling Limited,Wolverhampton Waste Facility Lincoln Street West Midlands,WV10 0DX,392400,299010,West Midlands,Wastewater,Heptachlor,0.1,0,Waste treatment,Hazardous,,52.58883781,-2.11361296,West Midlands
HP3630QR,DISPOSAL OR RECOVERY OF HAZARDOUS WASTE WITH A CAPACITY EXCEEDING 10 TONNES PER DAY INVOLVING PHYSICO-CHEMICAL TREATMENT,Slicker Recycling Limited,Wolverhampton Waste Facility Lincoln Street West Midlands,WV10 0DX,392400,299010,West Midlands,Wastewater,"Indeno(1,2,3-cd)pyrene",1,0,Waste treatment,Hazardous,,52.58883781,-2.11361296,West Midlands
S/04/55141/R,,SEVERN TRENT WATER LTD,Rushmoor (Telford) STW,TF6 5EX,361300,313700,West Midlands,Controlled Waters,Benzo(a)pyrene,1,0,Water Industry,Water Industry,,52.71955883,-2.5743799,West Midlands
S/04/55141/R,,SEVERN TRENT WATER LTD,Rushmoor (Telford) STW,TF6 5EX,361300,313700,West Midlands,Controlled Waters,Fluoranthene,0.1,0,Water Industry,Water Industry,,52.71955883,-2.5743799,West Midlands
S/04/55141/R,,SEVERN TRENT WATER LTD,Rushmoor (Telford) STW,TF6 5EX,361300,313700,West Midlands,Controlled Waters,"Indeno(1,2,3-cd)pyrene",1,0,Water Industry,Water Industry,,52.71955883,-2.5743799,West Midlands
S/06/55146/R,,SEVERN TRENT WATER LTD,Kidderminster STW Oldington,DY11 7QL,382560,273750,West Midlands,Controlled Waters,Benzo(a)pyrene,1,0,Water Industry,Water Industry,,52.36152489,-2.257525188,West Midlands
S/06/55146/R,,SEVERN TRENT WATER LTD,Kidderminster STW Oldington,DY11 7QL,382560,273750,West Midlands,Controlled Waters,Fluoranthene,0.1,0,Water Industry,Water Industry,,52.36152489,-2.257525188,West Midlands
S/06/55146/R,,SEVERN TRENT WATER LTD,Kidderminster STW Oldington,DY11 7QL,382560,273750,West Midlands,Controlled Waters,"Indeno(1,2,3-cd)pyrene",1,0,Water Industry,Water Industry,,52.36152489,-2.257525188,West Midlands
S/06/55227/R,,SEVERN TRENT WATER LTD,Barnhurst STW,WV95HN,390000,301650,West Midlands,Controlled Waters,Fluoranthene,0.1,0.17,Water Industry,Water Industry,,52.61253137,-2.149118878,West Midlands
S/06/55227/R,,SEVERN TRENT WATER LTD,Barnhurst STW,WV95HN,390000,301650,West Midlands,Controlled Waters,Benzo(a)pyrene,1,0,Water Industry,Water Industry,,52.61253137,-2.149118878,West Midlands
S/06/55227/R,,SEVERN TRENT WATER LTD,Barnhurst STW,WV95HN,390000,301650,West Midlands,Controlled Waters,"Indeno(1,2,3-cd)pyrene",1,0,Water Industry,Water Industry,,52.61253137,-2.149118878,West Midlands
S/07/56066/R,,SEVERN TRENT WATER LTD,Worcester STW,WR2 4ZP,384361,253530,West Midlands,Controlled Waters,Fluoranthene,0.1,0.11,Water Industry,Water Industry,,52.17979767,-2.230133959,West Midlands
S/07/56066/R,,SEVERN TRENT WATER LTD,Worcester STW,WR2 4ZP,384361,253530,West Midlands,Controlled Waters,Benzo(a)pyrene,1,0,Water Industry,Water Industry,,52.17979767,-2.230133959,West Midlands
S/07/56066/R,,SEVERN TRENT WATER LTD,Worcester STW,WR2 4ZP,384361,253530,West Midlands,Controlled Waters,"Indeno(1,2,3-cd)pyrene",1,0,Water Industry,Water Industry,,52.17979767,-2.230133959,West Midlands
S/11/25151/R,,SEVERN TRENT WATER LTD,Coventry (Finham) STW,CV3 6SD,433600,273700,West Midlands,Controlled Waters,"Indeno(1,2,3-cd)pyrene",1,2.71,Water Industry,Water Industry,,52.36033366,-1.508030305,West Midlands
S/11/25151/R,,SEVERN TRENT WATER LTD,Coventry (Finham) STW,CV3 6SD,433600,273700,West Midlands,Controlled Waters,Benzo(a)pyrene,1,2.09,Water Industry,Water Industry,,52.36033366,-1.508030305,West Midlands
S/11/25151/R,,SEVERN TRENT WATER LTD,Coventry (Finham) STW,CV3 6SD,433600,273700,West Midlands,Controlled Waters,Fluoranthene,0.1,0.48,Water Industry,Water Industry,,52.36033366,-1.508030305,West Midlands
S/13/25443/R,,SEVERN TRENT WATER LTD,Warwick STW,CV34 6QW,427770,262900,West Midlands,Controlled Waters,Fluoranthene,0.1,0.14,Water Industry,Water Industry,,52.26356694,-1.594524975,West Midlands
S/13/25443/R,,SEVERN TRENT WATER LTD,Warwick STW,CV34 6QW,427770,262900,West Midlands,Controlled Waters,Benzo(a)pyrene,1,0,Water Industry,Water Industry,,52.26356694,-1.594524975,West Midlands
S/13/25443/R,,SEVERN TRENT WATER LTD,Warwick STW,CV34 6QW,427770,262900,West Midlands,Controlled Waters,"Indeno(1,2,3-cd)pyrene",1,0,Water Industry,Water Industry,,52.26356694,-1.594524975,West Midlands
SP3832VR,DISPOSAL OR RECOVERY OF HAZARDOUS WASTE WITH A CAPACITY EXCEEDING 10 TONNES PER DAY INVOLVING PHYSICO-CHEMICAL TREATMENT,Greenway Environmental Limited,Hinckley Hazardous Waste Transfer Station Watling Street Hinckley Leicestershire,LE10 3ED,440410,292740,West Midlands,Wastewater,Benzo(a)pyrene,1,0,Waste Treatment,Hazardous,,52.53103594,-1.405737449,West Midlands
SP3832VR,DISPOSAL OR RECOVERY OF HAZARDOUS WASTE WITH A CAPACITY EXCEEDING 10 TONNES PER DAY INVOLVING PHYSICO-CHEMICAL TREATMENT,Greenway Environmental Limited,Hinckley Hazardous Waste Transfer Station Watling Street Hinckley Leicestershire,LE10 3ED,440410,292740,West Midlands,Wastewater,Cypermethrin,0.005,0,Waste Treatment,Hazardous,1.30E-05,52.53103594,-1.405737449,West Midlands
SP3832VR,DISPOSAL OR RECOVERY OF HAZARDOUS WASTE WITH A CAPACITY EXCEEDING 10 TONNES PER DAY INVOLVING PHYSICO-CHEMICAL TREATMENT,Greenway Environmental Limited,Hinckley Hazardous Waste Transfer Station Watling Street Hinckley Leicestershire,LE10 3ED,440410,292740,West Midlands,Wastewater,Fluoranthene,0.1,0,Waste Treatment,Hazardous,,52.53103594,-1.405737449,West Midlands
SP3832VR,DISPOSAL OR RECOVERY OF HAZARDOUS WASTE WITH A CAPACITY EXCEEDING 10 TONNES PER DAY INVOLVING PHYSICO-CHEMICAL TREATMENT,Greenway Environmental Limited,Hinckley Hazardous Waste Transfer Station Watling Street Hinckley Leicestershire,LE10 3ED,440410,292740,West Midlands,Wastewater,Heptachlor,0.1,0,Waste Treatment,Hazardous,,52.53103594,-1.405737449,West Midlands
SP3832VR,DISPOSAL OR RECOVERY OF HAZARDOUS WASTE WITH A CAPACITY EXCEEDING 10 TONNES PER DAY INVOLVING PHYSICO-CHEMICAL TREATMENT,Greenway Environmental Limited,Hinckley Hazardous Waste Transfer Station Watling Street Hinckley Leicestershire,LE10 3ED,440410,292740,West Midlands,Wastewater,"Indeno(1,2,3-cd)pyrene",1,0,Waste Treatment,Hazardous,,52.53103594,-1.405737449,West Midlands
T/01/21819/R,,SEVERN TRENT WATER LTD,Strongford Sewage Treatment Works Barlaston Old Road Barlaston Stoke On Trent Staffordshire,ST12 9EX,387930,339120,West Midlands,Controlled Waters,"Indeno(1,2,3-cd)pyrene",1,2.54,Water Industry,Water Industry,,52.9493237,-2.181084321,West Midlands
T/01/21819/R,,SEVERN TRENT WATER LTD,Strongford Sewage Treatment Works Barlaston Old Road Barlaston Stoke On Trent Staffordshire,ST12 9EX,387930,339120,West Midlands,Controlled Waters,Benzo(a)pyrene,1,1.96,Water Industry,Water Industry,,52.9493237,-2.181084321,West Midlands
T/01/21819/R,,SEVERN TRENT WATER LTD,Strongford Sewage Treatment Works Barlaston Old Road Barlaston Stoke On Trent Staffordshire,ST12 9EX,387930,339120,West Midlands,Controlled Waters,Fluoranthene,0.1,0.45,Water Industry,Water Industry,,52.9493237,-2.181084321,West Midlands
T/08/09076/R,,SEVERN TRENT WATER LTD,Ray Hall Sand Filters STW,B43 6JE,402900,293700,West Midlands,Controlled Waters,Fluoranthene,0.1,0.1,Water Industry,Water Industry,,52.54114945,-1.958671738,West Midlands
T/08/09076/R,,SEVERN TRENT WATER LTD,Ray Hall Sand Filters STW,B43 6JE,402900,293700,West Midlands,Controlled Waters,Benzo(a)pyrene,1,0,Water Industry,Water Industry,,52.54114945,-1.958671738,West Midlands
T/08/09076/R,,SEVERN TRENT WATER LTD,Ray Hall Sand Filters STW,B43 6JE,402900,293700,West Midlands,Controlled Waters,"Indeno(1,2,3-cd)pyrene",1,0,Water Industry,Water Industry,,52.54114945,-1.958671738,West Midlands
T/08/35452/R,,SEVERN TRENT WATER LTD,Goscote STW,WS3 4DW,402190,301920,West Midlands,Controlled Waters,Benzo(a)pyrene,1,0,Water Industry,Water Industry,,52.61504883,-1.96908888,West Midlands
T/08/35452/R,,SEVERN TRENT WATER LTD,Goscote STW,WS3 4DW,402190,301920,West Midlands,Controlled Waters,Fluoranthene,0.1,0,Water Industry,Water Industry,,52.61504883,-1.96908888,West Midlands
T/08/35452/R,,SEVERN TRENT WATER LTD,Goscote STW,WS3 4DW,402190,301920,West Midlands,Controlled Waters,"Indeno(1,2,3-cd)pyrene",1,0,Water Industry,Water Industry,,52.61504883,-1.96908888,West Midlands
T/10/35431/R,,SEVERN TRENT WATER LTD,Minworth Final ASP Effluent,B76 9BE,417150,291950,West Midlands,Controlled Waters,"Indeno(1,2,3-cd)pyrene",1,9.82,Water Industry,Water Industry,,52.52515799,-1.748652934,West Midlands
T/10/35431/R,,SEVERN TRENT WATER LTD,Minworth Final ASP Effluent,B76 9BE,417150,291950,West Midlands,Controlled Waters,Benzo(a)pyrene,1,7.59,Water Industry,Water Industry,,52.52515799,-1.748652934,West Midlands
T/10/35431/R,,SEVERN TRENT WATER LTD,Minworth Final ASP Effluent,B76 9BE,417150,291950,West Midlands,Controlled Waters,Fluoranthene,0.1,1.72,Water Industry,Water Industry,,52.52515799,-1.748652934,West Midlands
T/12/35338/R,,SEVERN TRENT WATER LTD,Coleshill STW,B46 1NX,419000,291000,West Midlands,Controlled Waters,"Indeno(1,2,3-cd)pyrene",1,1.44,Water Industry,Water Industry,,52.5165567,-1.721439707,West Midlands
T/12/35338/R,,SEVERN TRENT WATER LTD,Coleshill STW,B46 1NX,419000,291000,West Midlands,Controlled Waters,Benzo(a)pyrene,1,1.11,Water Industry,Water Industry,,52.5165567,-1.721439707,West Midlands
T/12/35338/R,,SEVERN TRENT WATER LTD,Coleshill STW,B46 1NX,419000,291000,West Midlands,Controlled Waters,Fluoranthene,0.1,0.25,Water Industry,Water Industry,,52.5165567,-1.721439707,West Midlands
T/24/35514/R,,SEVERN TRENT WATER LTD,Claymills Chp Plant Meadow Lane Clay Mills Nr Burton Staffordshire,DE13 0DB,426270,325780,West Midlands,Controlled Waters,Fluoranthene,0.1,0.15,Water Industry,Water Industry,,52.82890968,-1.611547662,West Midlands
T/24/35514/R,,SEVERN TRENT WATER LTD,Claymills Chp Plant Meadow Lane Clay Mills Nr Burton Staffordshire,DE13 0DB,426270,325780,West Midlands,Controlled Waters,Benzo(a)pyrene,1,0,Water Industry,Water Industry,,52.82890968,-1.611547662,West Midlands
T/24/35514/R,,SEVERN TRENT WATER LTD,Claymills Chp Plant Meadow Lane Clay Mills Nr Burton Staffordshire,DE13 0DB,426270,325780,West Midlands,Controlled Waters,"Indeno(1,2,3-cd)pyrene",1,0,Water Industry,Water Industry,,52.82890968,-1.611547662,West Midlands
ZP3933LD,"WASTE LANDFILLING; >10 T/D WITH CAPACITY >25,000T EXCLUDING INERT WASTE",Severn Waste Services Limited,Hill & Moor Landfill Site Piddle Brook Lane Wyre Piddle Pershore Worcester,WR10 2LW,396900,248400,West Midlands,Wastewater,Fluoranthene,0.1,0.3997,Landfill,Non Hazardous Landfill,,52.13389224,-2.046705579,West Midlands
ZP3933LD,"WASTE LANDFILLING; >10 T/D WITH CAPACITY >25,000T EXCLUDING INERT WASTE",Severn Waste Services Limited,Hill & Moor Landfill Site Piddle Brook Lane Wyre Piddle Pershore Worcester,WR10 2LW,396900,248400,West Midlands,Wastewater,Benzo(a)pyrene,1,0,Landfill,Non Hazardous Landfill,,52.13389224,-2.046705579,West Midlands
ZP3933LD,"WASTE LANDFILLING; >10 T/D WITH CAPACITY >25,000T EXCLUDING INERT WASTE",Severn Waste Services Limited,Hill & Moor Landfill Site Piddle Brook Lane Wyre Piddle Pershore Worcester,WR10 2LW,396900,248400,West Midlands,Wastewater,Heptachlor,0.1,0,Landfill,Non Hazardous Landfill,,52.13389224,-2.046705579,West Midlands
ZP3933LD,"WASTE LANDFILLING; >10 T/D WITH CAPACITY >25,000T EXCLUDING INERT WASTE",Severn Waste Services Limited,Hill & Moor Landfill Site Piddle Brook Lane Wyre Piddle Pershore Worcester,WR10 2LW,396900,248400,West Midlands,Wastewater,"Indeno(1,2,3-cd)pyrene",1,0,Landfill,Non Hazardous Landfill,,52.13389224,-2.046705579,West Midlands
BJ8294IM,"PAPER, PULP AND BOARD; PRODUCING PAPER/BOARD >20T/D",Weidmann Whiteley Ltd,POOL PAPER MILL POOL IN WHARFEDALE WEST YORKSHIRE,LS21 1RP,423650,445390,Yorkshire,Controlled Waters,Cypermethrin,0.005,0,Paper and textiles,Paper & Pulp,1.30E-05,53.90413739,-1.641526268,Yorkshire and The Humber
BL4940IU,"WASTE LANDFILLING; >10 T/D WITH CAPACITY >25,000T EXCLUDING INERT WASTE",Catplant Quarry Ltd,Hazel Lane Quarry Hazel Lane Hampole Doncaster,DN6 7EX,450100,410800,Yorkshire,Wastewater,Benzo(a)pyrene,1,0,Landfill,Non Hazardous Landfill,,53.59139289,-1.244574137,Yorkshire and The Humber
BL4940IU,"WASTE LANDFILLING; >10 T/D WITH CAPACITY >25,000T EXCLUDING INERT WASTE",Catplant Quarry Ltd,Hazel Lane Quarry Hazel Lane Hampole Doncaster,DN6 7EX,450100,410800,Yorkshire,Wastewater,Cypermethrin,0.005,0,Landfill,Non Hazardous Landfill,1.30E-05,53.59139289,-1.244574137,Yorkshire and The Humber
BL4940IU,"WASTE LANDFILLING; >10 T/D WITH CAPACITY >25,000T EXCLUDING INERT WASTE",Catplant Quarry Ltd,Hazel Lane Quarry Hazel Lane Hampole Doncaster,DN6 7EX,450100,410800,Yorkshire,Wastewater,Fluoranthene,0.1,0,Landfill,Non Hazardous Landfill,,53.59139289,-1.244574137,Yorkshire and The Humber
BL4940IU,"WASTE LANDFILLING; >10 T/D WITH CAPACITY >25,000T EXCLUDING INERT WASTE",Catplant Quarry Ltd,Hazel Lane Quarry Hazel Lane Hampole Doncaster,DN6 7EX,450100,410800,Yorkshire,Wastewater,Heptachlor,0.1,0,Landfill,Non Hazardous Landfill,,53.59139289,-1.244574137,Yorkshire and The Humber
BL4940IU,"WASTE LANDFILLING; >10 T/D WITH CAPACITY >25,000T EXCLUDING INERT WASTE",Catplant Quarry Ltd,Hazel Lane Quarry Hazel Lane Hampole Doncaster,DN6 7EX,450100,410800,Yorkshire,Wastewater,"Indeno(1,2,3-cd)pyrene",1,0,Landfill,Non Hazardous Landfill,,53.59139289,-1.244574137,Yorkshire and The Humber
BP3530RC,"COATING, PRINTING AND TEXTILES; PRE-TREATING BY WASHING ETC >10T/DAY",Harrison Gardner Dyers and Winders Limited,Royds Hall Lane Site Buttershaw Bradford,BD6 2NE,414300,429150,Yorkshire,Wastewater,Cypermethrin,0.005,0.042,Paper and textiles,Textiles,1.30E-05,53.75851506,-1.784583597,Yorkshire and The Humber
BP3731ZS,"COATING, PRINTING AND TEXTILES; PRE-TREATING BY WASHING ETC >10T/DAY",Lawton Yarns Limited,Ravens Ing Mills Netherfield Road Dewsbury West Yorkshire,WF13 3JE,422960,420450,Yorkshire,Wastewater,Cypermethrin,0.005,0,Paper and textiles,Textiles,1.30E-05,53.68001255,-1.65387688,Yorkshire and The Humber
BR4705IR,"COATING, PRINTING AND TEXTILES; PRE-TREATING BY WASHING ETC >10T/DAY",Standard Wool (UK) Limited,Eastfield Mills EASTFIELD MILLS WEST YORKSHIRE,WF12 8EH,424900,421400,Yorkshire,Wastewater,Cypermethrin,0.005,8.84,Paper and textiles,Textiles,1.30E-05,53.68846268,-1.624431303,Yorkshire and The Humber
BR4977IH,"COATING, PRINTING AND TEXTILES; PRE-TREATING BY WASHING ETC >10T/DAY",Bulmer and Lumb Group Ltd,Buttershaw Textiles Royds Hall Lane Buttershaw Bradford West Yorkshire,BD6 2NE,414340,429240,Yorkshire,Wastewater,Cypermethrin,0.005,0.0476,Paper and textiles,Textiles,1.30E-05,53.75932288,-1.783972753,Yorkshire and The Humber
BR5035IT,"COATING, PRINTING AND TEXTILES; PRE-TREATING BY WASHING ETC >10T/DAY",Calder Textiles Limited,ANCHOR HOUSE DEWSBURY MILLS THORNHILL ROAD WEST YORKSHIRE,WF12 9QE,424000,420500,Yorkshire,Wastewater,Cypermethrin,0.005,0.012,Paper and textiles,Textiles,1.30E-05,53.68041545,-1.638128447,Yorkshire and The Humber
BS6025IF,"COATING, PRINTING AND TEXTILES; PRE-TREATING BY WASHING ETC >10T/DAY",Haworth Scouring Company Limited,CASHMERE WORKS BIRKSLAND STREET WEST YORKSHIRE,BD3 9SX,417800,432700,Yorkshire,Wastewater,Cypermethrin,0.005,0.671,Paper and textiles,Textiles,1.30E-05,53.79031505,-1.731294248,Yorkshire and The Humber
BV0627IL,"WASTE LANDFILLING; >10 T/D WITH CAPACITY >25,000T EXCLUDING INERT WASTE",North Lincolnshire Council,Conesby Quarry Landfill Normanby Road Scunthorpe North Lincolnshire,DN15 8QZ,489850,414500,Lincolnshire and Northamptonshire,Wastewater,Benzo(a)pyrene,1,0,Landfill,Non Hazardous Landfill,,53.61934413,-0.643119583,Yorkshire and The Humber
BV0627IL,"WASTE LANDFILLING; >10 T/D WITH CAPACITY >25,000T EXCLUDING INERT WASTE",North Lincolnshire Council,Conesby Quarry Landfill Normanby Road Scunthorpe North Lincolnshire,DN15 8QZ,489850,414500,Lincolnshire and Northamptonshire,Wastewater,Fluoranthene,0.1,0,Landfill,Non Hazardous Landfill,,53.61934413,-0.643119583,Yorkshire and The Humber
BW2188IU,"WASTE LANDFILLING; >10 T/D WITH CAPACITY >25,000T EXCLUDING INERT WASTE",Waste Recycling Group (Yorkshire) Limited,Allerton Park Landfill Site Allerton Park North Yorkshire,HG5 0SD,441200,459730,Yorkshire,Wastewater,Benzo(a)pyrene,1,0,Landfill,Non Hazardous Landfill,,54.03191938,-1.372492213,Yorkshire and The Humber
BW2188IU,"WASTE LANDFILLING; >10 T/D WITH CAPACITY >25,000T EXCLUDING INERT WASTE",Waste Recycling Group (Yorkshire) Limited,Allerton Park Landfill Site Allerton Park North Yorkshire,HG5 0SD,441200,459730,Yorkshire,Wastewater,Cypermethrin,0.005,0,Landfill,Non Hazardous Landfill,1.30E-05,54.03191938,-1.372492213,Yorkshire and The Humber
BW2188IU,"WASTE LANDFILLING; >10 T/D WITH CAPACITY >25,000T EXCLUDING INERT WASTE",Waste Recycling Group (Yorkshire) Limited,Allerton Park Landfill Site Allerton Park North Yorkshire,HG5 0SD,441200,459730,Yorkshire,Wastewater,Fluoranthene,0.1,0,Landfill,Non Hazardous Landfill,,54.03191938,-1.372492213,Yorkshire and The Humber
BW2188IU,"WASTE LANDFILLING; >10 T/D WITH CAPACITY >25,000T EXCLUDING INERT WASTE",Waste Recycling Group (Yorkshire) Limited,Allerton Park Landfill Site Allerton Park North Yorkshire,HG5 0SD,441200,459730,Yorkshire,Wastewater,Heptachlor,0.1,0,Landfill,Non Hazardous Landfill,,54.03191938,-1.372492213,Yorkshire and The Humber
BW2188IU,"WASTE LANDFILLING; >10 T/D WITH CAPACITY >25,000T EXCLUDING INERT WASTE",Waste Recycling Group (Yorkshire) Limited,Allerton Park Landfill Site Allerton Park North Yorkshire,HG5 0SD,441200,459730,Yorkshire,Wastewater,"Indeno(1,2,3-cd)pyrene",1,0,Landfill,Non Hazardous Landfill,,54.03191938,-1.372492213,Yorkshire and The Humber
BX1942IX,"WASTE LANDFILLING; >10 T/D WITH CAPACITY >25,000T EXCLUDING INERT WASTE",Sandfield Gravel Company Ltd,Milegate Extension Landfill Site Catwick Lane Brandesburton Driffield East Ridings of Yorkshire,YO25 8SA,513100,447200,Yorkshire,Wastewater,Fluoranthene,0.1,0,Landfill,Non Hazardous Landfill,,53.90862165,-0.279813742,Yorkshire and The Humber
E15,,Yorkshire Water Services Limited,Mitchell Laithes WwTW CHP Plant Long Lane Dewsbury West Yorkshire,WF12 8LL,426030,419980,Yorkshire,Controlled Waters,Cypermethrin,0.005,15.17,Water Industry,Water Industry,1.30E-05,53.675645,-1.607439464,Yorkshire and The Humber
GP3134HG,"COATING, PRINTING AND TEXTILES; PRE-TREATING BY WASHING ETC >10T/DAY",Westex (Carpets) Limited,Calder Bank Mills Calder Bank Road Dewsbury West Yorkshire,WF12 9QW,423910,421140,Yorkshire,Wastewater,Cypermethrin,0.005,0.034,Paper and textiles,Textiles,1.30E-05,53.68617184,-1.639441878,Yorkshire and The Humber
HP3736AW,"FERROUS METALS; HANDLING ETC >500,000 TONNES/12 MONTHS",Longs Steel UK Limited,Scunthopre Integrated Iron and Steel Works Brigg Road Scunthorpe North Lincolnshire,DN16 1AU,491460,410290,East Midlands,Controlled Waters,"Indeno(1,2,3-cd)pyrene",1,5.71,Metals,Ferrous,,53.58123628,-0.620020732,Yorkshire and The Humber
HP3736AW,"FERROUS METALS; HANDLING ETC >500,000 TONNES/12 MONTHS",Longs Steel UK Limited,Scunthopre Integrated Iron and Steel Works Brigg Road Scunthorpe North Lincolnshire,DN16 1AU,491460,410290,East Midlands,Controlled Waters,Fluoranthene,0.1,5.7,Metals,Ferrous,,53.58123628,-0.620020732,Yorkshire and The Humber
HP3736AW,"FERROUS METALS; HANDLING ETC >500,000 TONNES/12 MONTHS",Longs Steel UK Limited,Scunthopre Integrated Iron and Steel Works Brigg Road Scunthorpe North Lincolnshire,DN16 1AU,491460,410290,East Midlands,Controlled Waters,Benzo(a)pyrene,1,3.65,Metals,Ferrous,,53.58123628,-0.620020732,Yorkshire and The Humber
LP3434HA,"WASTE LANDFILLING; >10 T/D WITH CAPACITY >25,000T EXCLUDING INERT WASTE",Bradley Park Waste Management Limited,Bradley Park Landfill Site Lower Quarry Road Huddersfield West Yorkshire,HD2 1FN,416350,421350,Yorkshire,Wastewater,Fluoranthene,0.1,0,Landfill,Non Hazardous Landfill,,53.68834894,-1.753899641,Yorkshire and The Humber
LP3434HA,"WASTE LANDFILLING; >10 T/D WITH CAPACITY >25,000T EXCLUDING INERT WASTE",Bradley Park Waste Management Limited,Bradley Park Landfill Site Lower Quarry Road Huddersfield West Yorkshire,HD2 1FN,416350,421350,Yorkshire,Controlled Waters,Fluoranthene,0.1,0,Landfill,Non Hazardous Landfill,,53.68834894,-1.753899641,Yorkshire and The Humber
LP3434HA,"WASTE LANDFILLING; >10 T/D WITH CAPACITY >25,000T EXCLUDING INERT WASTE",Bradley Park Waste Management Limited,Bradley Park Landfill Site Lower Quarry Road Huddersfield West Yorkshire,HD2 1FN,416350,421350,Yorkshire,Wastewater,Heptachlor,0.1,0,Landfill,Non Hazardous Landfill,,53.68834894,-1.753899641,Yorkshire and The Humber
LP3434HA,"WASTE LANDFILLING; >10 T/D WITH CAPACITY >25,000T EXCLUDING INERT WASTE",Bradley Park Waste Management Limited,Bradley Park Landfill Site Lower Quarry Road Huddersfield West Yorkshire,HD2 1FN,416350,421350,Yorkshire,Controlled Waters,Heptachlor,0.1,0,Landfill,Non Hazardous Landfill,,53.68834894,-1.753899641,Yorkshire and The Humber
NP3032WQ,"COATING, PRINTING AND TEXTILES; PRE-TREATING BY WASHING ETC >10T/DAY",Huddersfield Dyeing Company Limited,Canal Bank Dyeworks Canal Street Leeds Road West Yorkshire,HD1 6NY,415180,417860,Yorkshire,Wastewater,Cypermethrin,0.005,0.0262,Paper and textiles,Textiles,1.30E-05,53.65701562,-1.771785386,Yorkshire and The Humber
PP3830BV,"WASTE LANDFILLING; >10 T/D WITH CAPACITY >25,000T EXCLUDING INERT WASTE",Integrated Waste Management Ltd,Queens Road Immingham Lincolnshire,DN40 1QR,520070,414100,Lincolnshire and Northamptonshire,Wastewater,Benzo(a)pyrene,1,0,Landfill,Non Hazardous Landfill,,53.60970233,-0.186626797,Yorkshire and The Humber
PP3830BV,"WASTE LANDFILLING; >10 T/D WITH CAPACITY >25,000T EXCLUDING INERT WASTE",Integrated Waste Management Ltd,Queens Road Immingham Lincolnshire,DN40 1QR,520070,414100,Lincolnshire and Northamptonshire,Wastewater,Cypermethrin,0.005,0,Landfill,Non Hazardous Landfill,1.30E-05,53.60970233,-0.186626797,Yorkshire and The Humber
PP3830BV,"WASTE LANDFILLING; >10 T/D WITH CAPACITY >25,000T EXCLUDING INERT WASTE",Integrated Waste Management Ltd,Queens Road Immingham Lincolnshire,DN40 1QR,520070,414100,Lincolnshire and Northamptonshire,Wastewater,Fluoranthene,0.1,0,Landfill,Non Hazardous Landfill,,53.60970233,-0.186626797,Yorkshire and The Humber
PP3830BV,"WASTE LANDFILLING; >10 T/D WITH CAPACITY >25,000T EXCLUDING INERT WASTE",Integrated Waste Management Ltd,Queens Road Immingham Lincolnshire,DN40 1QR,520070,414100,Lincolnshire and Northamptonshire,Wastewater,Heptachlor,0.1,0,Landfill,Non Hazardous Landfill,,53.60970233,-0.186626797,Yorkshire and The Humber
PP3830BV,"WASTE LANDFILLING; >10 T/D WITH CAPACITY >25,000T EXCLUDING INERT WASTE",Integrated Waste Management Ltd,Queens Road Immingham Lincolnshire,DN40 1QR,520070,414100,Lincolnshire and Northamptonshire,Wastewater,"Indeno(1,2,3-cd)pyrene",1,0,Landfill,Non Hazardous Landfill,,53.60970233,-0.186626797,Yorkshire and The Humber
QP3538XB,"COATING, PRINTING AND TEXTILES; PRE-TREATING BY WASHING ETC >10T/DAY",W.T.Johnson and Sons (Huddersfield) Ltd,Bankfield Mills Wakefield Road Moldgreen West Yorkshire,HD5 9BB,415560,416260,Yorkshire,Wastewater,Cypermethrin,0.005,0.0124,Paper and textiles,Textiles,1.30E-05,53.64262357,-1.766115129,Yorkshire and The Humber
QP3539XL,"WASTE LANDFILLING; >10 T/D WITH CAPACITY >25,000T EXCLUDING INERT WASTE",Integrated Waste Management Ltd,"Winterton Landfill Site Winterton Effluent Treatment Plant Coleby Street,West Halton Winterton North Lincolnshire",DN15 9AP,491280,420230,Lincolnshire and Northamptonshire,Wastewater,Benzo(a)pyrene,1,0,Landfill,Non Hazardous Landfill,,53.67058457,-0.619827637,Yorkshire and The Humber
QP3539XL,"WASTE LANDFILLING; >10 T/D WITH CAPACITY >25,000T EXCLUDING INERT WASTE",Integrated Waste Management Ltd,"Winterton Landfill Site Winterton Effluent Treatment Plant Coleby Street,West Halton Winterton North Lincolnshire",DN15 9AP,491280,420230,Lincolnshire and Northamptonshire,Wastewater,Cypermethrin,0.005,0,Landfill,Non Hazardous Landfill,1.30E-05,53.67058457,-0.619827637,Yorkshire and The Humber
QP3539XL,"WASTE LANDFILLING; >10 T/D WITH CAPACITY >25,000T EXCLUDING INERT WASTE",Integrated Waste Management Ltd,"Winterton Landfill Site Winterton Effluent Treatment Plant Coleby Street,West Halton Winterton North Lincolnshire",DN15 9AP,491280,420230,Lincolnshire and Northamptonshire,Wastewater,Fluoranthene,0.1,0,Landfill,Non Hazardous Landfill,,53.67058457,-0.619827637,Yorkshire and The Humber
QP3539XL,"WASTE LANDFILLING; >10 T/D WITH CAPACITY >25,000T EXCLUDING INERT WASTE",Integrated Waste Management Ltd,"Winterton Landfill Site Winterton Effluent Treatment Plant Coleby Street,West Halton Winterton North Lincolnshire",DN15 9AP,491280,420230,Lincolnshire and Northamptonshire,Wastewater,Heptachlor,0.1,0,Landfill,Non Hazardous Landfill,,53.67058457,-0.619827637,Yorkshire and The Humber
QP3539XL,"WASTE LANDFILLING; >10 T/D WITH CAPACITY >25,000T EXCLUDING INERT WASTE",Integrated Waste Management Ltd,"Winterton Landfill Site Winterton Effluent Treatment Plant Coleby Street,West Halton Winterton North Lincolnshire",DN15 9AP,491280,420230,Lincolnshire and Northamptonshire,Wastewater,"Indeno(1,2,3-cd)pyrene",1,0,Landfill,Non Hazardous Landfill,,53.67058457,-0.619827637,Yorkshire and The Humber
RP3630ZN,OTHER WASTE DISPOSAL; HAZARDOUS WASTE >10T/D,Mytum and Selby Waste Recycling Limited,Mill Cross Quarry Materials Recycling And Elv Facility Garden Lane Sherburn In Elmet West Yorkshire,LS25 6AT,448960,433000,Yorkshire,Wastewater,Benzo(a)pyrene,1,0,Waste Treatment,Hazardous,,53.79101987,-1.258298056,Yorkshire and The Humber
RP3630ZN,OTHER WASTE DISPOSAL; HAZARDOUS WASTE >10T/D,Mytum and Selby Waste Recycling Limited,Mill Cross Quarry Materials Recycling And Elv Facility Garden Lane Sherburn In Elmet West Yorkshire,LS25 6AT,448960,433000,Yorkshire,Wastewater,Cypermethrin,0.005,0,Waste Treatment,Hazardous,1.30E-05,53.79101987,-1.258298056,Yorkshire and The Humber
RP3630ZN,OTHER WASTE DISPOSAL; HAZARDOUS WASTE >10T/D,Mytum and Selby Waste Recycling Limited,Mill Cross Quarry Materials Recycling And Elv Facility Garden Lane Sherburn In Elmet West Yorkshire,LS25 6AT,448960,433000,Yorkshire,Wastewater,Fluoranthene,0.1,0,Waste Treatment,Hazardous,,53.79101987,-1.258298056,Yorkshire and The Humber
RP3630ZN,OTHER WASTE DISPOSAL; HAZARDOUS WASTE >10T/D,Mytum and Selby Waste Recycling Limited,Mill Cross Quarry Materials Recycling And Elv Facility Garden Lane Sherburn In Elmet West Yorkshire,LS25 6AT,448960,433000,Yorkshire,Wastewater,Heptachlor,0.1,0,Waste Treatment,Hazardous,,53.79101987,-1.258298056,Yorkshire and The Humber
RP3630ZN,OTHER WASTE DISPOSAL; HAZARDOUS WASTE >10T/D,Mytum and Selby Waste Recycling Limited,Mill Cross Quarry Materials Recycling And Elv Facility Garden Lane Sherburn In Elmet West Yorkshire,LS25 6AT,448960,433000,Yorkshire,Wastewater,"Indeno(1,2,3-cd)pyrene",1,0,Waste Treatment,Hazardous,,53.79101987,-1.258298056,Yorkshire and The Humber
T/81/45102/R,,SEVERN TRENT WATER LTD,Scunthorpe STW Yaddlethorpe,DN17 3PS,487292,405965,East Midlands,Controlled Waters,Benzo(a)pyrene,1,0,Water Industry,Water Industry,,53.54308142,-0.684163917,Yorkshire and The Humber
T/81/45102/R,,SEVERN TRENT WATER LTD,Scunthorpe STW Yaddlethorpe,DN17 3PS,487292,405965,East Midlands,Controlled Waters,Fluoranthene,0.1,0,Water Industry,Water Industry,,53.54308142,-0.684163917,Yorkshire and The Humber
T/81/45102/R,,SEVERN TRENT WATER LTD,Scunthorpe STW Yaddlethorpe,DN17 3PS,487292,405965,East Midlands,Controlled Waters,"Indeno(1,2,3-cd)pyrene",1,0,Water Industry,Water Industry,,53.54308142,-0.684163917,Yorkshire and The Humber
TP3039RN,DISPOSAL OR RECOVERY OF HAZ WASTE WITH CAPACITY EXCEEDING 10 TONNES PER DAY INVOLVING BLENDING OR MIXING PRIOR TO SUBMISSION TO ANY OF THE OTHER ACTIVITIES LISTED IN THIS SECTION OR IN SECTION 5.1,Biffa Waste Services Limited,Sheffield Waste Management Centre Holbrook Rise Holbrook Industrial Estate Sheffield South Yorkshire,S20 3FG,443960,381520,Yorkshire,Controlled Waters,Cypermethrin,0.005,0,Waste Treatment,Hazardous,1.30E-05,53.32877755,-1.341411987,Yorkshire and The Humber
UP3230LR,COMBUSTION; ANY FUEL  =>50MW,Phillips 66 Limited,Humber Oil Refinery Eastfield Road North Lincolnshire,DN40 3DW,516210,416450,Lincolnshire and Northamptonshire,Controlled Waters,Benzo(a)pyrene,1,0,Refineries & Fuel,Refineries & Fuel,,53.63168418,-0.244063623,Yorkshire and The Humber
UP3230LR,COMBUSTION; ANY FUEL  =>50MW,Phillips 66 Limited,Humber Oil Refinery Eastfield Road North Lincolnshire,DN40 3DW,516210,416450,Lincolnshire and Northamptonshire,Controlled Waters,Fluoranthene,0.1,0,Refineries & Fuel,Refineries & Fuel,,53.63168418,-0.244063623,Yorkshire and The Humber
UP3230LR,COMBUSTION; ANY FUEL  =>50MW,Phillips 66 Limited,Humber Oil Refinery Eastfield Road North Lincolnshire,DN40 3DW,516210,416450,Lincolnshire and Northamptonshire,Controlled Waters,"Indeno(1,2,3-cd)pyrene",1,0,Refineries & Fuel,Refineries & Fuel,,53.63168418,-0.244063623,Yorkshire and The Humber
UP3937FW,TREATMENT AND PROCESSING (OTHER THAN PACKAGING) OF ONLY VEGETABLE RAW MATERIALS WITH A FINISHED PRODUCT CAPACITY > 300 T/D (OR 600 T/D FOR OPERATIONS LESS THAN 90 CONSECUTIVE DAYS IN ANY YEAR_,Cawingredients Limited,Caw House Conygarth Way Leeming Bar Business Park Leeming Bar North Yorkshire,DL7 9FD,428230,490060,Yorkshire,Controlled Waters,Benzo(a)pyrene,1,0,Food & Drink,Food & Drink,,54.30536922,-1.567666101,Yorkshire and The Humber
UP3937FW,TREATMENT AND PROCESSING (OTHER THAN PACKAGING) OF ONLY VEGETABLE RAW MATERIALS WITH A FINISHED PRODUCT CAPACITY > 300 T/D (OR 600 T/D FOR OPERATIONS LESS THAN 90 CONSECUTIVE DAYS IN ANY YEAR_,Cawingredients Limited,Caw House Conygarth Way Leeming Bar Business Park Leeming Bar North Yorkshire,DL7 9FD,428230,490060,Yorkshire,Controlled Waters,Fluoranthene,0.1,0,Food & Drink,Food & Drink,,54.30536922,-1.567666101,Yorkshire and The Humber
UP3937FW,TREATMENT AND PROCESSING (OTHER THAN PACKAGING) OF ONLY VEGETABLE RAW MATERIALS WITH A FINISHED PRODUCT CAPACITY > 300 T/D (OR 600 T/D FOR OPERATIONS LESS THAN 90 CONSECUTIVE DAYS IN ANY YEAR_,Cawingredients Limited,Caw House Conygarth Way Leeming Bar Business Park Leeming Bar North Yorkshire,DL7 9FD,428230,490060,Yorkshire,Controlled Waters,Heptachlor,0.1,0,Food & Drink,Food & Drink,,54.30536922,-1.567666101,Yorkshire and The Humber
UP3937FW,TREATMENT AND PROCESSING (OTHER THAN PACKAGING) OF ONLY VEGETABLE RAW MATERIALS WITH A FINISHED PRODUCT CAPACITY > 300 T/D (OR 600 T/D FOR OPERATIONS LESS THAN 90 CONSECUTIVE DAYS IN ANY YEAR_,Cawingredients Limited,Caw House Conygarth Way Leeming Bar Business Park Leeming Bar North Yorkshire,DL7 9FD,428230,490060,Yorkshire,Controlled Waters,"Indeno(1,2,3-cd)pyrene",1,0,Food & Drink,Food & Drink,,54.30536922,-1.567666101,Yorkshire and The Humber
VP3230BH,"WASTE LANDFILLING; >10 T/D WITH CAPACITY >25,000T EXCLUDING INERT WASTE",Integrated Waste Management Ltd,Gallymoor Landfill Market Weighton Road Holme On Spalding Moor North Yorkshire,YO43 4ED,484000,439810,Yorkshire,Wastewater,Benzo(a)pyrene,1,0,Landfill,Non Hazardous Landfill,,53.84774523,-0.724670316,Yorkshire and The Humber
VP3230BH,"WASTE LANDFILLING; >10 T/D WITH CAPACITY >25,000T EXCLUDING INERT WASTE",Integrated Waste Management Ltd,Gallymoor Landfill Market Weighton Road Holme On Spalding Moor North Yorkshire,YO43 4ED,484000,439810,Yorkshire,Wastewater,Cypermethrin,0.005,0,Landfill,Non Hazardous Landfill,1.30E-05,53.84774523,-0.724670316,Yorkshire and The Humber
VP3230BH,"WASTE LANDFILLING; >10 T/D WITH CAPACITY >25,000T EXCLUDING INERT WASTE",Integrated Waste Management Ltd,Gallymoor Landfill Market Weighton Road Holme On Spalding Moor North Yorkshire,YO43 4ED,484000,439810,Yorkshire,Wastewater,Fluoranthene,0.1,0,Landfill,Non Hazardous Landfill,,53.84774523,-0.724670316,Yorkshire and The Humber
VP3230BH,"WASTE LANDFILLING; >10 T/D WITH CAPACITY >25,000T EXCLUDING INERT WASTE",Integrated Waste Management Ltd,Gallymoor Landfill Market Weighton Road Holme On Spalding Moor North Yorkshire,YO43 4ED,484000,439810,Yorkshire,Wastewater,Heptachlor,0.1,0,Landfill,Non Hazardous Landfill,,53.84774523,-0.724670316,Yorkshire and The Humber
VP3230BH,"WASTE LANDFILLING; >10 T/D WITH CAPACITY >25,000T EXCLUDING INERT WASTE",Integrated Waste Management Ltd,Gallymoor Landfill Market Weighton Road Holme On Spalding Moor North Yorkshire,YO43 4ED,484000,439810,Yorkshire,Wastewater,"Indeno(1,2,3-cd)pyrene",1,0,Landfill,Non Hazardous Landfill,,53.84774523,-0.724670316,Yorkshire and The Humber
WP3330BZ,"WASTE LANDFILLING; >10 T/D WITH CAPACITY >25,000T EXCLUDING INERT WASTE",Welbeck Waste Management Ltd,Welbeck Landfill Site Boundary Lane Normanton Wakefield West Yorkshire,WF6 2JA,436140,422090,Yorkshire,Wastewater,Benzo(a)pyrene,1,0,Landfill,Non Hazardous Landfill,,53.69401005,-1.454157909,Yorkshire and The Humber
WP3330BZ,"WASTE LANDFILLING; >10 T/D WITH CAPACITY >25,000T EXCLUDING INERT WASTE",Welbeck Waste Management Ltd,Welbeck Landfill Site Boundary Lane Normanton Wakefield West Yorkshire,WF6 2JA,436140,422090,Yorkshire,Wastewater,Cypermethrin,0.005,0,Landfill,Non Hazardous Landfill,1.30E-05,53.69401005,-1.454157909,Yorkshire and The Humber
WP3330BZ,"WASTE LANDFILLING; >10 T/D WITH CAPACITY >25,000T EXCLUDING INERT WASTE",Welbeck Waste Management Ltd,Welbeck Landfill Site Boundary Lane Normanton Wakefield West Yorkshire,WF6 2JA,436140,422090,Yorkshire,Wastewater,Fluoranthene,0.1,0,Landfill,Non Hazardous Landfill,,53.69401005,-1.454157909,Yorkshire and The Humber
WP3330BZ,"WASTE LANDFILLING; >10 T/D WITH CAPACITY >25,000T EXCLUDING INERT WASTE",Welbeck Waste Management Ltd,Welbeck Landfill Site Boundary Lane Normanton Wakefield West Yorkshire,WF6 2JA,436140,422090,Yorkshire,Wastewater,Heptachlor,0.1,0,Landfill,Non Hazardous Landfill,,53.69401005,-1.454157909,Yorkshire and The Humber
WP3330BZ,"WASTE LANDFILLING; >10 T/D WITH CAPACITY >25,000T EXCLUDING INERT WASTE",Welbeck Waste Management Ltd,Welbeck Landfill Site Boundary Lane Normanton Wakefield West Yorkshire,WF6 2JA,436140,422090,Yorkshire,Wastewater,"Indeno(1,2,3-cd)pyrene",1,0,Landfill,Non Hazardous Landfill,,53.69401005,-1.454157909,Yorkshire and The Humber
WRA6925,,Yorkshire Water Services Limited,BRADFORD ESHOLT STW,BD10 0PB,419030,439081,Yorkshire,Controlled Waters,Cypermethrin,0.005,0,Water Industry,Water Industry,1.30E-05,53.84762302,-1.712232009,Yorkshire and The Humber
WRA7409,,Yorkshire Water Services Limited,HUDDERSFIELD STW,HD2 1FG,417124,419244,Yorkshire,Controlled Waters,Cypermethrin,0.005,0.1,Water Industry,Water Industry,1.30E-05,53.6693955,-1.742295056,Yorkshire and The Humber
XP3533WY,INORGANIC CHEMICALS; SALTS EG AMMONIUM CHLORIDE,Arch Timber Protection Limited,Huddersfield Chemical Industry PO Box A521 Leeds Road Huddersfield West Yorkshire,HD2 1FG,414540,416860,Yorkshire,Wastewater,Cypermethrin,0.005,0,Chemicals,Chemicals,1.30E-05,53.64804555,-1.781515622,Yorkshire and The Humber
AW3TS519,,Anglian Water,Pyewipe (Grimsby) STW,,528280,413140,Lincolnshire and Northamptonshire,Controlled Waters,Fluoranthene,0.1,0.14,Water Industry,Water Industry,,53.59913483,-0.063003576,Yorkshire and The Humber
AW3TS519,,Anglian Water,Pyewipe (Grimsby) STW,,528280,413140,Lincolnshire and Northamptonshire,Controlled Waters,Benzo(a)pyrene,1,0,Water Industry,Water Industry,,53.59913483,-0.063003576,Yorkshire and The Humber
AW3TS519,,Anglian Water,Pyewipe (Grimsby) STW,,528280,413140,Lincolnshire and Northamptonshire,Controlled Waters,"Indeno(1,2,3-cd)pyrene",1,0,Water Industry,Water Industry,,53.59913483,-0.063003576,Yorkshire and The Humber
GP3037SJ,"WASTE LANDFILLING; >10 T/D WITH CAPACITY >25,000T EXCLUDING INERT WASTE",Fcc Recycling (Uk) Limited,"Lillyhall Waste Management Centre Joseph Noble Road Lillyhall Industrial Estate,Lillyhall Workington Cumbria",CA14 4JH,,,Cumbria and Lancashire,Wastewater,Heptachlor,0.1,0,Landfill,Non Hazardous Landfill,,inf,inf,
