AUTHORISATION ID / PERMIT ID,ACTIVITY DESCRIPTION,OPERATOR NAME,SITE ADDRESS,SITE POSTCODE,EASTING,NORTHING,EA AREA NAME,ROUTE NAME,SUBSTANCE NAME,REPORTING THRESHOLD (kg),QUANTITY RELEASED (kg),REGULATED INDUSTRY SECTOR,REGULATED INDUSTRY SUB SECTOR,EA AREA NAME LABEL,ROUTE NAME LABEL,REGULATED INDUSTRY SECTOR LABEL,REGULATED INDUSTRY SUB SECTOR LABEL,PNEC (??g/L),Latitude,Longitude,REGION
RP3738ZK,DISPOSAL OF > 50 T/D NON-HAZARDOUS WASTE (> 100 T/D IF ONLY AD) INVOLVING PHYSICO-CHEMICAL TREATMENT ,Suez Recycling And Recovery Uk Ltd,"Enderby Leachate Treatment Plant,Enderby Landfill Site Mill Hill Leicestershire",LE9 5AL,453800,302600,East Midlands,Wastewater,"Indeno(1,2,3-cd)pyrene",1,0,Landfill,other,3,3,7,30,,52.61851204,-1.206772916,East Midlands
RP3738ZK,DISPOSAL OF > 50 T/D NON-HAZARDOUS WASTE (> 100 T/D IF ONLY AD) INVOLVING PHYSICO-CHEMICAL TREATMENT ,Suez Recycling And Recovery Uk Ltd,"Enderby Leachate Treatment Plant,Enderby Landfill Site Mill Hill Leicestershire",LE9 5AL,453800,302600,East Midlands,Wastewater,Benzo(a)pyrene,1,0,Landfill,other,3,3,7,30,,52.61851204,-1.206772916,East Midlands
RP3738ZK,DISPOSAL OF > 50 T/D NON-HAZARDOUS WASTE (> 100 T/D IF ONLY AD) INVOLVING PHYSICO-CHEMICAL TREATMENT ,Suez Recycling And Recovery Uk Ltd,"Enderby Leachate Treatment Plant,Enderby Landfill Site Mill Hill Leicestershire",LE9 5AL,453800,302600,East Midlands,Wastewater,Fluoranthene,0.1,0,Landfill,other,3,3,7,30,,52.61851204,-1.206772916,East Midlands
VP3130BK,"WASTE LANDFILLING; >10 T/D WITH CAPACITY >25,000T EXCLUDING INERT WASTE",ALAB ENVIRONMENTAL SERVICES LIMITED,NETTLETON BOTTOM QUARRY Rothwell Lincolnshire,LN7 6SR,512730,397880,Lincolnshire and Northamptonshire,Controlled Waters,"Indeno(1,2,3-cd)pyrene",1,0,Landfill,Non Hazardous Landfill,7,1,7,17,,53.46560447,-0.303351536,East Midlands
VP3130BK,"WASTE LANDFILLING; >10 T/D WITH CAPACITY >25,000T EXCLUDING INERT WASTE",ALAB ENVIRONMENTAL SERVICES LIMITED,NETTLETON BOTTOM QUARRY Rothwell Lincolnshire,LN7 6SR,512730,397880,Lincolnshire and Northamptonshire,Controlled Waters,Fluoranthene,0.1,0,Landfill,Non Hazardous Landfill,7,1,7,17,,53.46560447,-0.303351536,East Midlands
VP3130BK,"WASTE LANDFILLING; >10 T/D WITH CAPACITY >25,000T EXCLUDING INERT WASTE",ALAB ENVIRONMENTAL SERVICES LIMITED,NETTLETON BOTTOM QUARRY Rothwell Lincolnshire,LN7 6SR,512730,397880,Lincolnshire and Northamptonshire,Controlled Waters,Heptachlor,0.1,0,Landfill,Non Hazardous Landfill,7,1,7,17,,53.46560447,-0.303351536,East Midlands
VP3130BK,"WASTE LANDFILLING; >10 T/D WITH CAPACITY >25,000T EXCLUDING INERT WASTE",ALAB ENVIRONMENTAL SERVICES LIMITED,NETTLETON BOTTOM QUARRY Rothwell Lincolnshire,LN7 6SR,512730,397880,Lincolnshire and Northamptonshire,Controlled Waters,Benzo(a)pyrene,1,0,Landfill,Non Hazardous Landfill,7,1,7,17,,53.46560447,-0.303351536,East Midlands
VP3130BK,"WASTE LANDFILLING; >10 T/D WITH CAPACITY >25,000T EXCLUDING INERT WASTE",ALAB ENVIRONMENTAL SERVICES LIMITED,NETTLETON BOTTOM QUARRY Rothwell Lincolnshire,LN7 6SR,512730,397880,Lincolnshire and Northamptonshire,Controlled Waters,Cypermethrin,0.005,0,Landfill,Non Hazardous Landfill,7,1,7,17,1.30E-05,53.46560447,-0.303351536,East Midlands
PP3630BC,"WASTE LANDFILLING; >10 T/D WITH CAPACITY >25,000T EXCLUDING INERT WASTE",Lincwaste Ltd,Kenwick Landfill London Road Lincolnshire,LN11 9QP,533110,386420,Lincolnshire and Northamptonshire,Wastewater,"Indeno(1,2,3-cd)pyrene",1,0,Landfill,Non Hazardous Landfill,7,3,7,17,,53.35790763,-0.001378729,East Midlands
PP3630BC,"WASTE LANDFILLING; >10 T/D WITH CAPACITY >25,000T EXCLUDING INERT WASTE",Lincwaste Ltd,Kenwick Landfill London Road Lincolnshire,LN11 9QP,533110,386420,Lincolnshire and Northamptonshire,Wastewater,Benzo(a)pyrene,1,0,Landfill,Non Hazardous Landfill,7,3,7,17,,53.35790763,-0.001378729,East Midlands
PP3630BC,"WASTE LANDFILLING; >10 T/D WITH CAPACITY >25,000T EXCLUDING INERT WASTE",Lincwaste Ltd,Kenwick Landfill London Road Lincolnshire,LN11 9QP,533110,386420,Lincolnshire and Northamptonshire,Wastewater,Cypermethrin,0.005,0,Landfill,Non Hazardous Landfill,7,3,7,17,1.30E-05,53.35790763,-0.001378729,East Midlands
PP3630BC,"WASTE LANDFILLING; >10 T/D WITH CAPACITY >25,000T EXCLUDING INERT WASTE",Lincwaste Ltd,Kenwick Landfill London Road Lincolnshire,LN11 9QP,533110,386420,Lincolnshire and Northamptonshire,Wastewater,Fluoranthene,0.1,0,Landfill,Non Hazardous Landfill,7,3,7,17,,53.35790763,-0.001378729,East Midlands
PP3630BC,"WASTE LANDFILLING; >10 T/D WITH CAPACITY >25,000T EXCLUDING INERT WASTE",Lincwaste Ltd,Kenwick Landfill London Road Lincolnshire,LN11 9QP,533110,386420,Lincolnshire and Northamptonshire,Wastewater,Heptachlor,0.1,0,Landfill,Non Hazardous Landfill,7,3,7,17,,53.35790763,-0.001378729,East Midlands
BW0991IX,"WASTE LANDFILLING; >10 T/D WITH CAPACITY >25,000T EXCLUDING INERT WASTE",Valencia Waste Management Limited,Erin Landfill Markham Lane Duckmanton,S44 5HS,444900,373000,Yorkshire,Wastewater,Benzo(a)pyrene,1,0,Landfill,Non Hazardous Landfill,13,3,7,17,,53.2521202,-1.328500562,East Midlands
BW0991IX,"WASTE LANDFILLING; >10 T/D WITH CAPACITY >25,000T EXCLUDING INERT WASTE",Valencia Waste Management Limited,Erin Landfill Markham Lane Duckmanton,S44 5HS,444900,373000,Yorkshire,Wastewater,Fluoranthene,0.1,0,Landfill,Non Hazardous Landfill,13,3,7,17,,53.2521202,-1.328500562,East Midlands
BK1449IK,"WASTE LANDFILLING; >10 T/D WITH CAPACITY >25,000T EXCLUDING INERT WASTE",Tarmac Aggregates Limited,Cotesbach Landfill Gibbet Lane Shawell Lutterworth Leicestershire,LE17 6AA,454000,280600,West Midlands,Wastewater,Heptachlor,0.1,0,Landfill,Non Hazardous Landfill,12,3,7,17,,52.4207335,-1.207385065,East Midlands
CP3899SD,DISPOSAL OR RECOVERY OF HAZARDOUS WASTE WITH A CAPACITY EXCEEDING 10 TONNES PER DAY INVOLVING BIOLOGICAL TREATMENT,Environcom England Limited,Spittlegate Level Spittlegate Level Lincolnshire,NG31 7UH,491940,333440,Lincolnshire and Northamptonshire,Wastewater,"Indeno(1,2,3-cd)pyrene",1,0,Waste Treatment,Metals Recycling,7,3,14,14,,52.89056205,-0.634920759,East Midlands
CP3899SD,DISPOSAL OR RECOVERY OF HAZARDOUS WASTE WITH A CAPACITY EXCEEDING 10 TONNES PER DAY INVOLVING BIOLOGICAL TREATMENT,Environcom England Limited,Spittlegate Level Spittlegate Level Lincolnshire,NG31 7UH,491940,333440,Lincolnshire and Northamptonshire,Wastewater,Benzo(a)pyrene,1,0,Waste Treatment,Metals Recycling,7,3,14,14,,52.89056205,-0.634920759,East Midlands
CP3899SD,DISPOSAL OR RECOVERY OF HAZARDOUS WASTE WITH A CAPACITY EXCEEDING 10 TONNES PER DAY INVOLVING BIOLOGICAL TREATMENT,Environcom England Limited,Spittlegate Level Spittlegate Level Lincolnshire,NG31 7UH,491940,333440,Lincolnshire and Northamptonshire,Wastewater,Cypermethrin,0.005,0,Waste Treatment,Metals Recycling,7,3,14,14,1.30E-05,52.89056205,-0.634920759,East Midlands
CP3899SD,DISPOSAL OR RECOVERY OF HAZARDOUS WASTE WITH A CAPACITY EXCEEDING 10 TONNES PER DAY INVOLVING BIOLOGICAL TREATMENT,Environcom England Limited,Spittlegate Level Spittlegate Level Lincolnshire,NG31 7UH,491940,333440,Lincolnshire and Northamptonshire,Wastewater,Fluoranthene,0.1,0,Waste Treatment,Metals Recycling,7,3,14,14,,52.89056205,-0.634920759,East Midlands
CP3899SD,DISPOSAL OR RECOVERY OF HAZARDOUS WASTE WITH A CAPACITY EXCEEDING 10 TONNES PER DAY INVOLVING BIOLOGICAL TREATMENT,Environcom England Limited,Spittlegate Level Spittlegate Level Lincolnshire,NG31 7UH,491940,333440,Lincolnshire and Northamptonshire,Wastewater,Heptachlor,0.1,0,Waste Treatment,Metals Recycling,7,3,14,14,,52.89056205,-0.634920759,East Midlands
ZP3009BB,"PAPER, PULP AND BOARD; PRODUCING PAPER/BOARD >20T/D",Northwood Tissue (Chesterfield) Ltd,Chesterfield Paper Mill Goyt Side Road Derbyshire,S40 2PH,436850,370600,Yorkshire,Wastewater,Cypermethrin,0.005,0,Paper and textiles,Paper & Pulp,13,3,12,23,1.30E-05,53.23116628,-1.449423475,East Midlands
KP3403PD,LOADING/STORAGE/TREATMENT ETC OF CRUDE OIL,Phillips 66 Limited,"Crude Oil terminals Ltd,Tetney Oil Terminal Tetney Lock Road Tetney Grimsby Lincolnshire",DN36 5NX,532830,402210,Lincolnshire and Northamptonshire,Controlled Waters,"Indeno(1,2,3-cd)pyrene",1,0,Refineries & Fuel,Refineries & Fuel,7,1,13,25,,53.49982028,0.00106907,East Midlands
KP3403PD,LOADING/STORAGE/TREATMENT ETC OF CRUDE OIL,Phillips 66 Limited,"Crude Oil terminals Ltd,Tetney Oil Terminal Tetney Lock Road Tetney Grimsby Lincolnshire",DN36 5NX,532830,402210,Lincolnshire and Northamptonshire,Controlled Waters,Fluoranthene,0.1,0,Refineries & Fuel,Refineries & Fuel,7,1,13,25,,53.49982028,0.00106907,East Midlands
KP3403PD,LOADING/STORAGE/TREATMENT ETC OF CRUDE OIL,Phillips 66 Limited,"Crude Oil terminals Ltd,Tetney Oil Terminal Tetney Lock Road Tetney Grimsby Lincolnshire",DN36 5NX,532830,402210,Lincolnshire and Northamptonshire,Controlled Waters,Benzo(a)pyrene,1,0,Refineries & Fuel,Refineries & Fuel,7,1,13,25,,53.49982028,0.00106907,East Midlands
ANNNF2073,,Anglian Water,Lincoln(Canwick) STW,,499810,370880,Lincolnshire and Northamptonshire,Controlled Waters,Fluoranthene,0.1,0.12,Water Industry,Water Industry,7,1,15,29,,53.22559823,-0.506398278,East Midlands
AWNNF13399,,Anglian Water,Broadholme STW,,494150,268750,Lincolnshire and Northamptonshire,Controlled Waters,Fluoranthene,0.1,0.2,Water Industry,Water Industry,7,1,15,29,,52.3088025,-0.620468401,East Midlands
AWNNF13052,,Anglian Water,Great Billing STW,,483280,261550,Lincolnshire and Northamptonshire,Controlled Waters,Fluoranthene,0.1,0.27,Water Industry,Water Industry,7,1,15,29,,52.24584109,-0.78163915,East Midlands
T/48/12074/R,,SEVERN TRENT WATER LTD,Derby Sewage Treatment Works Chp Plant Megaloughton Lane Spondon Derby Derbyshire,DE21 7BR,438830,343470,East Midlands,Controlled Waters,Fluoranthene,0.1,0.36,Water Industry,Water Industry,3,1,15,29,,52.98716657,-1.423035169,East Midlands
T/53/45014/R,,SEVERN TRENT WATER LTD,Wanlip Sewage Treatment Works Fillingate Wanlip Leicester Leicestershire,LE7 4PF,459760,311500,East Midlands,Controlled Waters,Fluoranthene,0.1,0.61,Water Industry,Water Industry,3,1,15,29,,52.69788886,-1.117140761,East Midlands
T/64/45170/R,,SEVERN TRENT WATER LTD,Stoke Bardolph STW Nottingham,NG14 5HL,464730,342220,East Midlands,Controlled Waters,Fluoranthene,0.1,0.61,Water Industry,Water Industry,3,1,15,29,,52.97343473,-1.037524955,East Midlands
AWNNF13399,,Anglian Water,Broadholme STW,,494150,268750,Lincolnshire and Northamptonshire,Controlled Waters,"Indeno(1,2,3-cd)pyrene",1,1.12,Water Industry,Water Industry,7,1,15,29,,52.3088025,-0.620468401,East Midlands
AWNNF13052,,Anglian Water,Great Billing STW,,483280,261550,Lincolnshire and Northamptonshire,Controlled Waters,Benzo(a)pyrene,1,1.17,Water Industry,Water Industry,7,1,15,29,,52.24584109,-0.78163915,East Midlands
AWNNF13052,,Anglian Water,Great Billing STW,,483280,261550,Lincolnshire and Northamptonshire,Controlled Waters,"Indeno(1,2,3-cd)pyrene",1,1.51,Water Industry,Water Industry,7,1,15,29,,52.24584109,-0.78163915,East Midlands
T/48/12074/R,,SEVERN TRENT WATER LTD,Derby Sewage Treatment Works Chp Plant Megaloughton Lane Spondon Derby Derbyshire,DE21 7BR,438830,343470,East Midlands,Controlled Waters,Benzo(a)pyrene,1,1.59,Water Industry,Water Industry,3,1,15,29,,52.98716657,-1.423035169,East Midlands
T/48/12074/R,,SEVERN TRENT WATER LTD,Derby Sewage Treatment Works Chp Plant Megaloughton Lane Spondon Derby Derbyshire,DE21 7BR,438830,343470,East Midlands,Controlled Waters,"Indeno(1,2,3-cd)pyrene",1,2.06,Water Industry,Water Industry,3,1,15,29,,52.98716657,-1.423035169,East Midlands
T/64/45170/R,,SEVERN TRENT WATER LTD,Stoke Bardolph STW Nottingham,NG14 5HL,464730,342220,East Midlands,Controlled Waters,Benzo(a)pyrene,1,2.69,Water Industry,Water Industry,3,1,15,29,,52.97343473,-1.037524955,East Midlands
T/53/45014/R,,SEVERN TRENT WATER LTD,Wanlip Sewage Treatment Works Fillingate Wanlip Leicester Leicestershire,LE7 4PF,459760,311500,East Midlands,Controlled Waters,Benzo(a)pyrene,1,2.7,Water Industry,Water Industry,3,1,15,29,,52.69788886,-1.117140761,East Midlands
T/64/45170/R,,SEVERN TRENT WATER LTD,Stoke Bardolph STW Nottingham,NG14 5HL,464730,342220,East Midlands,Controlled Waters,"Indeno(1,2,3-cd)pyrene",1,3.48,Water Industry,Water Industry,3,1,15,29,,52.97343473,-1.037524955,East Midlands
T/53/45014/R,,SEVERN TRENT WATER LTD,Wanlip Sewage Treatment Works Fillingate Wanlip Leicester Leicestershire,LE7 4PF,459760,311500,East Midlands,Controlled Waters,"Indeno(1,2,3-cd)pyrene",1,3.5,Water Industry,Water Industry,3,1,15,29,,52.69788886,-1.117140761,East Midlands
AWNNF13399,,Anglian Water,Broadholme STW,,494150,268750,Lincolnshire and Northamptonshire,Controlled Waters,Benzo(a)pyrene,1,0,Water Industry,Water Industry,7,1,15,29,,52.3088025,-0.620468401,East Midlands
ANNNF2073,,Anglian Water,Lincoln(Canwick) STW,,499810,370880,Lincolnshire and Northamptonshire,Controlled Waters,"Indeno(1,2,3-cd)pyrene",1,0,Water Industry,Water Industry,7,1,15,29,,53.22559823,-0.506398278,East Midlands
ANNNF2073,,Anglian Water,Lincoln(Canwick) STW,,499810,370880,Lincolnshire and Northamptonshire,Controlled Waters,Benzo(a)pyrene,1,0,Water Industry,Water Industry,7,1,15,29,,53.22559823,-0.506398278,East Midlands
WRA6756,,Yorkshire Water Services Limited,OLD WHITTINGTON STW,S41 9QU,439164,374345,Yorkshire,Controlled Waters,"Indeno(1,2,3-cd)pyrene",1,0,Water Industry,Water Industry,13,1,15,29,,53.26466246,-1.414301035,East Midlands
XP3705MV,Disposal of non-hazardous waste in a facility with a capacity of more than 50 tonnes per day by physico -chemical treatment. ,Syracuse Waste Ltd,Maple Lodge WWTW Denham Way Hertfordshire,WD3 9SQ,503860,192210,Hertfordshire and North London,Wastewater,"Indeno(1,2,3-cd)pyrene",1,0,Biowaste Treatment,Biowaste Treatment,5,3,1,0,,51.61914115,-0.501219573,East of England
XP3705MV,Disposal of non-hazardous waste in a facility with a capacity of more than 50 tonnes per day by physico -chemical treatment. ,Syracuse Waste Ltd,Maple Lodge WWTW Denham Way Hertfordshire,WD3 9SQ,503860,192210,Hertfordshire and North London,Wastewater,Fluoranthene,0.1,0,Biowaste Treatment,Biowaste Treatment,5,3,1,0,,51.61914115,-0.501219573,East of England
DP3938YY,Animal vegetable and food treating etc vegetable,Kingsley Beverage Limited,Kingsley Beverage Peterborough 2 Waterworth Road Cambridgeshire,PE73AG,514540,294220,Lincolnshire and Northamptonshire,Wastewater,Benzo(a)pyrene,1,0,Food & Drink,Food & Drink,7,3,6,7,,52.53381049,-0.312808444,East of England
AP3634FT,Animal vegetable and food treating etc vegetable,Princes Limited,Food Factory Lynn Road Wisbech Lynn Road Wisbech Cambridgeshire,PE13 3DG,546900,310500,Lincolnshire and Northamptonshire,Wastewater,Heptachlor,0.1,0,Food & Drink,Food & Drink,7,3,6,7,,52.67230218,0.171155241,East of England
AP3634FT,Animal vegetable and food treating etc vegetable,Princes Limited,Food Factory Lynn Road Wisbech Lynn Road Wisbech Cambridgeshire,PE13 3DG,546900,310500,Lincolnshire and Northamptonshire,Wastewater,Cypermethrin,0.005,0,Food & Drink,Food & Drink,7,3,6,7,1.30E-05,52.67230218,0.171155241,East of England
VP3838LP,DISPOSAL OR RECOVERY OF HAZARDOUS WASTE WITH A CAPACITY EXCEEDING 10 TONNES PER DAY INVOLVING PHYSICO-CHEMICAL TREATMENT,Oikos Storage Limited,"Hole Haven Wharf,Oikos Stoarge Ltd Haven Road Essex",SS8 0NR,577850,182090,East Anglia,Controlled Waters,"Indeno(1,2,3-cd)pyrene",1,0,Waste Treatment,Hazardous Waste,2,1,14,9,,51.50974637,0.561480306,East of England
VP3838LP,DISPOSAL OR RECOVERY OF HAZARDOUS WASTE WITH A CAPACITY EXCEEDING 10 TONNES PER DAY INVOLVING PHYSICO-CHEMICAL TREATMENT,Oikos Storage Limited,"Hole Haven Wharf,Oikos Stoarge Ltd Haven Road Essex",SS8 0NR,577850,182090,East Anglia,Wastewater,"Indeno(1,2,3-cd)pyrene",1,0,Waste Treatment,Hazardous Waste,2,3,14,9,,51.50974637,0.561480306,East of England
VP3838LP,DISPOSAL OR RECOVERY OF HAZARDOUS WASTE WITH A CAPACITY EXCEEDING 10 TONNES PER DAY INVOLVING PHYSICO-CHEMICAL TREATMENT,Oikos Storage Limited,"Hole Haven Wharf,Oikos Stoarge Ltd Haven Road Essex",SS8 0NR,577850,182090,East Anglia,Controlled Waters,Fluoranthene,0.1,0,Waste Treatment,Hazardous Waste,2,1,14,9,,51.50974637,0.561480306,East of England
VP3838LP,DISPOSAL OR RECOVERY OF HAZARDOUS WASTE WITH A CAPACITY EXCEEDING 10 TONNES PER DAY INVOLVING PHYSICO-CHEMICAL TREATMENT,Oikos Storage Limited,"Hole Haven Wharf,Oikos Stoarge Ltd Haven Road Essex",SS8 0NR,577850,182090,East Anglia,Controlled Waters,Heptachlor,0.1,0,Waste Treatment,Hazardous Waste,2,1,14,9,,51.50974637,0.561480306,East of England
VP3838LP,DISPOSAL OR RECOVERY OF HAZARDOUS WASTE WITH A CAPACITY EXCEEDING 10 TONNES PER DAY INVOLVING PHYSICO-CHEMICAL TREATMENT,Oikos Storage Limited,"Hole Haven Wharf,Oikos Stoarge Ltd Haven Road Essex",SS8 0NR,577850,182090,East Anglia,Controlled Waters,Benzo(a)pyrene,1,0,Waste Treatment,Hazardous Waste,2,1,14,9,,51.50974637,0.561480306,East of England
VP3838LP,DISPOSAL OR RECOVERY OF HAZARDOUS WASTE WITH A CAPACITY EXCEEDING 10 TONNES PER DAY INVOLVING PHYSICO-CHEMICAL TREATMENT,Oikos Storage Limited,"Hole Haven Wharf,Oikos Stoarge Ltd Haven Road Essex",SS8 0NR,577850,182090,East Anglia,Wastewater,Benzo(a)pyrene,1,0,Waste Treatment,Hazardous Waste,2,3,14,9,,51.50974637,0.561480306,East of England
VP3838LP,DISPOSAL OR RECOVERY OF HAZARDOUS WASTE WITH A CAPACITY EXCEEDING 10 TONNES PER DAY INVOLVING PHYSICO-CHEMICAL TREATMENT,Oikos Storage Limited,"Hole Haven Wharf,Oikos Stoarge Ltd Haven Road Essex",SS8 0NR,577850,182090,East Anglia,Wastewater,Cypermethrin,0.005,0,Waste Treatment,Hazardous Waste,2,3,14,9,1.30E-05,51.50974637,0.561480306,East of England
VP3838LP,DISPOSAL OR RECOVERY OF HAZARDOUS WASTE WITH A CAPACITY EXCEEDING 10 TONNES PER DAY INVOLVING PHYSICO-CHEMICAL TREATMENT,Oikos Storage Limited,"Hole Haven Wharf,Oikos Stoarge Ltd Haven Road Essex",SS8 0NR,577850,182090,East Anglia,Controlled Waters,Cypermethrin,0.005,0,Waste Treatment,Hazardous Waste,2,1,14,9,1.30E-05,51.50974637,0.561480306,East of England
VP3838LP,DISPOSAL OR RECOVERY OF HAZARDOUS WASTE WITH A CAPACITY EXCEEDING 10 TONNES PER DAY INVOLVING PHYSICO-CHEMICAL TREATMENT,Oikos Storage Limited,"Hole Haven Wharf,Oikos Stoarge Ltd Haven Road Essex",SS8 0NR,577850,182090,East Anglia,Wastewater,Fluoranthene,0.1,0,Waste Treatment,Hazardous Waste,2,3,14,9,,51.50974637,0.561480306,East of England
VP3838LP,DISPOSAL OR RECOVERY OF HAZARDOUS WASTE WITH A CAPACITY EXCEEDING 10 TONNES PER DAY INVOLVING PHYSICO-CHEMICAL TREATMENT,Oikos Storage Limited,"Hole Haven Wharf,Oikos Stoarge Ltd Haven Road Essex",SS8 0NR,577850,182090,East Anglia,Wastewater,Heptachlor,0.1,0,Waste Treatment,Hazardous Waste,2,3,14,9,,51.50974637,0.561480306,East of England
BV4517IM,"WASTE LANDFILLING; >10 T/D WITH CAPACITY >25,000T EXCLUDING INERT WASTE",Valencia Waste Management Limited,Masons Landfill Site GREAT BLAKENHAM,IP6 0NW,611400,250200,East Anglia,Wastewater,Fluoranthene,0.1,0.57848,Landfill,Non Hazardous Landfill,2,3,7,17,,52.10970232,1.085775222,East of England
NP3736GU,"WASTE LANDFILLING; >10 T/D WITH CAPACITY >25,000T EXCLUDING INERT WASTE",Veolia ES Landfill Limited,Ockendon Area II & III Landfill Medebridge Road Essex,RM16 5TZ,561510,182470,East Anglia,Wastewater,"Indeno(1,2,3-cd)pyrene",1,0,Landfill,Non Hazardous Landfill,2,3,7,17,,51.51806341,0.326409169,East of England
NP3736GU,"WASTE LANDFILLING; >10 T/D WITH CAPACITY >25,000T EXCLUDING INERT WASTE",Veolia ES Landfill Limited,Ockendon Area II & III Landfill Medebridge Road Essex,RM16 5TZ,561510,182470,East Anglia,Wastewater,Benzo(a)pyrene,1,0,Landfill,Non Hazardous Landfill,2,3,7,17,,51.51806341,0.326409169,East of England
DP3439AZ,"WASTE LANDFILLING; >10 T/D WITH CAPACITY >25,000T EXCLUDING INERT WASTE",Norfolk County Council,Edgefield Landfill Site Holt Road Off B1149 Holt Norfolk,NR24 2RS,608380,335550,East Anglia,Wastewater,Fluoranthene,0.1,0,Landfill,Non Hazardous Landfill,2,3,7,17,,52.87703774,1.095117247,East of England
WP3434TW,"WASTE LANDFILLING; >10 T/D WITH CAPACITY >25,000T EXCLUDING INERT WASTE",Woodford Waste Management  Services Limited,Warboys Landfill Site Puddock Hill Warboys Huntingdon,PE28 2TX,530880,281900,East Anglia,Wastewater,Benzo(a)pyrene,1,0,Landfill,Non Hazardous Landfill,2,3,7,17,,52.4194397,-0.07688537,East of England
WP3434TW,"WASTE LANDFILLING; >10 T/D WITH CAPACITY >25,000T EXCLUDING INERT WASTE",Woodford Waste Management  Services Limited,Warboys Landfill Site Puddock Hill Warboys Huntingdon,PE28 2TX,530880,281900,East Anglia,Wastewater,Fluoranthene,0.1,0,Landfill,Non Hazardous Landfill,2,3,7,17,,52.4194397,-0.07688537,East of England
WP3434TW,"WASTE LANDFILLING; >10 T/D WITH CAPACITY >25,000T EXCLUDING INERT WASTE",Woodford Waste Management  Services Limited,Warboys Landfill Site Puddock Hill Warboys Huntingdon,PE28 2TX,530880,281900,East Anglia,Wastewater,Heptachlor,0.1,0,Landfill,Non Hazardous Landfill,2,3,7,17,,52.4194397,-0.07688537,East of England
PP3135SU,"WASTE LANDFILLING; >10 T/D WITH CAPACITY >25,000T EXCLUDING INERT WASTE",Tarmac Aggregates Limited,Brittons Hall Farm Landfill Site Chignal St James Essex,CM1 4LT,565960,210120,East Anglia,Wastewater,Heptachlor,0.1,0,Landfill,Non Hazardous Landfill,2,3,7,17,,51.76516491,0.403589133,East of England
BV4517IM,"WASTE LANDFILLING; >10 T/D WITH CAPACITY >25,000T EXCLUDING INERT WASTE",Valencia Waste Management Limited,Masons Landfill Site GREAT BLAKENHAM,IP6 0NW,611400,250200,East Anglia,Wastewater,Benzo(a)pyrene,1,0,Landfill,Non Hazardous Landfill,2,3,7,17,,52.10970232,1.085775222,East of England
BV4517IM,"WASTE LANDFILLING; >10 T/D WITH CAPACITY >25,000T EXCLUDING INERT WASTE",Valencia Waste Management Limited,Masons Landfill Site GREAT BLAKENHAM,IP6 0NW,611400,250200,East Anglia,Wastewater,Heptachlor,0.1,0,Landfill,Non Hazardous Landfill,2,3,7,17,,52.10970232,1.085775222,East of England
MP3435KP,"WASTE LANDFILLING; >10 T/D WITH CAPACITY >25,000T EXCLUDING INERT WASTE",Valencia Waste Management LTD,Elsenham Landfill HALL ROAD,CM22 6DJ,555000,227200,Hertfordshire and North London,Wastewater,Benzo(a)pyrene,1,0,Landfill,Non Hazardous Landfill,5,3,7,17,,51.92175041,0.252548459,East of England
MP3435KP,"WASTE LANDFILLING; >10 T/D WITH CAPACITY >25,000T EXCLUDING INERT WASTE",Valencia Waste Management LTD,Elsenham Landfill HALL ROAD,CM22 6DJ,555000,227200,Hertfordshire and North London,Wastewater,Fluoranthene,0.1,0,Landfill,Non Hazardous Landfill,5,3,7,17,,51.92175041,0.252548459,East of England
MP3435KP,"WASTE LANDFILLING; >10 T/D WITH CAPACITY >25,000T EXCLUDING INERT WASTE",Valencia Waste Management LTD,Elsenham Landfill HALL ROAD,CM22 6DJ,555000,227200,Hertfordshire and North London,Wastewater,Heptachlor,0.1,0,Landfill,Non Hazardous Landfill,5,3,7,17,,51.92175041,0.252548459,East of England
CNTW.0531,,Anglian Water,TILBURY STW,,565670,175350,East Anglia,Controlled Waters,Fluoranthene,0.1,0.11,Water Industry,Water Industry,2,1,15,29,,51.45289581,0.382973138,East of England
AEETS12128,,Anglian Water,Cliff Quay(Ipswich) STW,,617200,241900,East Anglia,Controlled Waters,Fluoranthene,0.1,0.11,Water Industry,Water Industry,2,1,15,29,,52.03294922,1.16506007,East of England
AW2TSE9961-2,,Anglian Water,Chelmsford(Brookend) STW,,584000,208200,East Anglia,Controlled Waters,Fluoranthene,0.1,0.13,Water Industry,Water Industry,2,1,15,29,,51.74228839,0.663708692,East of England
ASETS1046,,Anglian Water,Colchester(Haven) STW,,602250,223620,East Anglia,Controlled Waters,Fluoranthene,0.1,0.14,Water Industry,Water Industry,2,1,15,29,,51.87446424,0.936681821,East of England
AW1NF2460,,Anglian Water,Bedford STW,,508500,249600,East Anglia,Controlled Waters,Fluoranthene,0.1,0.17,Water Industry,Water Industry,2,1,15,29,,52.13405864,-0.416204867,East of England
ASCNF1033,,Anglian Water,Cambridge STW,,548350,261540,East Anglia,Controlled Waters,Fluoranthene,0.1,0.19,Water Industry,Water Industry,2,1,15,29,,52.23207646,0.170841174,East of England
CASM.0340,,Anglian Water,SOUTHEND ON SEA STW,,581900,190600,East Anglia,Controlled Waters,Fluoranthene,0.1,0.19,Water Industry,Water Industry,2,1,15,29,,51.58489477,0.624173135,East of England
AW5NF5178,,Anglian Water,Flag Fen STW,,522140,298140,Lincolnshire and Northamptonshire,Controlled Waters,Fluoranthene,0.1,0.21,Water Industry,Water Industry,7,1,15,29,,52.56738396,-0.199381261,East of England
AW4TF1789,,Anglian Water,Whitlingham(Norwich) STW,,627800,307700,East Anglia,Controlled Waters,Fluoranthene,0.1,0.25,Water Industry,Water Industry,2,1,15,29,,52.61924889,1.363855621,East of England
CLCR.0048,,THAMES WATER UTILITIES LTD,Rye Meads Combined Heat And Power Plant Off Rye Road Stanstead Abbotts Hertfordshire,SG12 8JY,539260,210400,Hertfordshire and North London,Controlled Waters,Fluoranthene,0.1,0.29,Water Industry,Water Industry,5,1,15,29,,51.77495262,0.017064529,East of England
CNTD.0071,,THAMES WATER UTILITIES LTD,MAPLE LODGE STW,WD3 9SQ,504200,192000,Hertfordshire and North London,Controlled Waters,Fluoranthene,0.1,0.4,Water Industry,Water Industry,5,1,15,29,,51.61719086,-0.496372735,East of England
ASCNF1033,,Anglian Water,Cambridge STW,,548350,261540,East Anglia,Controlled Waters,"Indeno(1,2,3-cd)pyrene",1,1.08,Water Industry,Water Industry,2,1,15,29,,52.23207646,0.170841174,East of England
CASM.0340,,Anglian Water,SOUTHEND ON SEA STW,,581900,190600,East Anglia,Controlled Waters,"Indeno(1,2,3-cd)pyrene",1,1.08,Water Industry,Water Industry,2,1,15,29,,51.58489477,0.624173135,East of England
AW4TF1789,,Anglian Water,Whitlingham(Norwich) STW,,627800,307700,East Anglia,Controlled Waters,Benzo(a)pyrene,1,1.09,Water Industry,Water Industry,2,1,15,29,,52.61924889,1.363855621,East of England
AW5NF5178,,Anglian Water,Flag Fen STW,,522140,298140,Lincolnshire and Northamptonshire,Controlled Waters,"Indeno(1,2,3-cd)pyrene",1,1.21,Water Industry,Water Industry,7,1,15,29,,52.56738396,-0.199381261,East of England
CLCR.0048,,THAMES WATER UTILITIES LTD,Rye Meads Combined Heat And Power Plant Off Rye Road Stanstead Abbotts Hertfordshire,SG12 8JY,539260,210400,Hertfordshire and North London,Controlled Waters,Benzo(a)pyrene,1,1.27,Water Industry,Water Industry,5,1,15,29,,51.77495262,0.017064529,East of England
AW4TF1789,,Anglian Water,Whitlingham(Norwich) STW,,627800,307700,East Anglia,Controlled Waters,"Indeno(1,2,3-cd)pyrene",1,1.41,Water Industry,Water Industry,2,1,15,29,,52.61924889,1.363855621,East of England
CLCR.0048,,THAMES WATER UTILITIES LTD,Rye Meads Combined Heat And Power Plant Off Rye Road Stanstead Abbotts Hertfordshire,SG12 8JY,539260,210400,Hertfordshire and North London,Controlled Waters,"Indeno(1,2,3-cd)pyrene",1,1.64,Water Industry,Water Industry,5,1,15,29,,51.77495262,0.017064529,East of England
CNTD.0071,,THAMES WATER UTILITIES LTD,MAPLE LODGE STW,WD3 9SQ,504200,192000,Hertfordshire and North London,Controlled Waters,Benzo(a)pyrene,1,1.77,Water Industry,Water Industry,5,1,15,29,,51.61719086,-0.496372735,East of England
CNTD.0071,,THAMES WATER UTILITIES LTD,MAPLE LODGE STW,WD3 9SQ,504200,192000,Hertfordshire and North London,Controlled Waters,"Indeno(1,2,3-cd)pyrene",1,2.3,Water Industry,Water Industry,5,1,15,29,,51.61719086,-0.496372735,East of England
CNTD.0084,,THAMES WATER UTILITIES LTD,LUTON STW,LU1 5TS,512300,217800,Hertfordshire and North London,Controlled Waters,"Indeno(1,2,3-cd)pyrene",1,0,Water Industry,Water Industry,5,1,15,29,,51.8475121,-0.371113535,East of England
CNTD.0084,,THAMES WATER UTILITIES LTD,LUTON STW,LU1 5TS,512300,217800,Hertfordshire and North London,Controlled Waters,Benzo(a)pyrene,1,0,Water Industry,Water Industry,5,1,15,29,,51.8475121,-0.371113535,East of England
CNTD.0084,,THAMES WATER UTILITIES LTD,LUTON STW,LU1 5TS,512300,217800,Hertfordshire and North London,Controlled Waters,Fluoranthene,0.1,0,Water Industry,Water Industry,5,1,15,29,,51.8475121,-0.371113535,East of England
AW1NF2460,,Anglian Water,Bedford STW,,508500,249600,East Anglia,Controlled Waters,"Indeno(1,2,3-cd)pyrene",1,0,Water Industry,Water Industry,2,1,15,29,,52.13405864,-0.416204867,East of England
AW1NF2460,,Anglian Water,Bedford STW,,508500,249600,East Anglia,Controlled Waters,Benzo(a)pyrene,1,0,Water Industry,Water Industry,2,1,15,29,,52.13405864,-0.416204867,East of England
AW5NF5178,,Anglian Water,Flag Fen STW,,522140,298140,Lincolnshire and Northamptonshire,Controlled Waters,Benzo(a)pyrene,1,0,Water Industry,Water Industry,7,1,15,29,,52.56738396,-0.199381261,East of England
ASCNF1033,,Anglian Water,Cambridge STW,,548350,261540,East Anglia,Controlled Waters,Benzo(a)pyrene,1,0,Water Industry,Water Industry,2,1,15,29,,52.23207646,0.170841174,East of England
ASETS1046,,Anglian Water,Colchester(Haven) STW,,602250,223620,East Anglia,Controlled Waters,"Indeno(1,2,3-cd)pyrene",1,0,Water Industry,Water Industry,2,1,15,29,,51.87446424,0.936681821,East of England
ASETS1046,,Anglian Water,Colchester(Haven) STW,,602250,223620,East Anglia,Controlled Waters,Benzo(a)pyrene,1,0,Water Industry,Water Industry,2,1,15,29,,51.87446424,0.936681821,East of England
AW2TSE9961-2,,Anglian Water,Chelmsford(Brookend) STW,,584000,208200,East Anglia,Controlled Waters,"Indeno(1,2,3-cd)pyrene",1,0,Water Industry,Water Industry,2,1,15,29,,51.74228839,0.663708692,East of England
AW2TSE9961-2,,Anglian Water,Chelmsford(Brookend) STW,,584000,208200,East Anglia,Controlled Waters,Benzo(a)pyrene,1,0,Water Industry,Water Industry,2,1,15,29,,51.74228839,0.663708692,East of England
AW1NF545,,Anglian Water,Bury St Edmunds STW,,584400,268000,East Anglia,Controlled Waters,Fluoranthene,0.1,0,Water Industry,Water Industry,2,1,15,29,,52.27920857,0.701666137,East of England
AW1NF545,,Anglian Water,Bury St Edmunds STW,,584400,268000,East Anglia,Controlled Waters,"Indeno(1,2,3-cd)pyrene",1,0,Water Industry,Water Industry,2,1,15,29,,52.27920857,0.701666137,East of England
AW1NF545,,Anglian Water,Bury St Edmunds STW,,584400,268000,East Anglia,Controlled Waters,Benzo(a)pyrene,1,0,Water Industry,Water Industry,2,1,15,29,,52.27920857,0.701666137,East of England
CNTW.0531,,Anglian Water,TILBURY STW,,565670,175350,East Anglia,Controlled Waters,"Indeno(1,2,3-cd)pyrene",1,0,Water Industry,Water Industry,2,1,15,29,,51.45289581,0.382973138,East of England
CNTW.0531,,Anglian Water,TILBURY STW,,565670,175350,East Anglia,Controlled Waters,Benzo(a)pyrene,1,0,Water Industry,Water Industry,2,1,15,29,,51.45289581,0.382973138,East of England
AEETS12128,,Anglian Water,Cliff Quay(Ipswich) STW,,617200,241900,East Anglia,Controlled Waters,"Indeno(1,2,3-cd)pyrene",1,0,Water Industry,Water Industry,2,1,15,29,,52.03294922,1.16506007,East of England
AEETS12128,,Anglian Water,Cliff Quay(Ipswich) STW,,617200,241900,East Anglia,Controlled Waters,Benzo(a)pyrene,1,0,Water Industry,Water Industry,2,1,15,29,,52.03294922,1.16506007,East of England
CASM.0340,,Anglian Water,SOUTHEND ON SEA STW,,581900,190600,East Anglia,Controlled Waters,Benzo(a)pyrene,1,0,Water Industry,Water Industry,2,1,15,29,,51.58489477,0.624173135,East of England
CNTW.0890,,Anglian Water,BASILDON,,573700,187400,East Anglia,Controlled Waters,Fluoranthene,0.1,0.11,Water Industry,Water Industry,2,1,15,29,,51.5587351,0.504357091,East of England
AENTS13068,,Anglian Water,Wisbech W.Walton STW,,545800,314100,Lincolnshire and Northamptonshire,Controlled Waters,Fluoranthene,0.1,0,Water Industry,Water Industry,7,1,15,29,,52.7049387,0.156492431,East of England
AENTS13068,,Anglian Water,Wisbech W.Walton STW,,545800,314100,Lincolnshire and Northamptonshire,Controlled Waters,"Indeno(1,2,3-cd)pyrene",1,0,Water Industry,Water Industry,7,1,15,29,,52.7049387,0.156492431,East of England
AENTS13068,,Anglian Water,Wisbech W.Walton STW,,545800,314100,Lincolnshire and Northamptonshire,Controlled Waters,Benzo(a)pyrene,1,0,Water Industry,Water Industry,7,1,15,29,,52.7049387,0.156492431,East of England
CNTW.0890,,Anglian Water,BASILDON,,573700,187400,East Anglia,Controlled Waters,"Indeno(1,2,3-cd)pyrene",1,0,Water Industry,Water Industry,2,1,15,29,,51.5587351,0.504357091,East of England
CNTW.0890,,Anglian Water,BASILDON,,573700,187400,East Anglia,Controlled Waters,Benzo(a)pyrene,1,0,Water Industry,Water Industry,2,1,15,29,,51.5587351,0.504357091,East of England
AEECS12290,,Anglian Water,Caister (Great Yarmouth) STW,,654620,309850,East Anglia,Controlled Waters,Fluoranthene,0.1,0,Water Industry,Water Industry,2,1,15,29,,52.62663561,1.760843273,East of England
AEECS12290,,Anglian Water,Caister (Great Yarmouth) STW,,654620,309850,East Anglia,Controlled Waters,"Indeno(1,2,3-cd)pyrene",1,0,Water Industry,Water Industry,2,1,15,29,,52.62663561,1.760843273,East of England
AEECS12290,,Anglian Water,Caister (Great Yarmouth) STW,,654620,309850,East Anglia,Controlled Waters,Benzo(a)pyrene,1,0,Water Industry,Water Industry,2,1,15,29,,52.62663561,1.760843273,East of England
NP3139PK,"WASTE LANDFILLING; >10 T/D WITH CAPACITY >25,000T EXCLUDING INERT WASTE",Suez Recycling And Recovery Uk Ltd,Harmondsworth Landfill Site Holloway Lane Middlesex,UB7 0AE,507000,175000,Hertfordshire and North London,Wastewater,"Indeno(1,2,3-cd)pyrene",1,0,Landfill,Non Hazardous Landfill,5,3,7,17,,51.46386768,-0.461108628,London
NP3139PK,"WASTE LANDFILLING; >10 T/D WITH CAPACITY >25,000T EXCLUDING INERT WASTE",Suez Recycling And Recovery Uk Ltd,Harmondsworth Landfill Site Holloway Lane Middlesex,UB7 0AE,507000,175000,Hertfordshire and North London,Wastewater,Benzo(a)pyrene,1,0,Landfill,Non Hazardous Landfill,5,3,7,17,,51.46386768,-0.461108628,London
NP3139PK,"WASTE LANDFILLING; >10 T/D WITH CAPACITY >25,000T EXCLUDING INERT WASTE",Suez Recycling And Recovery Uk Ltd,Harmondsworth Landfill Site Holloway Lane Middlesex,UB7 0AE,507000,175000,Hertfordshire and North London,Wastewater,Fluoranthene,0.1,0,Landfill,Non Hazardous Landfill,5,3,7,17,,51.46386768,-0.461108628,London
VP3039SW,"WASTE LANDFILLING; >10 T/D WITH CAPACITY >25,000T EXCLUDING INERT WASTE",Valencia Waste Management Limited,Beddington Farmlands Landfill Site 105 Beddington Lane,CR0 4TD,529310,167260,"Kent, South London and East Sussex",Wastewater,Benzo(a)pyrene,1,0,Landfill,Non Hazardous Landfill,6,3,7,17,,51.38965704,-0.142940754,London
VP3039SW,"WASTE LANDFILLING; >10 T/D WITH CAPACITY >25,000T EXCLUDING INERT WASTE",Valencia Waste Management Limited,Beddington Farmlands Landfill Site 105 Beddington Lane,CR0 4TD,529310,167260,"Kent, South London and East Sussex",Wastewater,Fluoranthene,0.1,0,Landfill,Non Hazardous Landfill,6,3,7,17,,51.38965704,-0.142940754,London
CASM.0040,,THAMES WATER UTILITIES LTD,HOGSMILL A STW,KT1 3BW,519200,168500,"Kent, South London and East Sussex",Controlled Waters,Fluoranthene,0.1,0.21,Water Industry,Water Industry,6,1,15,29,,51.40301333,-0.287753298,London
CSSV.0382,,THAMES WATER UTILITIES LTD,BEDDINGTON STW,CR0 4TH,529520,166318,"Kent, South London and East Sussex",Controlled Waters,Fluoranthene,0.1,0.33,Water Industry,Water Industry,6,1,15,29,,51.38114354,-0.140267568,London
CSSA.0364,,THAMES WATER UTILITIES LTD,RIVERSIDE STW,RM13 8RL,551500,181900,Hertfordshire and North London,Controlled Waters,Fluoranthene,0.1,0.33,Water Industry,Water Industry,5,1,15,29,,51.51571312,0.182009069,London
CNTD.0072,,THAMES WATER UTILITIES LTD,DEEPHAMS STW,N9 0BA,535660,193170,Hertfordshire and North London,Controlled Waters,Fluoranthene,0.1,0.61,Water Industry,Water Industry,5,1,15,29,,51.62100913,-0.041776901,London
CASM.0040,,THAMES WATER UTILITIES LTD,HOGSMILL A STW,KT1 3BW,519200,168500,"Kent, South London and East Sussex",Controlled Waters,"Indeno(1,2,3-cd)pyrene",1,1.22,Water Industry,Water Industry,6,1,15,29,,51.40301333,-0.287753298,London
CSSV.0382,,THAMES WATER UTILITIES LTD,BEDDINGTON STW,CR0 4TH,529520,166318,"Kent, South London and East Sussex",Controlled Waters,Benzo(a)pyrene,1,1.45,Water Industry,Water Industry,6,1,15,29,,51.38114354,-0.140267568,London
CSSA.0364,,THAMES WATER UTILITIES LTD,RIVERSIDE STW,RM13 8RL,551500,181900,Hertfordshire and North London,Controlled Waters,Benzo(a)pyrene,1,1.46,Water Industry,Water Industry,5,1,15,29,,51.51571312,0.182009069,London
CNTD.0085,,THAMES WATER UTILITIES LTD,MOGDEN STW,TW7 7LP,516800,175900,Hertfordshire and North London,Controlled Waters,Fluoranthene,0.1,1.67,Water Industry,Water Industry,5,1,15,29,,51.47002109,-0.319801422,London
CSSA.0362,,THAMES WATER UTILITIES LTD,Crossness Sewage Treatment Works Belvedere Road London Greater London,SE2 9AQ,549100,180670,"Kent, South London and East Sussex",Controlled Waters,Fluoranthene,0.1,1.69,Water Industry,Water Industry,6,1,15,29,,51.50529939,0.146927163,London
CSSV.0382,,THAMES WATER UTILITIES LTD,BEDDINGTON STW,CR0 4TH,529520,166318,"Kent, South London and East Sussex",Controlled Waters,"Indeno(1,2,3-cd)pyrene",1,1.88,Water Industry,Water Industry,6,1,15,29,,51.38114354,-0.140267568,London
CSSA.0364,,THAMES WATER UTILITIES LTD,RIVERSIDE STW,RM13 8RL,551500,181900,Hertfordshire and North London,Controlled Waters,"Indeno(1,2,3-cd)pyrene",1,1.88,Water Industry,Water Industry,5,1,15,29,,51.51571312,0.182009069,London
CNTD.0072,,THAMES WATER UTILITIES LTD,DEEPHAMS STW,N9 0BA,535660,193170,Hertfordshire and North London,Controlled Waters,Benzo(a)pyrene,1,2.68,Water Industry,Water Industry,5,1,15,29,,51.62100913,-0.041776901,London
CSSA.0360,,THAMES WATER UTILITIES LTD,BECKTON STW,IG11 0AD,545470,181670,Hertfordshire and North London,Controlled Waters,Fluoranthene,0.1,3.4,Water Industry,Water Industry,5,1,15,29,,51.51523004,0.095074299,London
CNTD.0072,,THAMES WATER UTILITIES LTD,DEEPHAMS STW,N9 0BA,535660,193170,Hertfordshire and North London,Controlled Waters,"Indeno(1,2,3-cd)pyrene",1,3.47,Water Industry,Water Industry,5,1,15,29,,51.62100913,-0.041776901,London
CNTD.0085,,THAMES WATER UTILITIES LTD,MOGDEN STW,TW7 7LP,516800,175900,Hertfordshire and North London,Controlled Waters,Benzo(a)pyrene,1,7.34,Water Industry,Water Industry,5,1,15,29,,51.47002109,-0.319801422,London
CSSA.0362,,THAMES WATER UTILITIES LTD,Crossness Sewage Treatment Works Belvedere Road London Greater London,SE2 9AQ,549100,180670,"Kent, South London and East Sussex",Controlled Waters,Benzo(a)pyrene,1,7.46,Water Industry,Water Industry,6,1,15,29,,51.50529939,0.146927163,London
CNTD.0085,,THAMES WATER UTILITIES LTD,MOGDEN STW,TW7 7LP,516800,175900,Hertfordshire and North London,Controlled Waters,"Indeno(1,2,3-cd)pyrene",1,9.5,Water Industry,Water Industry,5,1,15,29,,51.47002109,-0.319801422,London
CSSA.0362,,THAMES WATER UTILITIES LTD,Crossness Sewage Treatment Works Belvedere Road London Greater London,SE2 9AQ,549100,180670,"Kent, South London and East Sussex",Controlled Waters,"Indeno(1,2,3-cd)pyrene",1,9.66,Water Industry,Water Industry,6,1,15,29,,51.50529939,0.146927163,London
CSSA.0360,,THAMES WATER UTILITIES LTD,BECKTON STW,IG11 0AD,545470,181670,Hertfordshire and North London,Controlled Waters,Benzo(a)pyrene,1,15,Water Industry,Water Industry,5,1,15,29,,51.51523004,0.095074299,London
CSSA.0360,,THAMES WATER UTILITIES LTD,BECKTON STW,IG11 0AD,545470,181670,Hertfordshire and North London,Controlled Waters,"Indeno(1,2,3-cd)pyrene",1,19.4,Water Industry,Water Industry,5,1,15,29,,51.51523004,0.095074299,London
CASM.0040,,THAMES WATER UTILITIES LTD,HOGSMILL A STW,KT1 3BW,519200,168500,"Kent, South London and East Sussex",Controlled Waters,Benzo(a)pyrene,1,0,Water Industry,Water Industry,6,1,15,29,,51.40301333,-0.287753298,London
JP3030DD,TAR AND BITUMEN; DISTILLING >5 T/A  IN CONNECTION WITH MANUFACTURE,Industrial Chemicals Limited,Port Clarence Works Huntsman Bridge Port Clarence Middlesbrough Cleveland,TS2 1SD,451200,521300,North East,Controlled Waters,"Indeno(1,2,3-cd)pyrene",1,0,Chemicals,Chemicals,8,1,3,3,,54.58431538,-1.209305506,North East
JP3030DD,TAR AND BITUMEN; DISTILLING >5 T/A  IN CONNECTION WITH MANUFACTURE,Industrial Chemicals Limited,Port Clarence Works Huntsman Bridge Port Clarence Middlesbrough Cleveland,TS2 1SD,451200,521300,North East,Controlled Waters,Benzo(a)pyrene,1,0,Chemicals,Chemicals,8,1,3,3,,54.58431538,-1.209305506,North East
BS3590IE,ORGANIC CHEMICALS; HYDROCARBONS EG AROMATICS,Sabic UK Petrochemicals Limited,"Wilton Olefins Installation,Wilton Site PO Box 99",TS10 4YA,458200,521200,North East,Controlled Waters,Fluoranthene,0.1,0,Chemicals,Chemicals,8,1,3,3,,54.58266112,-1.101029346,North East
MP3434CN,DISPOSAL OR RECOVERY OF HAZARDOUS WASTE WITH A CAPACITY EXCEEDING 10 TONNES PER DAY INVOLVING PHYSICO-CHEMICAL TREATMENT,Cleansing Service Group Limited,Holden Close Waste Management Facility UK Resource Management Ltd Holden Close Bolckow Industrial Estate Middlesbrough,TS6 7AL,454550,520760,North East,Controlled Waters,"Indeno(1,2,3-cd)pyrene",1,0,Waste Treatment,Hazardous Waste,8,1,14,9,,54.57911348,-1.157577616,North East
MP3434CN,DISPOSAL OR RECOVERY OF HAZARDOUS WASTE WITH A CAPACITY EXCEEDING 10 TONNES PER DAY INVOLVING PHYSICO-CHEMICAL TREATMENT,Cleansing Service Group Limited,Holden Close Waste Management Facility UK Resource Management Ltd Holden Close Bolckow Industrial Estate Middlesbrough,TS6 7AL,454550,520760,North East,Controlled Waters,Fluoranthene,0.1,0,Waste Treatment,Hazardous Waste,8,1,14,9,,54.57911348,-1.157577616,North East
MP3434CN,DISPOSAL OR RECOVERY OF HAZARDOUS WASTE WITH A CAPACITY EXCEEDING 10 TONNES PER DAY INVOLVING PHYSICO-CHEMICAL TREATMENT,Cleansing Service Group Limited,Holden Close Waste Management Facility UK Resource Management Ltd Holden Close Bolckow Industrial Estate Middlesbrough,TS6 7AL,454550,520760,North East,Controlled Waters,Heptachlor,0.1,0,Waste Treatment,Hazardous Waste,8,1,14,9,,54.57911348,-1.157577616,North East
MP3434CN,DISPOSAL OR RECOVERY OF HAZARDOUS WASTE WITH A CAPACITY EXCEEDING 10 TONNES PER DAY INVOLVING PHYSICO-CHEMICAL TREATMENT,Cleansing Service Group Limited,Holden Close Waste Management Facility UK Resource Management Ltd Holden Close Bolckow Industrial Estate Middlesbrough,TS6 7AL,454550,520760,North East,Controlled Waters,Benzo(a)pyrene,1,0,Waste Treatment,Hazardous Waste,8,1,14,9,,54.57911348,-1.157577616,North East
MP3434CN,DISPOSAL OR RECOVERY OF HAZARDOUS WASTE WITH A CAPACITY EXCEEDING 10 TONNES PER DAY INVOLVING PHYSICO-CHEMICAL TREATMENT,Cleansing Service Group Limited,Holden Close Waste Management Facility UK Resource Management Ltd Holden Close Bolckow Industrial Estate Middlesbrough,TS6 7AL,454550,520760,North East,Controlled Waters,Cypermethrin,0.005,0,Waste Treatment,Hazardous Waste,8,1,14,9,1.30E-05,54.57911348,-1.157577616,North East
LP3832NM,"WASTE LANDFILLING; >10 T/D WITH CAPACITY >25,000T EXCLUDING INERT WASTE",Durham County Council,Joint Stocks Landfill Joint Stocks Quarry Coxhoe Durham,DH6 4RT,433100,536500,North East,Wastewater,Fluoranthene,0.1,0,Landfill,Non Hazardous Landfill,8,3,7,17,,54.72241213,-1.487633445,North East
LP3832NM,"WASTE LANDFILLING; >10 T/D WITH CAPACITY >25,000T EXCLUDING INERT WASTE",Durham County Council,Joint Stocks Landfill Joint Stocks Quarry Coxhoe Durham,DH6 4RT,433100,536500,North East,Wastewater,Benzo(a)pyrene,1,0,Landfill,Non Hazardous Landfill,8,3,7,17,,54.72241213,-1.487633445,North East
EP3830LE,"WASTE LANDFILLING; >10 T/D WITH CAPACITY >25,000T EXCLUDING INERT WASTE",SMLF LTD,SEATON MEADOWS Tofts Farm Industrial Estate E Brenda Road,TS25 2BS,453560,527960,North East,Controlled Waters,"Indeno(1,2,3-cd)pyrene",1,0,Landfill,Non Hazardous Landfill,8,1,7,17,,54.6439168,-1.171579484,North East
EP3830LE,"WASTE LANDFILLING; >10 T/D WITH CAPACITY >25,000T EXCLUDING INERT WASTE",SMLF LTD,SEATON MEADOWS Tofts Farm Industrial Estate E Brenda Road,TS25 2BS,453560,527960,North East,Controlled Waters,Fluoranthene,0.1,0,Landfill,Non Hazardous Landfill,8,1,7,17,,54.6439168,-1.171579484,North East
EP3830LE,"WASTE LANDFILLING; >10 T/D WITH CAPACITY >25,000T EXCLUDING INERT WASTE",SMLF LTD,SEATON MEADOWS Tofts Farm Industrial Estate E Brenda Road,TS25 2BS,453560,527960,North East,Controlled Waters,Heptachlor,0.1,0,Landfill,Non Hazardous Landfill,8,1,7,17,,54.6439168,-1.171579484,North East
EP3830LE,"WASTE LANDFILLING; >10 T/D WITH CAPACITY >25,000T EXCLUDING INERT WASTE",SMLF LTD,SEATON MEADOWS Tofts Farm Industrial Estate E Brenda Road,TS25 2BS,453560,527960,North East,Controlled Waters,Benzo(a)pyrene,1,0,Landfill,Non Hazardous Landfill,8,1,7,17,,54.6439168,-1.171579484,North East
EP3830LE,"WASTE LANDFILLING; >10 T/D WITH CAPACITY >25,000T EXCLUDING INERT WASTE",SMLF LTD,SEATON MEADOWS Tofts Farm Industrial Estate E Brenda Road,TS25 2BS,453560,527960,North East,Controlled Waters,Cypermethrin,0.005,0,Landfill,Non Hazardous Landfill,8,1,7,17,1.30E-05,54.6439168,-1.171579484,North East
TP3109LG,"WASTE LANDFILLING; >10 T/D WITH CAPACITY >25,000T EXCLUDING INERT WASTE",South Tees Development Corporation,CLE 3/8 Landfill Site Cleveland Works Cleveland,TS10 5QW,454200,522000,North East,Wastewater,Heptachlor,0.1,0,Landfill,Non Hazardous Landfill,8,3,7,17,,54.59029344,-1.162763408,North East
BK0205IE,"PAPER, PULP AND BOARD; PRODUCING PAPER/BOARD >20T/D",Essity UK Limited,PRUDHOE MILL PRINCESS WAY NORTHUMBERLAND,NE42 6HE,409470,563760,North East,Controlled Waters,Cypermethrin,0.005,0.0079,Paper and textiles,Paper & Pulp,8,1,12,23,1.30E-05,54.96837462,-1.853610608,North East
254/1966,,NORTHUMBRIAN WATER LTD,SEATON CAREW STW,,451929,527633,North East,Controlled Waters,Fluoranthene,0.1,0.11,Water Industry,Water Industry,8,1,15,29,,54.64114858,-1.196907708,North East
25/04/1797,,NORTHUMBRIAN WATER LTD,Stressholme STW,UNKNOWN,428900,510400,North East,Controlled Waters,Fluoranthene,0.1,0.13,Water Industry,Water Industry,8,1,15,29,,54.48812312,-1.555398971,North East
255/1144,,NORTHUMBRIAN WATER LTD,HENDON STW,SR1 2ES,441049,555891,North East,Controlled Waters,Fluoranthene,0.1,0.22,Water Industry,Water Industry,8,1,15,29,,54.89607338,-1.361489979,North East
254/1920,,NORTHUMBRIAN WATER LTD,"Industrial Effluent Treatment Works,Bran Sands Tees Dock Road Cleveland",TS6 6UE,456210,524290,North East,Controlled Waters,Fluoranthene,0.1,0.44,Water Industry,Water Industry,8,1,15,29,,54.61065168,-1.13122446,North East
235/1695,,NORTHUMBRIAN WATER LTD,Howdon Sewage Treatment Works Northumberland Dock Road Wallsend Tyne And Wear,NE28 0QD,433340,566290,North East,Controlled Waters,Fluoranthene,0.1,0.94,Water Industry,Water Industry,8,1,15,29,,54.99008932,-1.48048017,North East
255/1144,,NORTHUMBRIAN WATER LTD,HENDON STW,SR1 2ES,441049,555891,North East,Controlled Waters,"Indeno(1,2,3-cd)pyrene",1,1.25,Water Industry,Water Industry,8,1,15,29,,54.89607338,-1.361489979,North East
254/1920,,NORTHUMBRIAN WATER LTD,"Industrial Effluent Treatment Works,Bran Sands Tees Dock Road Cleveland",TS6 6UE,456210,524290,North East,Controlled Waters,Benzo(a)pyrene,1,1.95,Water Industry,Water Industry,8,1,15,29,,54.61065168,-1.13122446,North East
254/1920,,NORTHUMBRIAN WATER LTD,"Industrial Effluent Treatment Works,Bran Sands Tees Dock Road Cleveland",TS6 6UE,456210,524290,North East,Controlled Waters,"Indeno(1,2,3-cd)pyrene",1,2.52,Water Industry,Water Industry,8,1,15,29,,54.61065168,-1.13122446,North East
235/1695,,NORTHUMBRIAN WATER LTD,Howdon Sewage Treatment Works Northumberland Dock Road Wallsend Tyne And Wear,NE28 0QD,433340,566290,North East,Controlled Waters,Benzo(a)pyrene,1,4.14,Water Industry,Water Industry,8,1,15,29,,54.99008932,-1.48048017,North East
235/1695,,NORTHUMBRIAN WATER LTD,Howdon Sewage Treatment Works Northumberland Dock Road Wallsend Tyne And Wear,NE28 0QD,433340,566290,North East,Controlled Waters,"Indeno(1,2,3-cd)pyrene",1,5.36,Water Industry,Water Industry,8,1,15,29,,54.99008932,-1.48048017,North East
25/04/1797,,NORTHUMBRIAN WATER LTD,Stressholme STW,UNKNOWN,428900,510400,North East,Controlled Waters,"Indeno(1,2,3-cd)pyrene",1,0,Water Industry,Water Industry,8,1,15,29,,54.48812312,-1.555398971,North East
25/04/1797,,NORTHUMBRIAN WATER LTD,Stressholme STW,UNKNOWN,428900,510400,North East,Controlled Waters,Benzo(a)pyrene,1,0,Water Industry,Water Industry,8,1,15,29,,54.48812312,-1.555398971,North East
254/1966,,NORTHUMBRIAN WATER LTD,SEATON CAREW STW,,451929,527633,North East,Controlled Waters,"Indeno(1,2,3-cd)pyrene",1,0,Water Industry,Water Industry,8,1,15,29,,54.64114858,-1.196907708,North East
254/1966,,NORTHUMBRIAN WATER LTD,SEATON CAREW STW,,451929,527633,North East,Controlled Waters,Benzo(a)pyrene,1,0,Water Industry,Water Industry,8,1,15,29,,54.64114858,-1.196907708,North East
255/1144,,NORTHUMBRIAN WATER LTD,HENDON STW,SR1 2ES,441049,555891,North East,Controlled Waters,Benzo(a)pyrene,1,0,Water Industry,Water Industry,8,1,15,29,,54.89607338,-1.361489979,North East
BU3485IS,ORGANIC CHEMICALS; HALOGEN CONTAINING COMPOUNDS EG HALOCARBONS,F2 CHEMICALS LTD,F2 Chemicals Limited Lea Lane Preston Lancashire,PR4 0RZ,347550,431250,Cumbria and Lancashire,Wastewater,Fluoranthene,0.1,0,Chemicals,Chemicals,0,3,3,3,,53.77493008,-2.797335665,North West
VP3936UG,DISPOSAL OR RECOVERY OF HAZ WASTE WITH  CAPACITY EXCEEDING 10 TONNES PER DAY INVOLVING REPACKAGING PRIOR TO SUBMISSION TO ANY OF THE OTHER ACTIVITIES LISTED IN THIS SECTION OR IN SECTION 5.1,Future Industrial Services Limited,Acornfield Road Waste Management Centre Acornfield Road Knowsley Industrial Park Merseyside,L33 7UF,343780,398870,Greater Manchester Merseyside and Cheshire,Wastewater,"Indeno(1,2,3-cd)pyrene",1,0,Waste Treatment,Hazardous Waste,4,3,14,9,,53.48352987,-2.848672101,North West
VP3936UG,DISPOSAL OR RECOVERY OF HAZ WASTE WITH  CAPACITY EXCEEDING 10 TONNES PER DAY INVOLVING REPACKAGING PRIOR TO SUBMISSION TO ANY OF THE OTHER ACTIVITIES LISTED IN THIS SECTION OR IN SECTION 5.1,Future Industrial Services Limited,Acornfield Road Waste Management Centre Acornfield Road Knowsley Industrial Park Merseyside,L33 7UF,343780,398870,Greater Manchester Merseyside and Cheshire,Wastewater,Benzo(a)pyrene,1,0,Waste Treatment,Hazardous Waste,4,3,14,9,,53.48352987,-2.848672101,North West
VP3936UG,DISPOSAL OR RECOVERY OF HAZ WASTE WITH  CAPACITY EXCEEDING 10 TONNES PER DAY INVOLVING REPACKAGING PRIOR TO SUBMISSION TO ANY OF THE OTHER ACTIVITIES LISTED IN THIS SECTION OR IN SECTION 5.1,Future Industrial Services Limited,Acornfield Road Waste Management Centre Acornfield Road Knowsley Industrial Park Merseyside,L33 7UF,343780,398870,Greater Manchester Merseyside and Cheshire,Wastewater,Cypermethrin,0.005,0,Waste Treatment,Hazardous Waste,4,3,14,9,1.30E-05,53.48352987,-2.848672101,North West
VP3936UG,DISPOSAL OR RECOVERY OF HAZ WASTE WITH  CAPACITY EXCEEDING 10 TONNES PER DAY INVOLVING REPACKAGING PRIOR TO SUBMISSION TO ANY OF THE OTHER ACTIVITIES LISTED IN THIS SECTION OR IN SECTION 5.1,Future Industrial Services Limited,Acornfield Road Waste Management Centre Acornfield Road Knowsley Industrial Park Merseyside,L33 7UF,343780,398870,Greater Manchester Merseyside and Cheshire,Wastewater,Fluoranthene,0.1,0,Waste Treatment,Hazardous Waste,4,3,14,9,,53.48352987,-2.848672101,North West
VP3936UG,DISPOSAL OR RECOVERY OF HAZ WASTE WITH  CAPACITY EXCEEDING 10 TONNES PER DAY INVOLVING REPACKAGING PRIOR TO SUBMISSION TO ANY OF THE OTHER ACTIVITIES LISTED IN THIS SECTION OR IN SECTION 5.1,Future Industrial Services Limited,Acornfield Road Waste Management Centre Acornfield Road Knowsley Industrial Park Merseyside,L33 7UF,343780,398870,Greater Manchester Merseyside and Cheshire,Wastewater,Heptachlor,0.1,0,Waste Treatment,Hazardous Waste,4,3,14,9,,53.48352987,-2.848672101,North West
BU5500IC,"TEMPORARY STORAGE OF HAZ WASTE NOT UNDER S 5.2 PENDING ACTIVITIES LISTED IN S 5.1, 5.2, 5.3 AND PARAGRAPH (B) OF THIS SECTION WITH A TOTAL CAPACITY > 50 TONNES, EXCL TEMP STORAGE WHERE GENERATED",Veolia ES Cleanaway (UK) Limited,Preston Waste Management Centre Units 4 and 5 Redscar Industrial Estate Longridge Road,PR2 5NQ,357500,431800,Cumbria and Lancashire,Wastewater,Heptachlor,0.1,0,Waste Treatment,Hazardous Waste,0,3,14,9,,53.78078238,-2.646446137,North West
BU9068IM,"WASTE LANDFILLING; >10 T/D WITH CAPACITY >25,000T EXCLUDING INERT WASTE",Valencia Waste Management Limited,Pilsworth North Landfill Site Pilsworth Road,BL9 8QZ,382590,409570,Greater Manchester Merseyside and Cheshire,Wastewater,Fluoranthene,0.1,0.14284,Landfill,Non Hazardous Landfill,4,3,7,17,,53.5824274,-2.264440677,North West
BM6026IB,"WASTE LANDFILLING; >10 T/D WITH CAPACITY >25,000T EXCLUDING INERT WASTE",Cumbria Waste Management Ltd,Hespin Wood Landfill Site Todhills Cumbria,CA6 4BJ,336330,562980,Cumbria and Lancashire,Wastewater,"Indeno(1,2,3-cd)pyrene",1,1.91,Landfill,Non Hazardous Landfill,0,3,7,17,,54.95737389,-2.99579785,North West
BM6093IS,"WASTE LANDFILLING; >10 T/D WITH CAPACITY >25,000T EXCLUDING INERT WASTE",FCC Waste Services (UK) Limited,Bennett Bank Landfill Thwaite Flat Barrow in Furness Cumbria,LA14 4QH,321500,475000,Cumbria and Lancashire,Wastewater,Heptachlor,0.1,0,Landfill,Non Hazardous Landfill,0,3,7,17,,54.16477532,-3.203809255,North West
ZP3433AQ,"WASTE LANDFILLING; >10 T/D WITH CAPACITY >25,000T EXCLUDING INERT WASTE",Whitehead Restoration Ltd,Whitehead Landfill Lower Green Lane Astley Lancashire,M29 7JZ,370860,399350,Greater Manchester Merseyside and Cheshire,Wastewater,Heptachlor,0.1,0,Landfill,Non Hazardous Landfill,4,3,7,17,,53.49004604,-2.440655845,North West
DP3333KT,"WASTE LANDFILLING; >10 T/D WITH CAPACITY >25,000T EXCLUDING INERT WASTE",Saint-Gobain Construction Products UK Limited,Kirkby Thore Works Landfill Site Kirkby Thore Works Kirkby Thore Cumbria,CA10 1XU,364126,527191,Cumbria and Lancashire,Controlled Waters,Fluoranthene,0.1,0,Landfill,Non Hazardous Landfill,0,1,7,17,,54.63855365,-2.557325018,North West
DP3333KT,"WASTE LANDFILLING; >10 T/D WITH CAPACITY >25,000T EXCLUDING INERT WASTE",Saint-Gobain Construction Products UK Limited,Kirkby Thore Works Landfill Site Kirkby Thore Works Kirkby Thore Cumbria,CA10 1XU,364126,527191,Cumbria and Lancashire,Wastewater,Fluoranthene,0.1,0,Landfill,Non Hazardous Landfill,0,3,7,17,,54.63855365,-2.557325018,North West
BS7722ID,"WASTE LANDFILLING; >10 T/D WITH CAPACITY >25,000T EXCLUDING INERT WASTE",3C Waste Limited,Maw Green Landfill Site Maw Green Road Coppenhall Cheshire,CW1 5NG,371700,357500,Greater Manchester Merseyside and Cheshire,Wastewater,Benzo(a)pyrene,1,0,Landfill,Non Hazardous Landfill,4,3,7,17,,53.11392517,-2.4242491,North West
BS7722ID,"WASTE LANDFILLING; >10 T/D WITH CAPACITY >25,000T EXCLUDING INERT WASTE",3C Waste Limited,Maw Green Landfill Site Maw Green Road Coppenhall Cheshire,CW1 5NG,371700,357500,Greater Manchester Merseyside and Cheshire,Wastewater,Cypermethrin,0.005,0,Landfill,Non Hazardous Landfill,4,3,7,17,1.30E-05,53.11392517,-2.4242491,North West
BS7722ID,"WASTE LANDFILLING; >10 T/D WITH CAPACITY >25,000T EXCLUDING INERT WASTE",3C Waste Limited,Maw Green Landfill Site Maw Green Road Coppenhall Cheshire,CW1 5NG,371700,357500,Greater Manchester Merseyside and Cheshire,Wastewater,"Indeno(1,2,3-cd)pyrene",1,0,Landfill,Non Hazardous Landfill,4,3,7,17,,53.11392517,-2.4242491,North West
BS7722ID,"WASTE LANDFILLING; >10 T/D WITH CAPACITY >25,000T EXCLUDING INERT WASTE",3C Waste Limited,Maw Green Landfill Site Maw Green Road Coppenhall Cheshire,CW1 5NG,371700,357500,Greater Manchester Merseyside and Cheshire,Wastewater,Fluoranthene,0.1,0,Landfill,Non Hazardous Landfill,4,3,7,17,,53.11392517,-2.4242491,North West
BS7722ID,"WASTE LANDFILLING; >10 T/D WITH CAPACITY >25,000T EXCLUDING INERT WASTE",3C Waste Limited,Maw Green Landfill Site Maw Green Road Coppenhall Cheshire,CW1 5NG,371700,357500,Greater Manchester Merseyside and Cheshire,Wastewater,Heptachlor,0.1,0,Landfill,Non Hazardous Landfill,4,3,7,17,,53.11392517,-2.4242491,North West
BU9068IM,"WASTE LANDFILLING; >10 T/D WITH CAPACITY >25,000T EXCLUDING INERT WASTE",Valencia Waste Management Limited,Pilsworth North Landfill Site Pilsworth Road,BL9 8QZ,382590,409570,Greater Manchester Merseyside and Cheshire,Wastewater,Benzo(a)pyrene,1,0,Landfill,Non Hazardous Landfill,4,3,7,17,,53.5824274,-2.264440677,North West
BU9068IM,"WASTE LANDFILLING; >10 T/D WITH CAPACITY >25,000T EXCLUDING INERT WASTE",Valencia Waste Management Limited,Pilsworth North Landfill Site Pilsworth Road,BL9 8QZ,382590,409570,Greater Manchester Merseyside and Cheshire,Wastewater,Heptachlor,0.1,0,Landfill,Non Hazardous Landfill,4,3,7,17,,53.5824274,-2.264440677,North West
BV8725IT,"WASTE LANDFILLING; >10 T/D WITH CAPACITY >25,000T EXCLUDING INERT WASTE",Cumbria Waste Management Ltd,Distington Landfill Site PITWOOD ROAD LILLYHALL CUMBRIA,CA14 4JP,302500,524300,Cumbria and Lancashire,Wastewater,Fluoranthene,0.1,0,Landfill,Non Hazardous Landfill,0,3,7,17,,54.60442527,-3.510902008,North West
UP3639LY,"WASTE LANDFILLING; >10 T/D WITH CAPACITY >25,000T EXCLUDING INERT WASTE",3C Waste Limited,Danes Moss Landfill Site Gawsworth Macclesfield Cheshire,SK11 9QP,390500,371500,Greater Manchester Merseyside and Cheshire,Wastewater,"Indeno(1,2,3-cd)pyrene",1,0,Landfill,Non Hazardous Landfill,4,3,7,17,,53.24043946,-2.143804169,North West
UP3639LY,"WASTE LANDFILLING; >10 T/D WITH CAPACITY >25,000T EXCLUDING INERT WASTE",3C Waste Limited,Danes Moss Landfill Site Gawsworth Macclesfield Cheshire,SK11 9QP,390500,371500,Greater Manchester Merseyside and Cheshire,Wastewater,Benzo(a)pyrene,1,0,Landfill,Non Hazardous Landfill,4,3,7,17,,53.24043946,-2.143804169,North West
UP3639LY,"WASTE LANDFILLING; >10 T/D WITH CAPACITY >25,000T EXCLUDING INERT WASTE",3C Waste Limited,Danes Moss Landfill Site Gawsworth Macclesfield Cheshire,SK11 9QP,390500,371500,Greater Manchester Merseyside and Cheshire,Wastewater,Cypermethrin,0.005,0,Landfill,Non Hazardous Landfill,4,3,7,17,1.30E-05,53.24043946,-2.143804169,North West
UP3639LY,"WASTE LANDFILLING; >10 T/D WITH CAPACITY >25,000T EXCLUDING INERT WASTE",3C Waste Limited,Danes Moss Landfill Site Gawsworth Macclesfield Cheshire,SK11 9QP,390500,371500,Greater Manchester Merseyside and Cheshire,Wastewater,Fluoranthene,0.1,0,Landfill,Non Hazardous Landfill,4,3,7,17,,53.24043946,-2.143804169,North West
UP3639LY,"WASTE LANDFILLING; >10 T/D WITH CAPACITY >25,000T EXCLUDING INERT WASTE",3C Waste Limited,Danes Moss Landfill Site Gawsworth Macclesfield Cheshire,SK11 9QP,390500,371500,Greater Manchester Merseyside and Cheshire,Wastewater,Heptachlor,0.1,0,Landfill,Non Hazardous Landfill,4,3,7,17,,53.24043946,-2.143804169,North West
GP3896CS,DISPOSAL OR RECOVERY OF HAZARDOUS WASTE WITH A CAPACITY EXCEEDING 10 TONNES PER DAY INVOLVING PHYSICO-CHEMICAL TREATMENT,G. M. P. Baird Limited,Tonge Bridge Off Hypatia Street Bury Road Lancashire,BL2 6AA,372840,409390,Greater Manchester Merseyside and Cheshire,Wastewater,Benzo(a)pyrene,1,0,Waste Treatment,Metals Recycling,4,3,14,14,,53.58039312,-2.411689852,North West
GP3134HG,"COATING, PRINTING AND TEXTILES; PRE-TREATING BY WASHING ETC >10T/DAY",Westex (Carpets) Limited,Calder Bank Mills Calder Bank Road,WF12 9QW,404230,404200,Yorkshire,Wastewater,Cypermethrin,0.005,0.034,Paper and textiles,Textiles,13,3,12,28,1.30E-05,53.53443683,-1.937650846,North West
LP3232ZM,"PAPER, PULP AND BOARD; PRODUCING PAPER/BOARD >20T/D",Northwood Tissue (Lancaster) Limited,Np. Lancaster Tissue Lansil Way Lansil Industrial Estate,LA1 3QY,348510,463390,Cumbria and Lancashire,Wastewater,Cypermethrin,0.005,0,Paper and textiles,Paper & Pulp,0,3,12,23,1.30E-05,54.06386589,-2.788194076,North West
BJ7620ID,"PAPER, PULP AND BOARD; PRODUCING PAPER/BOARD >20T/D",JAMES CROPPER PLC,"Burneside Paer Mill,Burneside Mill Burneside Cumbria",LA9 6PZ,350600,495880,Cumbria and Lancashire,Wastewater,Cypermethrin,0.005,0,Paper and textiles,Paper & Pulp,0,3,12,23,1.30E-05,54.35604379,-2.761618874,North West
CM0017801,,DWR CYMRU CYFYNGEDIG,"SEALAND ROAD, CHESTER",CH1 4LD,339300,366600,Greater Manchester Merseyside and Cheshire,Controlled Waters,Fluoranthene,0.1,0.1,Water Industry,Water Industry,4,1,15,29,,53.19300444,-2.909977265,North West
16810068,,UNITED UTILITIES WATER PLC,CREWE,,366690,357370,Greater Manchester Merseyside and Cheshire,Controlled Waters,Fluoranthene,0.1,0.11,Water Industry,Water Industry,4,1,15,29,,53.11246624,-2.499080977,North West
16940144,,UNITED UTILITIES WATER PLC,ECCLES,,374960,397150,Greater Manchester Merseyside and Cheshire,Controlled Waters,Fluoranthene,0.1,0.14,Water Industry,Water Industry,4,1,15,29,,53.47048389,-2.378687523,North West
17670049,,UNITED UTILITIES WATER PLC,CARLISLE WILLOWHOLME INDUSTRIAL ESTATE CARLISLE CUMBRIA,CA2 5SH,338470,556520,Cumbria and Lancashire,Controlled Waters,Fluoranthene,0.1,0.18,Water Industry,Water Industry,0,1,15,29,,54.89959994,-2.960999993,North West
16993399,,UNITED UTILITIES WATER PLC,BIRKENHEAD,,332800,389400,Greater Manchester Merseyside and Cheshire,Controlled Waters,Fluoranthene,0.1,0.18,Water Industry,Water Industry,4,1,15,29,,53.39713246,-3.012083267,North West
17160005,,UNITED UTILITIES WATER PLC,BURNLEY,,382550,435270,Cumbria and Lancashire,Controlled Waters,Fluoranthene,0.1,0.18,Water Industry,Water Industry,0,1,15,29,,53.8134179,-2.266501392,North West
17160008,,UNITED UTILITIES WATER PLC,HYNDBURN,,375750,433550,Cumbria and Lancashire,Controlled Waters,Fluoranthene,0.1,0.19,Water Industry,Water Industry,0,1,15,29,,53.79768484,-2.369637359,North West
16920130,,UNITED UTILITIES WATER PLC,ST HELENS,,353820,395900,Greater Manchester Merseyside and Cheshire,Controlled Waters,Fluoranthene,0.1,0.19,Water Industry,Water Industry,4,1,15,29,,53.457815,-2.696950956,North West
16940151,,UNITED UTILITIES WATER PLC,STOCKPORT,,386520,389820,Greater Manchester Merseyside and Cheshire,Controlled Waters,Fluoranthene,0.1,0.2,Water Industry,Water Industry,4,1,15,29,,53.40502394,-2.204224914,North West
16940150,,UNITED UTILITIES WATER PLC,SALFORD,,379240,397980,Greater Manchester Merseyside and Cheshire,Controlled Waters,Fluoranthene,0.1,0.21,Water Industry,Water Industry,4,1,15,29,,53.47813125,-2.314266989,North West
16930112,,UNITED UTILITIES WATER PLC,FAZAKERLEY,,339370,396600,Greater Manchester Merseyside and Cheshire,Controlled Waters,Fluoranthene,0.1,0.21,Water Industry,Water Industry,4,1,15,29,,53.46263823,-2.914680426,North West
16983122,,UNITED UTILITIES WATER PLC,WARRINGTON NORTH,,358110,386960,Greater Manchester Merseyside and Cheshire,Controlled Waters,Fluoranthene,0.1,0.28,Water Industry,Water Industry,4,1,15,29,,53.37782195,-2.631155453,North West
16950041,,UNITED UTILITIES WATER PLC,ROCHDALE,,388160,412370,Greater Manchester Merseyside and Cheshire,Controlled Waters,Fluoranthene,0.1,0.29,Water Industry,Water Industry,4,1,15,29,,53.60775096,-2.180416823,North West
16950033,,UNITED UTILITIES WATER PLC,BURY,,380450,408050,Greater Manchester Merseyside and Cheshire,Controlled Waters,Fluoranthene,0.1,0.32,Water Industry,Water Industry,4,1,15,29,,53.56868951,-2.296668002,North West
17081316,,UNITED UTILITIES WATER PLC,WIGAN,,348170,412020,Greater Manchester Merseyside and Cheshire,Controlled Waters,Fluoranthene,0.1,0.34,Water Industry,Water Industry,4,1,15,29,,53.60216703,-2.784707856,North West
17160024,,UNITED UTILITIES WATER PLC,BLACKBURN,,360470,429410,Cumbria and Lancashire,Controlled Waters,Fluoranthene,0.1,0.35,Water Industry,Water Industry,0,1,15,29,,53.75953686,-2.601070203,North West
17280252,,UNITED UTILITIES WATER PLC,Fleetwood Wwtw Jameson Road Fleetwood Lancashire,FY7 8TW,333090,446180,Cumbria and Lancashire,Controlled Waters,Fluoranthene,0.1,0.36,Water Industry,Water Industry,0,1,15,29,,53.90743794,-3.019968528,North West
16950038,,UNITED UTILITIES WATER PLC,OLDHAM,,389260,404300,Greater Manchester Merseyside and Cheshire,Controlled Waters,Fluoranthene,0.1,0.42,Water Industry,Water Industry,4,1,15,29,,53.53523964,-2.16351158,North West
16950032,,UNITED UTILITIES WATER PLC,BOLTON,,376950,404520,Greater Manchester Merseyside and Cheshire,Controlled Waters,Fluoranthene,0.1,0.5,Water Industry,Water Industry,4,1,15,29,,53.53681846,-2.349253892,North West
166993397,,UNITED UTILITIES WATER PLC,Liverpool Waste Water Treatment Sandon Dock Regent Road Liverpool Merseyside,L3 0BE,333730,392800,Greater Manchester Merseyside and Cheshire,Controlled Waters,Fluoranthene,0.1,0.7,Water Industry,Water Industry,4,1,15,29,,53.42780659,-2.998815241,North West
17670049,,UNITED UTILITIES WATER PLC,CARLISLE WILLOWHOLME INDUSTRIAL ESTATE CARLISLE CUMBRIA,CA2 5SH,338470,556520,Cumbria and Lancashire,Controlled Waters,"Indeno(1,2,3-cd)pyrene",1,1.02,Water Industry,Water Industry,0,1,15,29,,54.89959994,-2.960999993,North West
16920130,,UNITED UTILITIES WATER PLC,ST HELENS,,353820,395900,Greater Manchester Merseyside and Cheshire,Controlled Waters,"Indeno(1,2,3-cd)pyrene",1,1.06,Water Industry,Water Industry,4,1,15,29,,53.457815,-2.696950956,North West
17160008,,UNITED UTILITIES WATER PLC,HYNDBURN,,375750,433550,Cumbria and Lancashire,Controlled Waters,"Indeno(1,2,3-cd)pyrene",1,1.1,Water Industry,Water Industry,0,1,15,29,,53.79768484,-2.369637359,North West
16940151,,UNITED UTILITIES WATER PLC,STOCKPORT,,386520,389820,Greater Manchester Merseyside and Cheshire,Controlled Waters,"Indeno(1,2,3-cd)pyrene",1,1.13,Water Industry,Water Industry,4,1,15,29,,53.40502394,-2.204224914,North West
16930112,,UNITED UTILITIES WATER PLC,FAZAKERLEY,,339370,396600,Greater Manchester Merseyside and Cheshire,Controlled Waters,"Indeno(1,2,3-cd)pyrene",1,1.18,Water Industry,Water Industry,4,1,15,29,,53.46263823,-2.914680426,North West
16940150,,UNITED UTILITIES WATER PLC,SALFORD,,379240,397980,Greater Manchester Merseyside and Cheshire,Controlled Waters,"Indeno(1,2,3-cd)pyrene",1,1.19,Water Industry,Water Industry,4,1,15,29,,53.47813125,-2.314266989,North West
16983122,,UNITED UTILITIES WATER PLC,WARRINGTON NORTH,,358110,386960,Greater Manchester Merseyside and Cheshire,Controlled Waters,Benzo(a)pyrene,1,1.24,Water Industry,Water Industry,4,1,15,29,,53.37782195,-2.631155453,North West
16950041,,UNITED UTILITIES WATER PLC,ROCHDALE,,388160,412370,Greater Manchester Merseyside and Cheshire,Controlled Waters,Benzo(a)pyrene,1,1.26,Water Industry,Water Industry,4,1,15,29,,53.60775096,-2.180416823,North West
16950033,,UNITED UTILITIES WATER PLC,BURY,,380450,408050,Greater Manchester Merseyside and Cheshire,Controlled Waters,Benzo(a)pyrene,1,1.42,Water Industry,Water Industry,4,1,15,29,,53.56868951,-2.296668002,North West
17081316,,UNITED UTILITIES WATER PLC,WIGAN,,348170,412020,Greater Manchester Merseyside and Cheshire,Controlled Waters,Benzo(a)pyrene,1,1.51,Water Industry,Water Industry,4,1,15,29,,53.60216703,-2.784707856,North West
17160024,,UNITED UTILITIES WATER PLC,BLACKBURN,,360470,429410,Cumbria and Lancashire,Controlled Waters,Benzo(a)pyrene,1,1.53,Water Industry,Water Industry,0,1,15,29,,53.75953686,-2.601070203,North West
17280252,,UNITED UTILITIES WATER PLC,Fleetwood Wwtw Jameson Road Fleetwood Lancashire,FY7 8TW,333090,446180,Cumbria and Lancashire,Controlled Waters,Benzo(a)pyrene,1,1.57,Water Industry,Water Industry,0,1,15,29,,53.90743794,-3.019968528,North West
16940143,,UNITED UTILITIES WATER PLC,DAVYHULME,,374800,396460,Greater Manchester Merseyside and Cheshire,Controlled Waters,Fluoranthene,0.1,1.59,Water Industry,Water Industry,4,1,15,29,,53.46427432,-2.381042231,North West
16983122,,UNITED UTILITIES WATER PLC,WARRINGTON NORTH,,358110,386960,Greater Manchester Merseyside and Cheshire,Controlled Waters,"Indeno(1,2,3-cd)pyrene",1,1.61,Water Industry,Water Industry,4,1,15,29,,53.37782195,-2.631155453,North West
16950041,,UNITED UTILITIES WATER PLC,ROCHDALE,,388160,412370,Greater Manchester Merseyside and Cheshire,Controlled Waters,"Indeno(1,2,3-cd)pyrene",1,1.63,Water Industry,Water Industry,4,1,15,29,,53.60775096,-2.180416823,North West
16950033,,UNITED UTILITIES WATER PLC,BURY,,380450,408050,Greater Manchester Merseyside and Cheshire,Controlled Waters,"Indeno(1,2,3-cd)pyrene",1,1.84,Water Industry,Water Industry,4,1,15,29,,53.56868951,-2.296668002,North West
16950038,,UNITED UTILITIES WATER PLC,OLDHAM,,389260,404300,Greater Manchester Merseyside and Cheshire,Controlled Waters,Benzo(a)pyrene,1,1.86,Water Industry,Water Industry,4,1,15,29,,53.53523964,-2.16351158,North West
17081316,,UNITED UTILITIES WATER PLC,WIGAN,,348170,412020,Greater Manchester Merseyside and Cheshire,Controlled Waters,"Indeno(1,2,3-cd)pyrene",1,1.96,Water Industry,Water Industry,4,1,15,29,,53.60216703,-2.784707856,North West
17160024,,UNITED UTILITIES WATER PLC,BLACKBURN,,360470,429410,Cumbria and Lancashire,Controlled Waters,"Indeno(1,2,3-cd)pyrene",1,1.98,Water Industry,Water Industry,0,1,15,29,,53.75953686,-2.601070203,North West
17280252,,UNITED UTILITIES WATER PLC,Fleetwood Wwtw Jameson Road Fleetwood Lancashire,FY7 8TW,333090,446180,Cumbria and Lancashire,Controlled Waters,"Indeno(1,2,3-cd)pyrene",1,2.03,Water Industry,Water Industry,0,1,15,29,,53.90743794,-3.019968528,North West
16950032,,UNITED UTILITIES WATER PLC,BOLTON,,376950,404520,Greater Manchester Merseyside and Cheshire,Controlled Waters,Benzo(a)pyrene,1,2.22,Water Industry,Water Industry,4,1,15,29,,53.53681846,-2.349253892,North West
16950038,,UNITED UTILITIES WATER PLC,OLDHAM,,389260,404300,Greater Manchester Merseyside and Cheshire,Controlled Waters,"Indeno(1,2,3-cd)pyrene",1,2.4,Water Industry,Water Industry,4,1,15,29,,53.53523964,-2.16351158,North West
16950032,,UNITED UTILITIES WATER PLC,BOLTON,,376950,404520,Greater Manchester Merseyside and Cheshire,Controlled Waters,"Indeno(1,2,3-cd)pyrene",1,2.87,Water Industry,Water Industry,4,1,15,29,,53.53681846,-2.349253892,North West
166993397,,UNITED UTILITIES WATER PLC,Liverpool Waste Water Treatment Sandon Dock Regent Road Liverpool Merseyside,L3 0BE,333730,392800,Greater Manchester Merseyside and Cheshire,Controlled Waters,Benzo(a)pyrene,1,3.07,Water Industry,Water Industry,4,1,15,29,,53.42780659,-2.998815241,North West
166993397,,UNITED UTILITIES WATER PLC,Liverpool Waste Water Treatment Sandon Dock Regent Road Liverpool Merseyside,L3 0BE,333730,392800,Greater Manchester Merseyside and Cheshire,Controlled Waters,"Indeno(1,2,3-cd)pyrene",1,3.98,Water Industry,Water Industry,4,1,15,29,,53.42780659,-2.998815241,North West
16940143,,UNITED UTILITIES WATER PLC,DAVYHULME,,374800,396460,Greater Manchester Merseyside and Cheshire,Controlled Waters,Benzo(a)pyrene,1,7.02,Water Industry,Water Industry,4,1,15,29,,53.46427432,-2.381042231,North West
16940143,,UNITED UTILITIES WATER PLC,DAVYHULME,,374800,396460,Greater Manchester Merseyside and Cheshire,Controlled Waters,"Indeno(1,2,3-cd)pyrene",1,9.09,Water Industry,Water Industry,4,1,15,29,,53.46427432,-2.381042231,North West
16940151,,UNITED UTILITIES WATER PLC,STOCKPORT,,386520,389820,Greater Manchester Merseyside and Cheshire,Controlled Waters,Benzo(a)pyrene,1,0,Water Industry,Water Industry,4,1,15,29,,53.40502394,-2.204224914,North West
16940150,,UNITED UTILITIES WATER PLC,SALFORD,,379240,397980,Greater Manchester Merseyside and Cheshire,Controlled Waters,Benzo(a)pyrene,1,0,Water Industry,Water Industry,4,1,15,29,,53.47813125,-2.314266989,North West
17670049,,UNITED UTILITIES WATER PLC,CARLISLE WILLOWHOLME INDUSTRIAL ESTATE CARLISLE CUMBRIA,CA2 5SH,338470,556520,Cumbria and Lancashire,Controlled Waters,Benzo(a)pyrene,1,0,Water Industry,Water Industry,0,1,15,29,,54.89959994,-2.960999993,North West
17160008,,UNITED UTILITIES WATER PLC,HYNDBURN,,375750,433550,Cumbria and Lancashire,Controlled Waters,Benzo(a)pyrene,1,0,Water Industry,Water Industry,0,1,15,29,,53.79768484,-2.369637359,North West
16920130,,UNITED UTILITIES WATER PLC,ST HELENS,,353820,395900,Greater Manchester Merseyside and Cheshire,Controlled Waters,Benzo(a)pyrene,1,0,Water Industry,Water Industry,4,1,15,29,,53.457815,-2.696950956,North West
16930112,,UNITED UTILITIES WATER PLC,FAZAKERLEY,,339370,396600,Greater Manchester Merseyside and Cheshire,Controlled Waters,Benzo(a)pyrene,1,0,Water Industry,Water Industry,4,1,15,29,,53.46263823,-2.914680426,North West
16993399,,UNITED UTILITIES WATER PLC,BIRKENHEAD,,332800,389400,Greater Manchester Merseyside and Cheshire,Controlled Waters,"Indeno(1,2,3-cd)pyrene",1,0,Water Industry,Water Industry,4,1,15,29,,53.39713246,-3.012083267,North West
16993399,,UNITED UTILITIES WATER PLC,BIRKENHEAD,,332800,389400,Greater Manchester Merseyside and Cheshire,Controlled Waters,Benzo(a)pyrene,1,0,Water Industry,Water Industry,4,1,15,29,,53.39713246,-3.012083267,North West
16810068,,UNITED UTILITIES WATER PLC,CREWE,,366690,357370,Greater Manchester Merseyside and Cheshire,Controlled Waters,"Indeno(1,2,3-cd)pyrene",1,0,Water Industry,Water Industry,4,1,15,29,,53.11246624,-2.499080977,North West
16810068,,UNITED UTILITIES WATER PLC,CREWE,,366690,357370,Greater Manchester Merseyside and Cheshire,Controlled Waters,Benzo(a)pyrene,1,0,Water Industry,Water Industry,4,1,15,29,,53.11246624,-2.499080977,North West
17160005,,UNITED UTILITIES WATER PLC,BURNLEY,,382550,435270,Cumbria and Lancashire,Controlled Waters,"Indeno(1,2,3-cd)pyrene",1,0,Water Industry,Water Industry,0,1,15,29,,53.8134179,-2.266501392,North West
17160005,,UNITED UTILITIES WATER PLC,BURNLEY,,382550,435270,Cumbria and Lancashire,Controlled Waters,Benzo(a)pyrene,1,0,Water Industry,Water Industry,0,1,15,29,,53.8134179,-2.266501392,North West
16940144,,UNITED UTILITIES WATER PLC,ECCLES,,374960,397150,Greater Manchester Merseyside and Cheshire,Controlled Waters,"Indeno(1,2,3-cd)pyrene",1,0,Water Industry,Water Industry,4,1,15,29,,53.47048389,-2.378687523,North West
16940144,,UNITED UTILITIES WATER PLC,ECCLES,,374960,397150,Greater Manchester Merseyside and Cheshire,Controlled Waters,Benzo(a)pyrene,1,0,Water Industry,Water Industry,4,1,15,29,,53.47048389,-2.378687523,North West
CM0017801,,DWR CYMRU CYFYNGEDIG,"SEALAND ROAD, CHESTER",CH1 4LD,339300,366600,Greater Manchester Merseyside and Cheshire,Controlled Waters,"Indeno(1,2,3-cd)pyrene",1,0,Water Industry,Water Industry,4,1,15,29,,53.19300444,-2.909977265,North West
CM0017801,,DWR CYMRU CYFYNGEDIG,"SEALAND ROAD, CHESTER",CH1 4LD,339300,366600,Greater Manchester Merseyside and Cheshire,Controlled Waters,Benzo(a)pyrene,1,0,Water Industry,Water Industry,4,1,15,29,,53.19300444,-2.909977265,North West
17270050,,UNITED UTILITIES WATER PLC,LANCASTER,,345680,458870,Cumbria and Lancashire,Controlled Waters,Fluoranthene,0.1,0.15,Water Industry,Water Industry,0,1,15,29,,54.02295513,-2.830617369,North West
17160064,,UNITED UTILITIES WATER PLC,PRESTON,,345450,427850,Cumbria and Lancashire,Controlled Waters,Fluoranthene,0.1,0.42,Water Industry,Water Industry,0,1,15,29,,53.74415785,-2.828594718,North West
17160064,,UNITED UTILITIES WATER PLC,PRESTON,,345450,427850,Cumbria and Lancashire,Controlled Waters,Benzo(a)pyrene,1,1.85,Water Industry,Water Industry,0,1,15,29,,53.74415785,-2.828594718,North West
17160064,,UNITED UTILITIES WATER PLC,PRESTON,,345450,427850,Cumbria and Lancashire,Controlled Waters,"Indeno(1,2,3-cd)pyrene",1,2.4,Water Industry,Water Industry,0,1,15,29,,53.74415785,-2.828594718,North West
17270050,,UNITED UTILITIES WATER PLC,LANCASTER,,345680,458870,Cumbria and Lancashire,Controlled Waters,"Indeno(1,2,3-cd)pyrene",1,0,Water Industry,Water Industry,0,1,15,29,,54.02295513,-2.830617369,North West
17270050,,UNITED UTILITIES WATER PLC,LANCASTER,,345680,458870,Cumbria and Lancashire,Controlled Waters,Benzo(a)pyrene,1,0,Water Industry,Water Industry,0,1,15,29,,54.02295513,-2.830617369,North West
FP3599LH,DISPOSAL OR RECOVERY OF HAZ WASTE WITH CAPACITY EXCEEDING 10 TONNES PER DAY INVOLVING BLENDING OR MIXING PRIOR TO SUBMISSION TO ANY OF THE OTHER ACTIVITIES LISTED IN THIS SECTION OR IN SECTION 5.1,BKP Waste & Recycling Limited,BKP Hazardous Waste Transfer and Treatment Station Unit 8 Casbrook Park Bunny Lane Timsbury Hampshire,SO51 0PG,436000,124880,Solent and South Downs,Wastewater,"Indeno(1,2,3-cd)pyrene",1,0,Waste Treatment,Hazardous Waste,9,3,14,9,,51.02217087,-1.48810118,South East
FP3599LH,DISPOSAL OR RECOVERY OF HAZ WASTE WITH CAPACITY EXCEEDING 10 TONNES PER DAY INVOLVING BLENDING OR MIXING PRIOR TO SUBMISSION TO ANY OF THE OTHER ACTIVITIES LISTED IN THIS SECTION OR IN SECTION 5.1,BKP Waste & Recycling Limited,BKP Hazardous Waste Transfer and Treatment Station Unit 8 Casbrook Park Bunny Lane Timsbury Hampshire,SO51 0PG,436000,124880,Solent and South Downs,Wastewater,Benzo(a)pyrene,1,0,Waste Treatment,Hazardous Waste,9,3,14,9,,51.02217087,-1.48810118,South East
FP3599LH,DISPOSAL OR RECOVERY OF HAZ WASTE WITH CAPACITY EXCEEDING 10 TONNES PER DAY INVOLVING BLENDING OR MIXING PRIOR TO SUBMISSION TO ANY OF THE OTHER ACTIVITIES LISTED IN THIS SECTION OR IN SECTION 5.1,BKP Waste & Recycling Limited,BKP Hazardous Waste Transfer and Treatment Station Unit 8 Casbrook Park Bunny Lane Timsbury Hampshire,SO51 0PG,436000,124880,Solent and South Downs,Wastewater,Cypermethrin,0.005,0,Waste Treatment,Hazardous Waste,9,3,14,9,1.30E-05,51.02217087,-1.48810118,South East
FP3599LH,DISPOSAL OR RECOVERY OF HAZ WASTE WITH CAPACITY EXCEEDING 10 TONNES PER DAY INVOLVING BLENDING OR MIXING PRIOR TO SUBMISSION TO ANY OF THE OTHER ACTIVITIES LISTED IN THIS SECTION OR IN SECTION 5.1,BKP Waste & Recycling Limited,BKP Hazardous Waste Transfer and Treatment Station Unit 8 Casbrook Park Bunny Lane Timsbury Hampshire,SO51 0PG,436000,124880,Solent and South Downs,Wastewater,Fluoranthene,0.1,0,Waste Treatment,Hazardous Waste,9,3,14,9,,51.02217087,-1.48810118,South East
FP3599LH,DISPOSAL OR RECOVERY OF HAZ WASTE WITH CAPACITY EXCEEDING 10 TONNES PER DAY INVOLVING BLENDING OR MIXING PRIOR TO SUBMISSION TO ANY OF THE OTHER ACTIVITIES LISTED IN THIS SECTION OR IN SECTION 5.1,BKP Waste & Recycling Limited,BKP Hazardous Waste Transfer and Treatment Station Unit 8 Casbrook Park Bunny Lane Timsbury Hampshire,SO51 0PG,436000,124880,Solent and South Downs,Wastewater,Heptachlor,0.1,0,Waste Treatment,Hazardous Waste,9,3,14,9,,51.02217087,-1.48810118,South East
FB3301CV,"WASTE LANDFILLING; >10 T/D WITH CAPACITY >25,000T EXCLUDING INERT WASTE",Opes MRF 2013 Limited,Finmere Quarry Landfill Finmere Quarry Banbury Road Finmere Buckinghamshire,MK18 4AJ,462620,232620,East Anglia,Wastewater,Fluoranthene,0.1,0,Landfill,Inert Landfill,2,3,7,10,,51.98851288,-1.089505104,South East
FB3301CV,"WASTE LANDFILLING; >10 T/D WITH CAPACITY >25,000T EXCLUDING INERT WASTE",Opes MRF 2013 Limited,Finmere Quarry Landfill Finmere Quarry Banbury Road Finmere Buckinghamshire,MK18 4AJ,462620,232620,East Anglia,Wastewater,Heptachlor,0.1,0,Landfill,Inert Landfill,2,3,7,10,,51.98851288,-1.089505104,South East
FB3301CV,"WASTE LANDFILLING; >10 T/D WITH CAPACITY >25,000T EXCLUDING INERT WASTE",Opes MRF 2013 Limited,Finmere Quarry Landfill Finmere Quarry Banbury Road Finmere Buckinghamshire,MK18 4AJ,462620,232620,East Anglia,Wastewater,"Indeno(1,2,3-cd)pyrene",1,0,Landfill,Inert Landfill,2,3,7,10,,51.98851288,-1.089505104,South East
FB3301CV,"WASTE LANDFILLING; >10 T/D WITH CAPACITY >25,000T EXCLUDING INERT WASTE",Opes MRF 2013 Limited,Finmere Quarry Landfill Finmere Quarry Banbury Road Finmere Buckinghamshire,MK18 4AJ,462620,232620,East Anglia,Wastewater,Benzo(a)pyrene,1,0,Landfill,Inert Landfill,2,3,7,10,,51.98851288,-1.089505104,South East
CP3935PU,"WASTE LANDFILLING; >10 T/D WITH CAPACITY >25,000T EXCLUDING INERT WASTE",Valencia Waste Management LTD,Squabb Wood Landfill Site Salisbury Road Hampshire,SO51 6GA,432770,121520,Solent and South Downs,Wastewater,Benzo(a)pyrene,1,0,Landfill,Non Hazardous Landfill,9,3,7,17,,50.99215054,-1.534453888,South East
CP3935PU,"WASTE LANDFILLING; >10 T/D WITH CAPACITY >25,000T EXCLUDING INERT WASTE",Valencia Waste Management LTD,Squabb Wood Landfill Site Salisbury Road Hampshire,SO51 6GA,432770,121520,Solent and South Downs,Wastewater,Fluoranthene,0.1,0,Landfill,Non Hazardous Landfill,9,3,7,17,,50.99215054,-1.534453888,South East
CP3435PR,"WASTE LANDFILLING; >10 T/D WITH CAPACITY >25,000T EXCLUDING INERT WASTE",GRUNDON WASTE MANAGEMENT LIMITED,Star Works Landfill Knowl Hill Maidenhead Berkshire,RG10 9YB,482020,179530,Thames,Wastewater,Heptachlor,0.1,0,Landfill,Non Hazardous Landfill,10,3,7,17,,51.50875703,-0.819554349,South East
BV9900IS,"WASTE LANDFILLING; >10 T/D WITH CAPACITY >25,000T EXCLUDING INERT WASTE",Valencia Waste Management LTD,Horton Landfill Small Dole West Sussex,BN5 9XH,520970,112410,Solent and South Downs,Wastewater,Benzo(a)pyrene,1,0,Landfill,Non Hazardous Landfill,9,3,7,17,,50.89850707,-0.281152684,South East
BV9900IS,"WASTE LANDFILLING; >10 T/D WITH CAPACITY >25,000T EXCLUDING INERT WASTE",Valencia Waste Management LTD,Horton Landfill Small Dole West Sussex,BN5 9XH,520970,112410,Solent and South Downs,Wastewater,Fluoranthene,0.1,0,Landfill,Non Hazardous Landfill,9,3,7,17,,50.89850707,-0.281152684,South East
BK1244IA,"WASTE LANDFILLING; >10 T/D WITH CAPACITY >25,000T EXCLUDING INERT WASTE",Suez Recycling and Recovery Southern Ltd,Fair Oak Landfill Off Mortimers Lane Fair Oak Hampshire,SO50 7EA,450770,118260,Solent and South Downs,Wastewater,"Indeno(1,2,3-cd)pyrene",1,0,Landfill,Non Hazardous Landfill,9,3,7,17,,50.96153524,-1.278454887,South East
BK1244IA,"WASTE LANDFILLING; >10 T/D WITH CAPACITY >25,000T EXCLUDING INERT WASTE",Suez Recycling and Recovery Southern Ltd,Fair Oak Landfill Off Mortimers Lane Fair Oak Hampshire,SO50 7EA,450770,118260,Solent and South Downs,Wastewater,Benzo(a)pyrene,1,0,Landfill,Non Hazardous Landfill,9,3,7,17,,50.96153524,-1.278454887,South East
BK1244IA,"WASTE LANDFILLING; >10 T/D WITH CAPACITY >25,000T EXCLUDING INERT WASTE",Suez Recycling and Recovery Southern Ltd,Fair Oak Landfill Off Mortimers Lane Fair Oak Hampshire,SO50 7EA,450770,118260,Solent and South Downs,Wastewater,Fluoranthene,0.1,0,Landfill,Non Hazardous Landfill,9,3,7,17,,50.96153524,-1.278454887,South East
BV7346IM,"WASTE LANDFILLING; >10 T/D WITH CAPACITY >25,000T EXCLUDING INERT WASTE",Valencia Waste Management Limited,Ardley Landfill Site Ardley Fields Farm Oxfordshire,OX27 7PH,454040,226340,Thames,Wastewater,Heptachlor,0.1,0,Landfill,Non Hazardous Landfill,10,3,7,17,,51.9329555,-1.215423756,South East
CP3735SM,"WASTE LANDFILLING; >10 T/D WITH CAPACITY >25,000T EXCLUDING INERT WASTE",Lidsey Landfill Limited,Lidsey Landfill Site Lidsey Road Woodgate West Sussex,PO22 9PL,492800,103500,Solent and South Downs,Wastewater,Benzo(a)pyrene,1,0,Landfill,Non Hazardous Landfill,9,3,7,17,,50.82361455,-0.683862276,South East
CP3735SM,"WASTE LANDFILLING; >10 T/D WITH CAPACITY >25,000T EXCLUDING INERT WASTE",Lidsey Landfill Limited,Lidsey Landfill Site Lidsey Road Woodgate West Sussex,PO22 9PL,492800,103500,Solent and South Downs,Wastewater,Fluoranthene,0.1,0,Landfill,Non Hazardous Landfill,9,3,7,17,,50.82361455,-0.683862276,South East
BJ7433IQ,"PAPER, PULP AND BOARD; PRODUCING PAPER/BOARD >20T/D",Smurfit Kappa UK Limited,"Snodland Paper Mill CHP,Smurfit Kappa Townsend Hook Ltd Mill Street Kent",ME6 5AX,570780,161600,"Kent, South London and East Sussex",Controlled Waters,Cypermethrin,0.005,0.3691,Paper and textiles,Paper & Pulp,6,1,12,23,1.30E-05,51.32785729,0.449837522,South East
BR6996IC,REFINING MINERAL OILS,ESSO Petroleum Company Limited,Esso Refinery Marsh Lane Fawley Hampshire,SO45 1TX,445550,103660,Solent and South Downs,Controlled Waters,Fluoranthene,0.1,0,Refineries & Fuel,Refineries & Fuel,9,1,13,25,,50.8306899,-1.354593942,South East
CNTD.0024,,THAMES WATER UTILITIES LTD,CAMBERLEY STW,GU15 3DE,485800,159500,Thames,Controlled Waters,Fluoranthene,0.1,0.12,Water Industry,Water Industry,10,1,15,29,,51.32813663,-0.769943137,South East
CTCR.1340,,THAMES WATER UTILITIES LTD,CRAWLEY STW,RH10 3NW,528800,140200,"Kent, South London and East Sussex",Controlled Waters,Fluoranthene,0.1,0.12,Water Industry,Water Industry,6,1,15,29,,51.14658044,-0.160005597,South East
CTCR.0709,,THAMES WATER UTILITIES LTD,OXFORD STW,OX4 4YU,454200,202200,Thames,Controlled Waters,Fluoranthene,0.1,0.15,Water Industry,Water Industry,10,1,15,29,,51.71591849,-1.216867993,South East
CNTM.2237,,THAMES WATER UTILITIES LTD,SLOUGH STW,SL1 9EB,494100,179200,Thames,Controlled Waters,Fluoranthene,0.1,0.18,Water Industry,Water Industry,10,1,15,29,,51.50391064,-0.645628767,South East
CNTD.0058,,THAMES WATER UTILITIES LTD,LITTLE MARLOW STW,SL7 3RT,487800,187000,Thames,Controlled Waters,Fluoranthene,0.1,0.18,Water Industry,Water Industry,10,1,15,29,,51.57503906,-0.73442945,South East
CAWM.0942,,THAMES WATER UTILITIES LTD,READING STW,RG2 0RP,471100,170800,Thames,Controlled Waters,Fluoranthene,0.1,0.2,Water Industry,Water Industry,10,1,15,29,,51.43175105,-0.978626842,South East
AWCNF10296,,Anglian Water,Cotton Valley STW,,488630,241460,East Anglia,Controlled Waters,Fluoranthene,0.1,0.27,Water Industry,Water Industry,2,1,15,29,,52.06443452,-0.70853596,South East
CNTD.0067,,THAMES WATER UTILITIES LTD,LONG REACH STW,DA1 5PP,555600,176700,"Kent, South London and East Sussex",Controlled Waters,Fluoranthene,0.1,0.34,Water Industry,Water Industry,6,1,15,29,,51.46787978,0.238759509,South East
CNTM.2237,,THAMES WATER UTILITIES LTD,SLOUGH STW,SL1 9EB,494100,179200,Thames,Controlled Waters,"Indeno(1,2,3-cd)pyrene",1,1.03,Water Industry,Water Industry,10,1,15,29,,51.50391064,-0.645628767,South East
CNTD.0058,,THAMES WATER UTILITIES LTD,LITTLE MARLOW STW,SL7 3RT,487800,187000,Thames,Controlled Waters,"Indeno(1,2,3-cd)pyrene",1,1.04,Water Industry,Water Industry,10,1,15,29,,51.57503906,-0.73442945,South East
CAWM.0942,,THAMES WATER UTILITIES LTD,READING STW,RG2 0RP,471100,170800,Thames,Controlled Waters,"Indeno(1,2,3-cd)pyrene",1,1.12,Water Industry,Water Industry,10,1,15,29,,51.43175105,-0.978626842,South East
AWCNF10296,,Anglian Water,Cotton Valley STW,,488630,241460,East Anglia,Controlled Waters,Benzo(a)pyrene,1,1.19,Water Industry,Water Industry,2,1,15,29,,52.06443452,-0.70853596,South East
CNTD.0067,,THAMES WATER UTILITIES LTD,LONG REACH STW,DA1 5PP,555600,176700,"Kent, South London and East Sussex",Controlled Waters,Benzo(a)pyrene,1,1.5,Water Industry,Water Industry,6,1,15,29,,51.46787978,0.238759509,South East
AWCNF10296,,Anglian Water,Cotton Valley STW,,488630,241460,East Anglia,Controlled Waters,"Indeno(1,2,3-cd)pyrene",1,1.54,Water Industry,Water Industry,2,1,15,29,,52.06443452,-0.70853596,South East
CNTD.0067,,THAMES WATER UTILITIES LTD,LONG REACH STW,DA1 5PP,555600,176700,"Kent, South London and East Sussex",Controlled Waters,"Indeno(1,2,3-cd)pyrene",1,1.94,Water Industry,Water Industry,6,1,15,29,,51.46787978,0.238759509,South East
CNTM.2237,,THAMES WATER UTILITIES LTD,SLOUGH STW,SL1 9EB,494100,179200,Thames,Controlled Waters,Benzo(a)pyrene,1,0,Water Industry,Water Industry,10,1,15,29,,51.50391064,-0.645628767,South East
CSSC.0315,,THAMES WATER UTILITIES LTD,AYLESBURY STW,HP19 3RT,478900,214800,Thames,Controlled Waters,Fluoranthene,0.1,0,Water Industry,Water Industry,10,1,15,29,,51.82625773,-0.856547742,South East
CSSC.0315,,THAMES WATER UTILITIES LTD,AYLESBURY STW,HP19 3RT,478900,214800,Thames,Controlled Waters,"Indeno(1,2,3-cd)pyrene",1,0,Water Industry,Water Industry,10,1,15,29,,51.82625773,-0.856547742,South East
CSSC.0315,,THAMES WATER UTILITIES LTD,AYLESBURY STW,HP19 3RT,478900,214800,Thames,Controlled Waters,Benzo(a)pyrene,1,0,Water Industry,Water Industry,10,1,15,29,,51.82625773,-0.856547742,South East
CNTD.0058,,THAMES WATER UTILITIES LTD,LITTLE MARLOW STW,SL7 3RT,487800,187000,Thames,Controlled Waters,Benzo(a)pyrene,1,0,Water Industry,Water Industry,10,1,15,29,,51.57503906,-0.73442945,South East
CTCR.0709,,THAMES WATER UTILITIES LTD,OXFORD STW,OX4 4YU,454200,202200,Thames,Controlled Waters,"Indeno(1,2,3-cd)pyrene",1,0,Water Industry,Water Industry,10,1,15,29,,51.71591849,-1.216867993,South East
CTCR.0709,,THAMES WATER UTILITIES LTD,OXFORD STW,OX4 4YU,454200,202200,Thames,Controlled Waters,Benzo(a)pyrene,1,0,Water Industry,Water Industry,10,1,15,29,,51.71591849,-1.216867993,South East
CTCR.2079,,THAMES WATER UTILITIES LTD,WARGRAVE STW,RG10 8DJ,477900,177600,Thames,Controlled Waters,Fluoranthene,0.1,0,Water Industry,Water Industry,10,1,15,29,,51.49198902,-0.879333042,South East
CTCR.2079,,THAMES WATER UTILITIES LTD,WARGRAVE STW,RG10 8DJ,477900,177600,Thames,Controlled Waters,"Indeno(1,2,3-cd)pyrene",1,0,Water Industry,Water Industry,10,1,15,29,,51.49198902,-0.879333042,South East
CTCR.2079,,THAMES WATER UTILITIES LTD,WARGRAVE STW,RG10 8DJ,477900,177600,Thames,Controlled Waters,Benzo(a)pyrene,1,0,Water Industry,Water Industry,10,1,15,29,,51.49198902,-0.879333042,South East
CNTD.0024,,THAMES WATER UTILITIES LTD,CAMBERLEY STW,GU15 3DE,485800,159500,Thames,Controlled Waters,"Indeno(1,2,3-cd)pyrene",1,0,Water Industry,Water Industry,10,1,15,29,,51.32813663,-0.769943137,South East
CNTD.0024,,THAMES WATER UTILITIES LTD,CAMBERLEY STW,GU15 3DE,485800,159500,Thames,Controlled Waters,Benzo(a)pyrene,1,0,Water Industry,Water Industry,10,1,15,29,,51.32813663,-0.769943137,South East
CNTD.0044,,THAMES WATER UTILITIES LTD,ESHER STW,KT10 8AU,513500,166000,"Kent, South London and East Sussex",Controlled Waters,Fluoranthene,0.1,0,Water Industry,Water Industry,6,1,15,29,,51.38171143,-0.370459257,South East
CNTD.0044,,THAMES WATER UTILITIES LTD,ESHER STW,KT10 8AU,513500,166000,"Kent, South London and East Sussex",Controlled Waters,"Indeno(1,2,3-cd)pyrene",1,0,Water Industry,Water Industry,6,1,15,29,,51.38171143,-0.370459257,South East
CNTD.0044,,THAMES WATER UTILITIES LTD,ESHER STW,KT10 8AU,513500,166000,"Kent, South London and East Sussex",Controlled Waters,Benzo(a)pyrene,1,0,Water Industry,Water Industry,6,1,15,29,,51.38171143,-0.370459257,South East
CTCR.1340,,THAMES WATER UTILITIES LTD,CRAWLEY STW,RH10 3NW,528800,140200,"Kent, South London and East Sussex",Controlled Waters,"Indeno(1,2,3-cd)pyrene",1,0,Water Industry,Water Industry,6,1,15,29,,51.14658044,-0.160005597,South East
CTCR.1340,,THAMES WATER UTILITIES LTD,CRAWLEY STW,RH10 3NW,528800,140200,"Kent, South London and East Sussex",Controlled Waters,Benzo(a)pyrene,1,0,Water Industry,Water Industry,6,1,15,29,,51.14658044,-0.160005597,South East
CAWM.0942,,THAMES WATER UTILITIES LTD,READING STW,RG2 0RP,471100,170800,Thames,Controlled Waters,Benzo(a)pyrene,1,0,Water Industry,Water Industry,10,1,15,29,,51.43175105,-0.978626842,South East
CTCR.0875,,THAMES WATER UTILITIES LTD,BASINGSTOKE STW,RG24 8LL,468000,155200,Thames,Controlled Waters,Fluoranthene,0.1,0,Water Industry,Water Industry,10,1,15,29,,51.29188113,-1.026190905,South East
CTCR.0875,,THAMES WATER UTILITIES LTD,BASINGSTOKE STW,RG24 8LL,468000,155200,Thames,Controlled Waters,"Indeno(1,2,3-cd)pyrene",1,0,Water Industry,Water Industry,10,1,15,29,,51.29188113,-1.026190905,South East
CTCR.0875,,THAMES WATER UTILITIES LTD,BASINGSTOKE STW,RG24 8LL,468000,155200,Thames,Controlled Waters,Benzo(a)pyrene,1,0,Water Industry,Water Industry,10,1,15,29,,51.29188113,-1.026190905,South East
CP3531RE,"WASTE LANDFILLING; >10 T/D WITH CAPACITY >25,000T EXCLUDING INERT WASTE",Commercial Recycling (Southern) Limited,Southwood Landfill Site Evercreech Somerset,BA4 6LX,363920,137020,Wessex,Controlled Waters,Benzo(a)pyrene,1,0,Landfill,Hazardous Landfill,11,1,7,8,,51.1313113,-2.517004785,South West
RP3530BC,"WASTE LANDFILLING; >10 T/D WITH CAPACITY >25,000T EXCLUDING INERT WASTE",Valencia Waste Management LTD,Broadpath Landfill Uffculme Devon,EX15 3EP,306640,113360,"Devon, Cornwall and the Isles of Scilly",Wastewater,Benzo(a)pyrene,1,0,Landfill,Non Hazardous Landfill,1,3,7,17,,50.91212915,-3.329340506,South West
RP3530BC,"WASTE LANDFILLING; >10 T/D WITH CAPACITY >25,000T EXCLUDING INERT WASTE",Valencia Waste Management LTD,Broadpath Landfill Uffculme Devon,EX15 3EP,306640,113360,"Devon, Cornwall and the Isles of Scilly",Wastewater,Fluoranthene,0.1,0,Landfill,Non Hazardous Landfill,1,3,7,17,,50.91212915,-3.329340506,South West
BV2204IZ,"WASTE LANDFILLING; >10 T/D WITH CAPACITY >25,000T EXCLUDING INERT WASTE",Valencia Waste Management LTD,Lean Quarry Landfill Site,PL14 3QD,226700,61300,"Devon, Cornwall and the Isles of Scilly",Wastewater,Benzo(a)pyrene,1,0,Landfill,Non Hazardous Landfill,1,3,7,17,,50.42592044,-4.441169245,South West
BV2204IZ,"WASTE LANDFILLING; >10 T/D WITH CAPACITY >25,000T EXCLUDING INERT WASTE",Valencia Waste Management LTD,Lean Quarry Landfill Site,PL14 3QD,226700,61300,"Devon, Cornwall and the Isles of Scilly",Wastewater,Fluoranthene,0.1,0,Landfill,Non Hazardous Landfill,1,3,7,17,,50.42592044,-4.441169245,South West
BV2204IZ,"WASTE LANDFILLING; >10 T/D WITH CAPACITY >25,000T EXCLUDING INERT WASTE",Valencia Waste Management LTD,Lean Quarry Landfill Site,PL14 3QD,226700,61300,"Devon, Cornwall and the Isles of Scilly",Wastewater,Heptachlor,0.1,0,Landfill,Non Hazardous Landfill,1,3,7,17,,50.42592044,-4.441169245,South West
BT7272IW,"WASTE LANDFILLING; >10 T/D WITH CAPACITY >25,000T EXCLUDING INERT WASTE",Valencia Waste Exeter Limited,Yanley Landfill Bridgewater Road Bristol,BS13 8AF,355500,169600,Wessex,Wastewater,Benzo(a)pyrene,1,0,Landfill,Non Hazardous Landfill,11,3,7,17,,51.42365206,-2.641397326,South West
BT7272IW,"WASTE LANDFILLING; >10 T/D WITH CAPACITY >25,000T EXCLUDING INERT WASTE",Valencia Waste Exeter Limited,Yanley Landfill Bridgewater Road Bristol,BS13 8AF,355500,169600,Wessex,Wastewater,Fluoranthene,0.1,0,Landfill,Non Hazardous Landfill,11,3,7,17,,51.42365206,-2.641397326,South West
BT7272IW,"WASTE LANDFILLING; >10 T/D WITH CAPACITY >25,000T EXCLUDING INERT WASTE",Valencia Waste Exeter Limited,Yanley Landfill Bridgewater Road Bristol,BS13 8AF,355500,169600,Wessex,Wastewater,Heptachlor,0.1,0,Landfill,Non Hazardous Landfill,11,3,7,17,,51.42365206,-2.641397326,South West
EP3431FL,"PAPER, PULP AND BOARD; PRODUCING PAPER/BOARD >20T/D",Higher Kings Mill Limited,Higher Kings Mill Devon,EX15 1QJ,303100,108190,"Devon, Cornwall and the Isles of Scilly",Controlled Waters,Cypermethrin,0.005,0.0097,Paper and textiles,Paper & Pulp,1,1,12,23,1.30E-05,50.8650677,-3.378306058,South West
BM2772IK,"COATING, PRINTING AND TEXTILES; PRE-TREATING BY WASHING ETC >10T/DAY",Heathcoat Fabrics Limited,Tiverton Textile Manufacturer Westexe,EX16 5LL,295200,112700,"Devon, Cornwall and the Isles of Scilly",Controlled Waters,Benzo(a)pyrene,1,0,Paper and textiles,Textiles,1,1,12,28,,50.90423014,-3.491819628,South West
BJ4302IZ,"PAPER, PULP AND BOARD; PRODUCING PAPER/BOARD >20T/D",Hollingsworth and Vose Company Limited,Winchcombe Paper Mill Postlip Mills Winchcombe Cheltenham Gloucestershire,GL54 5BB,400900,227100,West Midlands,Controlled Waters,Cypermethrin,0.005,0,Paper and textiles,Paper & Pulp,12,1,12,23,1.30E-05,51.94240051,-1.988315576,South West
10005,,Wessex Water,BATH (SALTFORD) STW,BS31 3ER,368900,168800,Wessex,Controlled Waters,Fluoranthene,0.1,0.11,Water Industry,Water Industry,11,1,15,29,,51.41735548,-2.448613053,South West
300454,,SOUTH WEST WATER LTD,Plymouth Central STW,PL4 OPX,249800,53930,"Devon, Cornwall and the Isles of Scilly",Controlled Waters,Fluoranthene,0.1,0.12,Water Industry,Water Industry,1,1,15,29,,50.36605365,-4.113259912,South West
S/20/25430/R,,SEVERN TRENT WATER LTD,Cheltenham STW,GL51 0TH,389930,224860,West Midlands,Controlled Waters,Fluoranthene,0.1,0.13,Water Industry,Water Industry,12,1,15,29,,51.92216852,-2.147834359,South West
100334,,Wessex Water,WESTON SUPER MARE STW,BS24 0AP,331100,156900,Wessex,Controlled Waters,Fluoranthene,0.1,0.14,Water Industry,Water Industry,11,1,15,29,,51.30702901,-2.98981133,South West
40415,,Wessex Water,BOURNEMOUTH (Holdenhurst) STW,BH7 7ES,413300,95230,Wessex,Controlled Waters,Fluoranthene,0.1,0.15,Water Industry,Water Industry,11,1,15,29,,50.75651622,-1.812815436,South West
43091,,Wessex Water,POOLE STW,BH17 7BX,400700,93580,Wessex,Controlled Waters,Fluoranthene,0.1,0.15,Water Industry,Water Industry,11,1,15,29,,50.74182788,-1.991444522,South West
1229,,SOUTH WEST WATER LTD,EXETER STW (Countess Wear),EX2 7AA,294800,89000,"Devon, Cornwall and the Isles of Scilly",Controlled Waters,Fluoranthene,0.1,0.16,Water Industry,Water Industry,1,1,15,29,,50.69110642,-3.490710429,South West
CNTD.0017,,THAMES WATER UTILITIES LTD,SWINDON STW,SN2 2DP,412700,185800,Thames,Controlled Waters,Fluoranthene,0.1,0.18,Water Industry,Water Industry,10,1,15,29,,51.57092949,-1.818151787,South West
200976,,SOUTH WEST WATER LTD,Brokenbury STW (TORBAY),TQ5 0LL,289750,56310,"Devon, Cornwall and the Isles of Scilly",Controlled Waters,Fluoranthene,0.1,0.18,Water Industry,Water Industry,1,1,15,29,,50.39629959,-3.552494779,South West
S/20/21356/R,,SEVERN TRENT WATER LTD,Netheridge Sewerage Treatment Plant Hempsted Lane Hempsted GLoucester,GL2 5LF,381110,215700,West Midlands,Controlled Waters,Fluoranthene,0.1,0.18,Water Industry,Water Industry,12,1,15,29,,51.83958183,-2.27557936,South West
100311,,Wessex Water,BRISTOL (AVONMOUTH) STW,BS11 9AA,353250,179400,Wessex,Controlled Waters,Fluoranthene,0.1,0.7,Water Industry,Water Industry,11,1,15,29,,51.51158119,-2.675054415,South West
CNTD.0017,,THAMES WATER UTILITIES LTD,SWINDON STW,SN2 2DP,412700,185800,Thames,Controlled Waters,"Indeno(1,2,3-cd)pyrene",1,1.02,Water Industry,Water Industry,10,1,15,29,,51.57092949,-1.818151787,South West
S/20/21356/R,,SEVERN TRENT WATER LTD,Netheridge Sewerage Treatment Plant Hempsted Lane Hempsted GLoucester,GL2 5LF,381110,215700,West Midlands,Controlled Waters,"Indeno(1,2,3-cd)pyrene",1,1.03,Water Industry,Water Industry,12,1,15,29,,51.83958183,-2.27557936,South West
100311,,Wessex Water,BRISTOL (AVONMOUTH) STW,BS11 9AA,353250,179400,Wessex,Controlled Waters,Benzo(a)pyrene,1,3.08,Water Industry,Water Industry,11,1,15,29,,51.51158119,-2.675054415,South West
100311,,Wessex Water,BRISTOL (AVONMOUTH) STW,BS11 9AA,353250,179400,Wessex,Controlled Waters,"Indeno(1,2,3-cd)pyrene",1,3.98,Water Industry,Water Industry,11,1,15,29,,51.51158119,-2.675054415,South West
CNTD.0017,,THAMES WATER UTILITIES LTD,SWINDON STW,SN2 2DP,412700,185800,Thames,Controlled Waters,Benzo(a)pyrene,1,0,Water Industry,Water Industry,10,1,15,29,,51.57092949,-1.818151787,South West
200976,,SOUTH WEST WATER LTD,Brokenbury STW (TORBAY),TQ5 0LL,289750,56310,"Devon, Cornwall and the Isles of Scilly",Controlled Waters,"Indeno(1,2,3-cd)pyrene",1,0,Water Industry,Water Industry,1,1,15,29,,50.39629959,-3.552494779,South West
200976,,SOUTH WEST WATER LTD,Brokenbury STW (TORBAY),TQ5 0LL,289750,56310,"Devon, Cornwall and the Isles of Scilly",Controlled Waters,Benzo(a)pyrene,1,0,Water Industry,Water Industry,1,1,15,29,,50.39629959,-3.552494779,South West
100334,,Wessex Water,WESTON SUPER MARE STW,BS24 0AP,331100,156900,Wessex,Controlled Waters,"Indeno(1,2,3-cd)pyrene",1,0,Water Industry,Water Industry,11,1,15,29,,51.30702901,-2.98981133,South West
100334,,Wessex Water,WESTON SUPER MARE STW,BS24 0AP,331100,156900,Wessex,Controlled Waters,Benzo(a)pyrene,1,0,Water Industry,Water Industry,11,1,15,29,,51.30702901,-2.98981133,South West
40415,,Wessex Water,BOURNEMOUTH (Holdenhurst) STW,BH7 7ES,413300,95230,Wessex,Controlled Waters,"Indeno(1,2,3-cd)pyrene",1,0,Water Industry,Water Industry,11,1,15,29,,50.75651622,-1.812815436,South West
40415,,Wessex Water,BOURNEMOUTH (Holdenhurst) STW,BH7 7ES,413300,95230,Wessex,Controlled Waters,Benzo(a)pyrene,1,0,Water Industry,Water Industry,11,1,15,29,,50.75651622,-1.812815436,South West
43091,,Wessex Water,POOLE STW,BH17 7BX,400700,93580,Wessex,Controlled Waters,"Indeno(1,2,3-cd)pyrene",1,0,Water Industry,Water Industry,11,1,15,29,,50.74182788,-1.991444522,South West
43091,,Wessex Water,POOLE STW,BH17 7BX,400700,93580,Wessex,Controlled Waters,Benzo(a)pyrene,1,0,Water Industry,Water Industry,11,1,15,29,,50.74182788,-1.991444522,South West
300454,,SOUTH WEST WATER LTD,Plymouth Central STW,PL4 OPX,249800,53930,"Devon, Cornwall and the Isles of Scilly",Controlled Waters,"Indeno(1,2,3-cd)pyrene",1,0,Water Industry,Water Industry,1,1,15,29,,50.36605365,-4.113259912,South West
300454,,SOUTH WEST WATER LTD,Plymouth Central STW,PL4 OPX,249800,53930,"Devon, Cornwall and the Isles of Scilly",Controlled Waters,Benzo(a)pyrene,1,0,Water Industry,Water Industry,1,1,15,29,,50.36605365,-4.113259912,South West
1229,,SOUTH WEST WATER LTD,EXETER STW (Countess Wear),EX2 7AA,294800,89000,"Devon, Cornwall and the Isles of Scilly",Controlled Waters,"Indeno(1,2,3-cd)pyrene",1,0,Water Industry,Water Industry,1,1,15,29,,50.69110642,-3.490710429,South West
1229,,SOUTH WEST WATER LTD,EXETER STW (Countess Wear),EX2 7AA,294800,89000,"Devon, Cornwall and the Isles of Scilly",Controlled Waters,Benzo(a)pyrene,1,0,Water Industry,Water Industry,1,1,15,29,,50.69110642,-3.490710429,South West
10005,,Wessex Water,BATH (SALTFORD) STW,BS31 3ER,368900,168800,Wessex,Controlled Waters,"Indeno(1,2,3-cd)pyrene",1,0,Water Industry,Water Industry,11,1,15,29,,51.41735548,-2.448613053,South West
10005,,Wessex Water,BATH (SALTFORD) STW,BS31 3ER,368900,168800,Wessex,Controlled Waters,Benzo(a)pyrene,1,0,Water Industry,Water Industry,11,1,15,29,,51.41735548,-2.448613053,South West
S/20/25430/R,,SEVERN TRENT WATER LTD,Cheltenham STW,GL51 0TH,389930,224860,West Midlands,Controlled Waters,"Indeno(1,2,3-cd)pyrene",1,0,Water Industry,Water Industry,12,1,15,29,,51.92216852,-2.147834359,South West
S/20/25430/R,,SEVERN TRENT WATER LTD,Cheltenham STW,GL51 0TH,389930,224860,West Midlands,Controlled Waters,Benzo(a)pyrene,1,0,Water Industry,Water Industry,12,1,15,29,,51.92216852,-2.147834359,South West
S/20/21356/R,,SEVERN TRENT WATER LTD,Netheridge Sewerage Treatment Plant Hempsted Lane Hempsted GLoucester,GL2 5LF,381110,215700,West Midlands,Controlled Waters,Benzo(a)pyrene,1,0,Water Industry,Water Industry,12,1,15,29,,51.83958183,-2.27557936,South West
S/06/55232/R,,SEVERN TRENT WATER LTD,Roundhill Sewage Treatment Wor Gibbett Lane Kinver West Midlands,DY7 6PX,303870,202830,West Midlands,Controlled Waters,Fluoranthene,0.1,0.23,Water Industry,Water Industry,12,1,15,29,,51.715932,-3.392880616,West Midlands
S/06/55232/R,,SEVERN TRENT WATER LTD,Roundhill Sewage Treatment Wor Gibbett Lane Kinver West Midlands,DY7 6PX,303870,202830,West Midlands,Controlled Waters,Benzo(a)pyrene,1,1.01,Water Industry,Water Industry,12,1,15,29,,51.715932,-3.392880616,West Midlands
S/06/55232/R,,SEVERN TRENT WATER LTD,Roundhill Sewage Treatment Wor Gibbett Lane Kinver West Midlands,DY7 6PX,303870,202830,West Midlands,Controlled Waters,"Indeno(1,2,3-cd)pyrene",1,1.31,Water Industry,Water Industry,12,1,15,29,,51.715932,-3.392880616,West Midlands
ZP3933LD,"WASTE LANDFILLING; >10 T/D WITH CAPACITY >25,000T EXCLUDING INERT WASTE",Severn Waste Services Limited,Hill & Moor Landfill Site Piddle Brook Lane Wyre Piddle Pershore Worcester,WR10 2LW,396900,248400,West Midlands,Wastewater,Heptachlor,0.1,0,Landfill,Non Hazardous Landfill,12,3,7,17,,52.13389224,-2.046705579,West Midlands
ZP3933LD,"WASTE LANDFILLING; >10 T/D WITH CAPACITY >25,000T EXCLUDING INERT WASTE",Severn Waste Services Limited,Hill & Moor Landfill Site Piddle Brook Lane Wyre Piddle Pershore Worcester,WR10 2LW,396900,248400,West Midlands,Wastewater,"Indeno(1,2,3-cd)pyrene",1,0,Landfill,Non Hazardous Landfill,12,3,7,17,,52.13389224,-2.046705579,West Midlands
ZP3933LD,"WASTE LANDFILLING; >10 T/D WITH CAPACITY >25,000T EXCLUDING INERT WASTE",Severn Waste Services Limited,Hill & Moor Landfill Site Piddle Brook Lane Wyre Piddle Pershore Worcester,WR10 2LW,396900,248400,West Midlands,Wastewater,Benzo(a)pyrene,1,0,Landfill,Non Hazardous Landfill,12,3,7,17,,52.13389224,-2.046705579,West Midlands
BB3109LT,DISPOSAL OR RECOVERY OF HAZ WASTE WITH CAPACITY EXCEEDING 10 TONNES PER DAY INVOLVING BLENDING OR MIXING PRIOR TO SUBMISSION TO ANY OF THE OTHER ACTIVITIES LISTED IN THIS SECTION OR IN SECTION 5.1,Envirocom (North West) Ltd,West Midlands Recycling Centre Rufford Street Lye Stourbridge West Midlands,DY9 7DP,391740,284490,West Midlands,Wastewater,Cypermethrin,0.005,0,Waste Treatment,Metals Recycling,12,3,14,14,1.30E-05,52.45829513,-2.122989015,West Midlands
BB3109LT,DISPOSAL OR RECOVERY OF HAZ WASTE WITH CAPACITY EXCEEDING 10 TONNES PER DAY INVOLVING BLENDING OR MIXING PRIOR TO SUBMISSION TO ANY OF THE OTHER ACTIVITIES LISTED IN THIS SECTION OR IN SECTION 5.1,Envirocom (North West) Ltd,West Midlands Recycling Centre Rufford Street Lye Stourbridge West Midlands,DY9 7DP,391740,284490,West Midlands,Wastewater,Fluoranthene,0.1,0,Waste Treatment,Metals Recycling,12,3,14,14,,52.45829513,-2.122989015,West Midlands
BB3109LT,DISPOSAL OR RECOVERY OF HAZ WASTE WITH CAPACITY EXCEEDING 10 TONNES PER DAY INVOLVING BLENDING OR MIXING PRIOR TO SUBMISSION TO ANY OF THE OTHER ACTIVITIES LISTED IN THIS SECTION OR IN SECTION 5.1,Envirocom (North West) Ltd,West Midlands Recycling Centre Rufford Street Lye Stourbridge West Midlands,DY9 7DP,391740,284490,West Midlands,Wastewater,Heptachlor,0.1,0,Waste Treatment,Metals Recycling,12,3,14,14,,52.45829513,-2.122989015,West Midlands
BB3109LT,DISPOSAL OR RECOVERY OF HAZ WASTE WITH CAPACITY EXCEEDING 10 TONNES PER DAY INVOLVING BLENDING OR MIXING PRIOR TO SUBMISSION TO ANY OF THE OTHER ACTIVITIES LISTED IN THIS SECTION OR IN SECTION 5.1,Envirocom (North West) Ltd,West Midlands Recycling Centre Rufford Street Lye Stourbridge West Midlands,DY9 7DP,391740,284490,West Midlands,Wastewater,"Indeno(1,2,3-cd)pyrene",1,0,Waste Treatment,Metals Recycling,12,3,14,14,,52.45829513,-2.122989015,West Midlands
BB3109LT,DISPOSAL OR RECOVERY OF HAZ WASTE WITH CAPACITY EXCEEDING 10 TONNES PER DAY INVOLVING BLENDING OR MIXING PRIOR TO SUBMISSION TO ANY OF THE OTHER ACTIVITIES LISTED IN THIS SECTION OR IN SECTION 5.1,Envirocom (North West) Ltd,West Midlands Recycling Centre Rufford Street Lye Stourbridge West Midlands,DY9 7DP,391740,284490,West Midlands,Wastewater,Benzo(a)pyrene,1,0,Waste Treatment,Metals Recycling,12,3,14,14,,52.45829513,-2.122989015,West Midlands
S/07/56066/R,,SEVERN TRENT WATER LTD,Worcester STW,WR2 4ZP,384361,253530,West Midlands,Controlled Waters,Fluoranthene,0.1,0.12,Water Industry,Water Industry,12,1,15,29,,52.17979767,-2.230133959,West Midlands
S/13/25443/R,,SEVERN TRENT WATER LTD,Warwick STW,CV34 6QW,427770,262900,West Midlands,Controlled Waters,Fluoranthene,0.1,0.13,Water Industry,Water Industry,12,1,15,29,,52.26356694,-1.594524975,West Midlands
T/24/35514/R,,SEVERN TRENT WATER LTD,Claymills Chp Plant Meadow Lane Clay Mills Nr Burton Staffordshire,DE13 0DB,426270,325780,West Midlands,Controlled Waters,Fluoranthene,0.1,0.16,Water Industry,Water Industry,12,1,15,29,,52.82890968,-1.611547662,West Midlands
S/06/55227/R,,SEVERN TRENT WATER LTD,Barnhurst STW,WV95HN,390000,301650,West Midlands,Controlled Waters,Fluoranthene,0.1,0.17,Water Industry,Water Industry,12,1,15,29,,52.61253137,-2.149118878,West Midlands
T/12/35338/R,,SEVERN TRENT WATER LTD,Coleshill STW,B46 1NX,419000,291000,West Midlands,Controlled Waters,Fluoranthene,0.1,0.24,Water Industry,Water Industry,12,1,15,29,,52.5165567,-1.721439707,West Midlands
T/01/21819/R,,SEVERN TRENT WATER LTD,Strongford Sewage Treatment Works Barlaston Old Road Barlaston Stoke On Trent Staffordshire,ST12 9EX,387930,339120,West Midlands,Controlled Waters,Fluoranthene,0.1,0.39,Water Industry,Water Industry,12,1,15,29,,52.9493237,-2.181084321,West Midlands
S/11/25151/R,,SEVERN TRENT WATER LTD,Coventry (Finham) STW,CV3 6SD,433600,273700,West Midlands,Controlled Waters,Fluoranthene,0.1,0.46,Water Industry,Water Industry,12,1,15,29,,52.36033366,-1.508030305,West Midlands
T/12/35338/R,,SEVERN TRENT WATER LTD,Coleshill STW,B46 1NX,419000,291000,West Midlands,Controlled Waters,Benzo(a)pyrene,1,1.04,Water Industry,Water Industry,12,1,15,29,,52.5165567,-1.721439707,West Midlands
T/12/35338/R,,SEVERN TRENT WATER LTD,Coleshill STW,B46 1NX,419000,291000,West Midlands,Controlled Waters,"Indeno(1,2,3-cd)pyrene",1,1.35,Water Industry,Water Industry,12,1,15,29,,52.5165567,-1.721439707,West Midlands
T/01/21819/R,,SEVERN TRENT WATER LTD,Strongford Sewage Treatment Works Barlaston Old Road Barlaston Stoke On Trent Staffordshire,ST12 9EX,387930,339120,West Midlands,Controlled Waters,Benzo(a)pyrene,1,1.72,Water Industry,Water Industry,12,1,15,29,,52.9493237,-2.181084321,West Midlands
T/10/35431/R,,SEVERN TRENT WATER LTD,Minworth Final ASP Effluent,B76 9BE,417150,291950,West Midlands,Controlled Waters,Fluoranthene,0.1,1.77,Water Industry,Water Industry,12,1,15,29,,52.52515799,-1.748652934,West Midlands
S/11/25151/R,,SEVERN TRENT WATER LTD,Coventry (Finham) STW,CV3 6SD,433600,273700,West Midlands,Controlled Waters,Benzo(a)pyrene,1,2,Water Industry,Water Industry,12,1,15,29,,52.36033366,-1.508030305,West Midlands
T/01/21819/R,,SEVERN TRENT WATER LTD,Strongford Sewage Treatment Works Barlaston Old Road Barlaston Stoke On Trent Staffordshire,ST12 9EX,387930,339120,West Midlands,Controlled Waters,"Indeno(1,2,3-cd)pyrene",1,2.23,Water Industry,Water Industry,12,1,15,29,,52.9493237,-2.181084321,West Midlands
S/11/25151/R,,SEVERN TRENT WATER LTD,Coventry (Finham) STW,CV3 6SD,433600,273700,West Midlands,Controlled Waters,"Indeno(1,2,3-cd)pyrene",1,2.59,Water Industry,Water Industry,12,1,15,29,,52.36033366,-1.508030305,West Midlands
T/10/35431/R,,SEVERN TRENT WATER LTD,Minworth Final ASP Effluent,B76 9BE,417150,291950,West Midlands,Controlled Waters,Benzo(a)pyrene,1,7.8,Water Industry,Water Industry,12,1,15,29,,52.52515799,-1.748652934,West Midlands
T/10/35431/R,,SEVERN TRENT WATER LTD,Minworth Final ASP Effluent,B76 9BE,417150,291950,West Midlands,Controlled Waters,"Indeno(1,2,3-cd)pyrene",1,10.1,Water Industry,Water Industry,12,1,15,29,,52.52515799,-1.748652934,West Midlands
S/07/56066/R,,SEVERN TRENT WATER LTD,Worcester STW,WR2 4ZP,384361,253530,West Midlands,Controlled Waters,"Indeno(1,2,3-cd)pyrene",1,0,Water Industry,Water Industry,12,1,15,29,,52.17979767,-2.230133959,West Midlands
S/07/56066/R,,SEVERN TRENT WATER LTD,Worcester STW,WR2 4ZP,384361,253530,West Midlands,Controlled Waters,Benzo(a)pyrene,1,0,Water Industry,Water Industry,12,1,15,29,,52.17979767,-2.230133959,West Midlands
S/04/55141/R,,SEVERN TRENT WATER LTD,Rushmoor (Telford) STW,TF6 5EX,361300,313700,West Midlands,Controlled Waters,Fluoranthene,0.1,0,Water Industry,Water Industry,12,1,15,29,,52.71955883,-2.5743799,West Midlands
S/04/55141/R,,SEVERN TRENT WATER LTD,Rushmoor (Telford) STW,TF6 5EX,361300,313700,West Midlands,Controlled Waters,"Indeno(1,2,3-cd)pyrene",1,0,Water Industry,Water Industry,12,1,15,29,,52.71955883,-2.5743799,West Midlands
S/04/55141/R,,SEVERN TRENT WATER LTD,Rushmoor (Telford) STW,TF6 5EX,361300,313700,West Midlands,Controlled Waters,Benzo(a)pyrene,1,0,Water Industry,Water Industry,12,1,15,29,,52.71955883,-2.5743799,West Midlands
S/06/55146/R,,SEVERN TRENT WATER LTD,Kidderminster STW Oldington,DY11 7QL,382560,273750,West Midlands,Controlled Waters,Fluoranthene,0.1,0,Water Industry,Water Industry,12,1,15,29,,52.36152489,-2.257525188,West Midlands
S/06/55146/R,,SEVERN TRENT WATER LTD,Kidderminster STW Oldington,DY11 7QL,382560,273750,West Midlands,Controlled Waters,"Indeno(1,2,3-cd)pyrene",1,0,Water Industry,Water Industry,12,1,15,29,,52.36152489,-2.257525188,West Midlands
S/06/55146/R,,SEVERN TRENT WATER LTD,Kidderminster STW Oldington,DY11 7QL,382560,273750,West Midlands,Controlled Waters,Benzo(a)pyrene,1,0,Water Industry,Water Industry,12,1,15,29,,52.36152489,-2.257525188,West Midlands
T/24/35514/R,,SEVERN TRENT WATER LTD,Claymills Chp Plant Meadow Lane Clay Mills Nr Burton Staffordshire,DE13 0DB,426270,325780,West Midlands,Controlled Waters,"Indeno(1,2,3-cd)pyrene",1,0,Water Industry,Water Industry,12,1,15,29,,52.82890968,-1.611547662,West Midlands
T/24/35514/R,,SEVERN TRENT WATER LTD,Claymills Chp Plant Meadow Lane Clay Mills Nr Burton Staffordshire,DE13 0DB,426270,325780,West Midlands,Controlled Waters,Benzo(a)pyrene,1,0,Water Industry,Water Industry,12,1,15,29,,52.82890968,-1.611547662,West Midlands
S/10/25304/R,,SEVERN TRENT WATER LTD,Rugby STW,CV21 1HF,449420,276350,West Midlands,Controlled Waters,Fluoranthene,0.1,0,Water Industry,Water Industry,12,1,15,29,,52.38296081,-1.275351389,West Midlands
S/10/25304/R,,SEVERN TRENT WATER LTD,Rugby STW,CV21 1HF,449420,276350,West Midlands,Controlled Waters,"Indeno(1,2,3-cd)pyrene",1,0,Water Industry,Water Industry,12,1,15,29,,52.38296081,-1.275351389,West Midlands
S/10/25304/R,,SEVERN TRENT WATER LTD,Rugby STW,CV21 1HF,449420,276350,West Midlands,Controlled Waters,Benzo(a)pyrene,1,0,Water Industry,Water Industry,12,1,15,29,,52.38296081,-1.275351389,West Midlands
S/06/55227/R,,SEVERN TRENT WATER LTD,Barnhurst STW,WV95HN,390000,301650,West Midlands,Controlled Waters,"Indeno(1,2,3-cd)pyrene",1,0,Water Industry,Water Industry,12,1,15,29,,52.61253137,-2.149118878,West Midlands
S/06/55227/R,,SEVERN TRENT WATER LTD,Barnhurst STW,WV95HN,390000,301650,West Midlands,Controlled Waters,Benzo(a)pyrene,1,0,Water Industry,Water Industry,12,1,15,29,,52.61253137,-2.149118878,West Midlands
T/08/35452/R,,SEVERN TRENT WATER LTD,Goscote STW,WS3 4DW,402190,301920,West Midlands,Controlled Waters,Fluoranthene,0.1,0,Water Industry,Water Industry,12,1,15,29,,52.61504883,-1.96908888,West Midlands
T/08/35452/R,,SEVERN TRENT WATER LTD,Goscote STW,WS3 4DW,402190,301920,West Midlands,Controlled Waters,"Indeno(1,2,3-cd)pyrene",1,0,Water Industry,Water Industry,12,1,15,29,,52.61504883,-1.96908888,West Midlands
T/08/35452/R,,SEVERN TRENT WATER LTD,Goscote STW,WS3 4DW,402190,301920,West Midlands,Controlled Waters,Benzo(a)pyrene,1,0,Water Industry,Water Industry,12,1,15,29,,52.61504883,-1.96908888,West Midlands
T/08/09076/R,,SEVERN TRENT WATER LTD,Ray Hall Sand Filters STW,B43 6JE,402900,293700,West Midlands,Controlled Waters,Fluoranthene,0.1,0,Water Industry,Water Industry,12,1,15,29,,52.54114945,-1.958671738,West Midlands
T/08/09076/R,,SEVERN TRENT WATER LTD,Ray Hall Sand Filters STW,B43 6JE,402900,293700,West Midlands,Controlled Waters,"Indeno(1,2,3-cd)pyrene",1,0,Water Industry,Water Industry,12,1,15,29,,52.54114945,-1.958671738,West Midlands
T/08/09076/R,,SEVERN TRENT WATER LTD,Ray Hall Sand Filters STW,B43 6JE,402900,293700,West Midlands,Controlled Waters,Benzo(a)pyrene,1,0,Water Industry,Water Industry,12,1,15,29,,52.54114945,-1.958671738,West Midlands
S/13/25443/R,,SEVERN TRENT WATER LTD,Warwick STW,CV34 6QW,427770,262900,West Midlands,Controlled Waters,"Indeno(1,2,3-cd)pyrene",1,0,Water Industry,Water Industry,12,1,15,29,,52.26356694,-1.594524975,West Midlands
S/13/25443/R,,SEVERN TRENT WATER LTD,Warwick STW,CV34 6QW,427770,262900,West Midlands,Controlled Waters,Benzo(a)pyrene,1,0,Water Industry,Water Industry,12,1,15,29,,52.26356694,-1.594524975,West Midlands
BV1178IB,DISPOSAL OF > 50 T/D NON-HAZARDOUS WASTE (> 100 T/D IF ONLY AD) INVOLVING BIOLOGICAL TREATMENT,Yorkshire Water Services Limited,Tadcaster Trade Treatment Works Ouston Lane Tadcaster North Yorkshire,LS24 8DP,449500,442800,Yorkshire,Controlled Waters,"Indeno(1,2,3-cd)pyrene",1,0,Biowaste Treatment,Biowaste Treatment,13,1,1,0,,53.87904277,-1.248527439,Yorkshire and The Humber
KP3536LL,DISPOSAL OF > 50 T/D NON-HAZARDOUS WASTE (> 100 T/D IF ONLY AD) INVOLVING PHYSICO-CHEMICAL TREATMENT ,Yorkshire Water Services Limited,Neily Wwtw New Mill Road Holmfirth West Yorkshire,HD9 7AZ,414690,411650,Yorkshire,Controlled Waters,"Indeno(1,2,3-cd)pyrene",1,0,Biowaste Treatment,Biowaste Treatment,13,1,1,0,,53.60121313,-1.779490395,Yorkshire and The Humber
KP3036LW,DISPOSAL OF > 50 T/D NON-HAZARDOUS WASTE (> 100 T/D IF ONLY AD) INVOLVING PHYSICO-CHEMICAL TREATMENT ,Yorkshire Water Services Limited,Lemonroyd Wwtw Fleet Lane Oulton West Yorkshire,LS26 8AB,437930,427930,Yorkshire,Controlled Waters,"Indeno(1,2,3-cd)pyrene",1,0,Biowaste Treatment,Biowaste Treatment,13,1,1,0,,53.74637125,-1.426337366,Yorkshire and The Humber
KP3836LT,DISPOSAL OF > 50 T/D NON-HAZARDOUS WASTE (> 100 T/D IF ONLY AD) INVOLVING PHYSICO-CHEMICAL TREATMENT ,Yorkshire Water Services Limited,South Elmsall Wwtw Chapel Lane Pontefract West Yorkshire,WF9 2SW,448170,410750,Yorkshire,Controlled Waters,"Indeno(1,2,3-cd)pyrene",1,0,Biowaste Treatment,Biowaste Treatment,13,1,1,0,,53.59112396,-1.273737183,Yorkshire and The Humber
XP3533WY,INORGANIC CHEMICALS; SALTS EG AMMONIUM CHLORIDE,Arch Timber Protection Limited,Huddersfield Chemical Industry PO Box A521 Leeds Road Huddersfield West Yorkshire,HD2 1FG,414540,416860,Yorkshire,Wastewater,Cypermethrin,0.005,0,Chemicals,Chemicals,13,3,3,3,1.30E-05,53.64804555,-1.781515622,Yorkshire and The Humber
UP3937FW,Animal vegetable and food treating etc vegetable,Cawingredients Limited,Caw House Conygarth Way Leeming Bar Business Park Leeming Bar North Yorkshire,DL7 9FD,428230,490060,Yorkshire,Controlled Waters,"Indeno(1,2,3-cd)pyrene",1,0,Food & Drink,Food & Drink,13,1,6,7,,54.30536922,-1.567666101,Yorkshire and The Humber
UP3937FW,Animal vegetable and food treating etc vegetable,Cawingredients Limited,Caw House Conygarth Way Leeming Bar Business Park Leeming Bar North Yorkshire,DL7 9FD,428230,490060,Yorkshire,Controlled Waters,Fluoranthene,0.1,0,Food & Drink,Food & Drink,13,1,6,7,,54.30536922,-1.567666101,Yorkshire and The Humber
UP3937FW,Animal vegetable and food treating etc vegetable,Cawingredients Limited,Caw House Conygarth Way Leeming Bar Business Park Leeming Bar North Yorkshire,DL7 9FD,428230,490060,Yorkshire,Controlled Waters,Heptachlor,0.1,0,Food & Drink,Food & Drink,13,1,6,7,,54.30536922,-1.567666101,Yorkshire and The Humber
UP3937FW,Animal vegetable and food treating etc vegetable,Cawingredients Limited,Caw House Conygarth Way Leeming Bar Business Park Leeming Bar North Yorkshire,DL7 9FD,428230,490060,Yorkshire,Controlled Waters,Benzo(a)pyrene,1,0,Food & Drink,Food & Drink,13,1,6,7,,54.30536922,-1.567666101,Yorkshire and The Humber
JP3547JL,DISPOSAL OR RECOVERY OF HAZARDOUS WASTE WITH A CAPACITY EXCEEDING 10 TONNES PER DAY INVOLVING SOLVENT RECLAMATION OR REGENERATION,Fcc Recycling (Uk) Limited,Knottingley Process Plant Weeland Road West Yorkshire,WF11 8DZ,451180,423850,Yorkshire,Wastewater,Benzo(a)pyrene,1,0,Waste Treatment,Hazardous Waste,13,3,14,9,,53.70857387,-1.226115422,Yorkshire and The Humber
LP3342QJ,"WASTE LANDFILLING; >10 T/D WITH CAPACITY >25,000T EXCLUDING INERT WASTE",Marcegaglia Stainless Sheffield Ltd,Tinsley Park Works Landfill Site,S9 1TR,441000,389100,Yorkshire,Wastewater,Fluoranthene,0.1,0,Landfill,Non Hazardous Landfill,13,3,7,17,,53.39714423,-1.384872818,Yorkshire and The Humber
LP3434HA,"WASTE LANDFILLING; >10 T/D WITH CAPACITY >25,000T EXCLUDING INERT WASTE",Bradley Park Waste Management Limited,Bradley Park Landfill Site Lower Quarry Road Huddersfield West Yorkshire,HD2 1FN,416350,421350,Yorkshire,Controlled Waters,"Indeno(1,2,3-cd)pyrene",1,0,Landfill,Non Hazardous Landfill,13,1,7,17,,53.68834894,-1.753899641,Yorkshire and The Humber
LP3434HA,"WASTE LANDFILLING; >10 T/D WITH CAPACITY >25,000T EXCLUDING INERT WASTE",Bradley Park Waste Management Limited,Bradley Park Landfill Site Lower Quarry Road Huddersfield West Yorkshire,HD2 1FN,416350,421350,Yorkshire,Wastewater,"Indeno(1,2,3-cd)pyrene",1,0,Landfill,Non Hazardous Landfill,13,3,7,17,,53.68834894,-1.753899641,Yorkshire and The Humber
LP3434HA,"WASTE LANDFILLING; >10 T/D WITH CAPACITY >25,000T EXCLUDING INERT WASTE",Bradley Park Waste Management Limited,Bradley Park Landfill Site Lower Quarry Road Huddersfield West Yorkshire,HD2 1FN,416350,421350,Yorkshire,Controlled Waters,Fluoranthene,0.1,0,Landfill,Non Hazardous Landfill,13,1,7,17,,53.68834894,-1.753899641,Yorkshire and The Humber
LP3434HA,"WASTE LANDFILLING; >10 T/D WITH CAPACITY >25,000T EXCLUDING INERT WASTE",Bradley Park Waste Management Limited,Bradley Park Landfill Site Lower Quarry Road Huddersfield West Yorkshire,HD2 1FN,416350,421350,Yorkshire,Controlled Waters,Heptachlor,0.1,0,Landfill,Non Hazardous Landfill,13,1,7,17,,53.68834894,-1.753899641,Yorkshire and The Humber
LP3434HA,"WASTE LANDFILLING; >10 T/D WITH CAPACITY >25,000T EXCLUDING INERT WASTE",Bradley Park Waste Management Limited,Bradley Park Landfill Site Lower Quarry Road Huddersfield West Yorkshire,HD2 1FN,416350,421350,Yorkshire,Controlled Waters,Benzo(a)pyrene,1,0,Landfill,Non Hazardous Landfill,13,1,7,17,,53.68834894,-1.753899641,Yorkshire and The Humber
LP3434HA,"WASTE LANDFILLING; >10 T/D WITH CAPACITY >25,000T EXCLUDING INERT WASTE",Bradley Park Waste Management Limited,Bradley Park Landfill Site Lower Quarry Road Huddersfield West Yorkshire,HD2 1FN,416350,421350,Yorkshire,Wastewater,Benzo(a)pyrene,1,0,Landfill,Non Hazardous Landfill,13,3,7,17,,53.68834894,-1.753899641,Yorkshire and The Humber
LP3434HA,"WASTE LANDFILLING; >10 T/D WITH CAPACITY >25,000T EXCLUDING INERT WASTE",Bradley Park Waste Management Limited,Bradley Park Landfill Site Lower Quarry Road Huddersfield West Yorkshire,HD2 1FN,416350,421350,Yorkshire,Wastewater,Cypermethrin,0.005,0,Landfill,Non Hazardous Landfill,13,3,7,17,1.30E-05,53.68834894,-1.753899641,Yorkshire and The Humber
LP3434HA,"WASTE LANDFILLING; >10 T/D WITH CAPACITY >25,000T EXCLUDING INERT WASTE",Bradley Park Waste Management Limited,Bradley Park Landfill Site Lower Quarry Road Huddersfield West Yorkshire,HD2 1FN,416350,421350,Yorkshire,Wastewater,Fluoranthene,0.1,0,Landfill,Non Hazardous Landfill,13,3,7,17,,53.68834894,-1.753899641,Yorkshire and The Humber
LP3434HA,"WASTE LANDFILLING; >10 T/D WITH CAPACITY >25,000T EXCLUDING INERT WASTE",Bradley Park Waste Management Limited,Bradley Park Landfill Site Lower Quarry Road Huddersfield West Yorkshire,HD2 1FN,416350,421350,Yorkshire,Wastewater,Heptachlor,0.1,0,Landfill,Non Hazardous Landfill,13,3,7,17,,53.68834894,-1.753899641,Yorkshire and The Humber
QP3539XL,"WASTE LANDFILLING; >10 T/D WITH CAPACITY >25,000T EXCLUDING INERT WASTE",Integrated Waste Management Ltd,"Winterton Landfill Site Winterton Effluent Treatment Plant Coleby Street,West Halton Winterton North Lincolnshire",DN15 9AP,491300,420300,Lincolnshire and Northamptonshire,Wastewater,Benzo(a)pyrene,1,0,Landfill,Non Hazardous Landfill,7,3,7,17,,53.67121007,-0.619504446,Yorkshire and The Humber
QP3539XL,"WASTE LANDFILLING; >10 T/D WITH CAPACITY >25,000T EXCLUDING INERT WASTE",Integrated Waste Management Ltd,"Winterton Landfill Site Winterton Effluent Treatment Plant Coleby Street,West Halton Winterton North Lincolnshire",DN15 9AP,491300,420300,Lincolnshire and Northamptonshire,Wastewater,Cypermethrin,0.005,0,Landfill,Non Hazardous Landfill,7,3,7,17,1.30E-05,53.67121007,-0.619504446,Yorkshire and The Humber
QP3539XL,"WASTE LANDFILLING; >10 T/D WITH CAPACITY >25,000T EXCLUDING INERT WASTE",Integrated Waste Management Ltd,"Winterton Landfill Site Winterton Effluent Treatment Plant Coleby Street,West Halton Winterton North Lincolnshire",DN15 9AP,491300,420300,Lincolnshire and Northamptonshire,Wastewater,Fluoranthene,0.1,0,Landfill,Non Hazardous Landfill,7,3,7,17,,53.67121007,-0.619504446,Yorkshire and The Humber
QP3539XL,"WASTE LANDFILLING; >10 T/D WITH CAPACITY >25,000T EXCLUDING INERT WASTE",Integrated Waste Management Ltd,"Winterton Landfill Site Winterton Effluent Treatment Plant Coleby Street,West Halton Winterton North Lincolnshire",DN15 9AP,491300,420300,Lincolnshire and Northamptonshire,Wastewater,Heptachlor,0.1,0,Landfill,Non Hazardous Landfill,7,3,7,17,,53.67121007,-0.619504446,Yorkshire and The Humber
QP3539XL,"WASTE LANDFILLING; >10 T/D WITH CAPACITY >25,000T EXCLUDING INERT WASTE",Integrated Waste Management Ltd,"Winterton Landfill Site Winterton Effluent Treatment Plant Coleby Street,West Halton Winterton North Lincolnshire",DN15 9AP,491300,420300,Lincolnshire and Northamptonshire,Wastewater,"Indeno(1,2,3-cd)pyrene",1,0,Landfill,Non Hazardous Landfill,7,3,7,17,,53.67121007,-0.619504446,Yorkshire and The Humber
XP3232XN,"WASTE LANDFILLING; >10 T/D WITH CAPACITY >25,000T EXCLUDING INERT WASTE",Yorwaste Limited,Skibeden Quarry Landfill Site Harrogate Road Skibeden Skipton North Yorkshire,BD23 6AD,403070,453740,Yorkshire,Controlled Waters,"Indeno(1,2,3-cd)pyrene",1,0,Landfill,Non Hazardous Landfill,13,1,7,17,,53.97971085,-1.954678092,Yorkshire and The Humber
XP3232XN,"WASTE LANDFILLING; >10 T/D WITH CAPACITY >25,000T EXCLUDING INERT WASTE",Yorwaste Limited,Skibeden Quarry Landfill Site Harrogate Road Skibeden Skipton North Yorkshire,BD23 6AD,403070,453740,Yorkshire,Controlled Waters,Fluoranthene,0.1,0,Landfill,Non Hazardous Landfill,13,1,7,17,,53.97971085,-1.954678092,Yorkshire and The Humber
XP3232XN,"WASTE LANDFILLING; >10 T/D WITH CAPACITY >25,000T EXCLUDING INERT WASTE",Yorwaste Limited,Skibeden Quarry Landfill Site Harrogate Road Skibeden Skipton North Yorkshire,BD23 6AD,403070,453740,Yorkshire,Controlled Waters,Benzo(a)pyrene,1,0,Landfill,Non Hazardous Landfill,13,1,7,17,,53.97971085,-1.954678092,Yorkshire and The Humber
PP3830BV,"WASTE LANDFILLING; >10 T/D WITH CAPACITY >25,000T EXCLUDING INERT WASTE",Integrated Waste Management Ltd,Immingham Landfill Site Queens Road North East Lincolnshire,DN40 1QR,520070,414100,Lincolnshire and Northamptonshire,Wastewater,"Indeno(1,2,3-cd)pyrene",1,0,Landfill,Non Hazardous Landfill,7,3,7,17,,53.60970233,-0.186626797,Yorkshire and The Humber
PP3830BV,"WASTE LANDFILLING; >10 T/D WITH CAPACITY >25,000T EXCLUDING INERT WASTE",Integrated Waste Management Ltd,Immingham Landfill Site Queens Road North East Lincolnshire,DN40 1QR,520070,414100,Lincolnshire and Northamptonshire,Wastewater,Benzo(a)pyrene,1,0,Landfill,Non Hazardous Landfill,7,3,7,17,,53.60970233,-0.186626797,Yorkshire and The Humber
PP3830BV,"WASTE LANDFILLING; >10 T/D WITH CAPACITY >25,000T EXCLUDING INERT WASTE",Integrated Waste Management Ltd,Immingham Landfill Site Queens Road North East Lincolnshire,DN40 1QR,520070,414100,Lincolnshire and Northamptonshire,Wastewater,Cypermethrin,0.005,0,Landfill,Non Hazardous Landfill,7,3,7,17,1.30E-05,53.60970233,-0.186626797,Yorkshire and The Humber
PP3830BV,"WASTE LANDFILLING; >10 T/D WITH CAPACITY >25,000T EXCLUDING INERT WASTE",Integrated Waste Management Ltd,Immingham Landfill Site Queens Road North East Lincolnshire,DN40 1QR,520070,414100,Lincolnshire and Northamptonshire,Wastewater,Fluoranthene,0.1,0,Landfill,Non Hazardous Landfill,7,3,7,17,,53.60970233,-0.186626797,Yorkshire and The Humber
PP3830BV,"WASTE LANDFILLING; >10 T/D WITH CAPACITY >25,000T EXCLUDING INERT WASTE",Integrated Waste Management Ltd,Immingham Landfill Site Queens Road North East Lincolnshire,DN40 1QR,520070,414100,Lincolnshire and Northamptonshire,Wastewater,Heptachlor,0.1,0,Landfill,Non Hazardous Landfill,7,3,7,17,,53.60970233,-0.186626797,Yorkshire and The Humber
BW0983IT,"WASTE LANDFILLING; >10 T/D WITH CAPACITY >25,000T EXCLUDING INERT WASTE",Valencia Waste Management LTD,Parkwood Landfill PARKWOOD ROAD NEEPSEND,S3 8AG,434400,389400,Yorkshire,Wastewater,Benzo(a)pyrene,1,0,Landfill,Non Hazardous Landfill,13,3,7,17,,53.40031052,-1.48409165,Yorkshire and The Humber
BW0983IT,"WASTE LANDFILLING; >10 T/D WITH CAPACITY >25,000T EXCLUDING INERT WASTE",Valencia Waste Management LTD,Parkwood Landfill PARKWOOD ROAD NEEPSEND,S3 8AG,434400,389400,Yorkshire,Wastewater,Fluoranthene,0.1,0,Landfill,Non Hazardous Landfill,13,3,7,17,,53.40031052,-1.48409165,Yorkshire and The Humber
BW0983IT,"WASTE LANDFILLING; >10 T/D WITH CAPACITY >25,000T EXCLUDING INERT WASTE",Valencia Waste Management LTD,Parkwood Landfill PARKWOOD ROAD NEEPSEND,S3 8AG,434400,389400,Yorkshire,Wastewater,Heptachlor,0.1,0,Landfill,Non Hazardous Landfill,13,3,7,17,,53.40031052,-1.48409165,Yorkshire and The Humber
BW1785IH,"WASTE LANDFILLING; >10 T/D WITH CAPACITY >25,000T EXCLUDING INERT WASTE",Integrated Waste Management Limited,Winterton South Landfill Site Coleby Road West Halton Lincolnshire,DN15 9AP,491200,420200,Lincolnshire and Northamptonshire,Wastewater,"Indeno(1,2,3-cd)pyrene",1,0,Landfill,Hazardous Landfill,7,3,7,8,,53.67032895,-0.621046963,Yorkshire and The Humber
BW1785IH,"WASTE LANDFILLING; >10 T/D WITH CAPACITY >25,000T EXCLUDING INERT WASTE",Integrated Waste Management Limited,Winterton South Landfill Site Coleby Road West Halton Lincolnshire,DN15 9AP,491200,420200,Lincolnshire and Northamptonshire,Wastewater,Benzo(a)pyrene,1,0,Landfill,Hazardous Landfill,7,3,7,8,,53.67032895,-0.621046963,Yorkshire and The Humber
BW1785IH,"WASTE LANDFILLING; >10 T/D WITH CAPACITY >25,000T EXCLUDING INERT WASTE",Integrated Waste Management Limited,Winterton South Landfill Site Coleby Road West Halton Lincolnshire,DN15 9AP,491200,420200,Lincolnshire and Northamptonshire,Wastewater,Cypermethrin,0.005,0,Landfill,Hazardous Landfill,7,3,7,8,1.30E-05,53.67032895,-0.621046963,Yorkshire and The Humber
BW1785IH,"WASTE LANDFILLING; >10 T/D WITH CAPACITY >25,000T EXCLUDING INERT WASTE",Integrated Waste Management Limited,Winterton South Landfill Site Coleby Road West Halton Lincolnshire,DN15 9AP,491200,420200,Lincolnshire and Northamptonshire,Wastewater,Fluoranthene,0.1,0,Landfill,Hazardous Landfill,7,3,7,8,,53.67032895,-0.621046963,Yorkshire and The Humber
BW1785IH,"WASTE LANDFILLING; >10 T/D WITH CAPACITY >25,000T EXCLUDING INERT WASTE",Integrated Waste Management Limited,Winterton South Landfill Site Coleby Road West Halton Lincolnshire,DN15 9AP,491200,420200,Lincolnshire and Northamptonshire,Wastewater,Heptachlor,0.1,0,Landfill,Hazardous Landfill,7,3,7,8,,53.67032895,-0.621046963,Yorkshire and The Humber
BV0627IL,"WASTE LANDFILLING; >10 T/D WITH CAPACITY >25,000T EXCLUDING INERT WASTE",North Lincolnshire Council,Conesby Quarry Landfill Normanby Road Scunthorpe North Lincolnshire,DN15 8QZ,489850,414500,Lincolnshire and Northamptonshire,Wastewater,Benzo(a)pyrene,1,0,Landfill,Non Hazardous Landfill,7,3,7,17,,53.61934413,-0.643119583,Yorkshire and The Humber
BV0627IL,"WASTE LANDFILLING; >10 T/D WITH CAPACITY >25,000T EXCLUDING INERT WASTE",North Lincolnshire Council,Conesby Quarry Landfill Normanby Road Scunthorpe North Lincolnshire,DN15 8QZ,489850,414500,Lincolnshire and Northamptonshire,Wastewater,Fluoranthene,0.1,0,Landfill,Non Hazardous Landfill,7,3,7,17,,53.61934413,-0.643119583,Yorkshire and The Humber
VP3230BH,"WASTE LANDFILLING; >10 T/D WITH CAPACITY >25,000T EXCLUDING INERT WASTE",Integrated Waste Management Ltd,Gallymoor Landfill Market Weighton Road Holme On Spalding Moor North Yorkshire,YO43 4ED,484000,439810,Yorkshire,Wastewater,"Indeno(1,2,3-cd)pyrene",1,0,Landfill,Non Hazardous Landfill,13,3,7,17,,53.84774523,-0.724670316,Yorkshire and The Humber
VP3230BH,"WASTE LANDFILLING; >10 T/D WITH CAPACITY >25,000T EXCLUDING INERT WASTE",Integrated Waste Management Ltd,Gallymoor Landfill Market Weighton Road Holme On Spalding Moor North Yorkshire,YO43 4ED,484000,439810,Yorkshire,Wastewater,Benzo(a)pyrene,1,0,Landfill,Non Hazardous Landfill,13,3,7,17,,53.84774523,-0.724670316,Yorkshire and The Humber
VP3230BH,"WASTE LANDFILLING; >10 T/D WITH CAPACITY >25,000T EXCLUDING INERT WASTE",Integrated Waste Management Ltd,Gallymoor Landfill Market Weighton Road Holme On Spalding Moor North Yorkshire,YO43 4ED,484000,439810,Yorkshire,Wastewater,Cypermethrin,0.005,0,Landfill,Non Hazardous Landfill,13,3,7,17,1.30E-05,53.84774523,-0.724670316,Yorkshire and The Humber
VP3230BH,"WASTE LANDFILLING; >10 T/D WITH CAPACITY >25,000T EXCLUDING INERT WASTE",Integrated Waste Management Ltd,Gallymoor Landfill Market Weighton Road Holme On Spalding Moor North Yorkshire,YO43 4ED,484000,439810,Yorkshire,Wastewater,Fluoranthene,0.1,0,Landfill,Non Hazardous Landfill,13,3,7,17,,53.84774523,-0.724670316,Yorkshire and The Humber
VP3230BH,"WASTE LANDFILLING; >10 T/D WITH CAPACITY >25,000T EXCLUDING INERT WASTE",Integrated Waste Management Ltd,Gallymoor Landfill Market Weighton Road Holme On Spalding Moor North Yorkshire,YO43 4ED,484000,439810,Yorkshire,Wastewater,Heptachlor,0.1,0,Landfill,Non Hazardous Landfill,13,3,7,17,,53.84774523,-0.724670316,Yorkshire and The Humber
RP3206BE,COMBUSTION; ANY FUEL  =>50MW,British Steel Limited,Scunthorpe Integrated Iron and Steel Works Brigg Road,DN16 1XA,492720,408890,East Midlands,Controlled Waters,Fluoranthene,0.1,2.66,Metals,Ferrous,3,1,8,6,,53.56843547,-0.601410534,Yorkshire and The Humber
RP3206BE,COMBUSTION; ANY FUEL  =>50MW,British Steel Limited,Scunthorpe Integrated Iron and Steel Works Brigg Road,DN16 1XA,492720,408890,East Midlands,Controlled Waters,"Indeno(1,2,3-cd)pyrene",1,7.23,Metals,Ferrous,3,1,8,6,,53.56843547,-0.601410534,Yorkshire and The Humber
RP3206BE,COMBUSTION; ANY FUEL  =>50MW,British Steel Limited,Scunthorpe Integrated Iron and Steel Works Brigg Road,DN16 1XA,492720,408890,East Midlands,Controlled Waters,Benzo(a)pyrene,1,9.14,Metals,Ferrous,3,1,8,6,,53.56843547,-0.601410534,Yorkshire and The Humber
CB3606XS,"TEMPORARY STORAGE OF HAZ WASTE NOT UNDER S 5.2 PENDING ACTIVITIES LISTED IN S 5.1, 5.2, 5.3 AND PARAGRAPH (B) OF THIS SECTION WITH A TOTAL CAPACITY > 50 TONNES, EXCL TEMP STORAGE WHERE GENERATED",Donald Ward Limited,Ward Recycling Newbridge Lane Old Whittington Chesterfield,S41 9HY,443880,388370,Yorkshire,Controlled Waters,Fluoranthene,0.1,0,Waste Treatment,Metals Recycling,13,1,14,14,,53.39035215,-1.341665243,Yorkshire and The Humber
CB3606XS,"TEMPORARY STORAGE OF HAZ WASTE NOT UNDER S 5.2 PENDING ACTIVITIES LISTED IN S 5.1, 5.2, 5.3 AND PARAGRAPH (B) OF THIS SECTION WITH A TOTAL CAPACITY > 50 TONNES, EXCL TEMP STORAGE WHERE GENERATED",Donald Ward Limited,Ward Recycling Newbridge Lane Old Whittington Chesterfield,S41 9HY,443880,388370,Yorkshire,Controlled Waters,Benzo(a)pyrene,1,0,Waste Treatment,Metals Recycling,13,1,14,14,,53.39035215,-1.341665243,Yorkshire and The Humber
BR5035IT,"COATING, PRINTING AND TEXTILES; PRE-TREATING BY WASHING ETC >10T/DAY",Calder Textiles Limited,ANCHOR HOUSE DEWSBURY MILLS THORNHILL ROAD WEST YORKSHIRE,WF12 9QE,424000,420500,Yorkshire,Wastewater,Cypermethrin,0.005,0.01,Paper and textiles,Textiles,13,3,12,28,1.30E-05,53.68041545,-1.638128447,Yorkshire and The Humber
NP3032WQ,"COATING, PRINTING AND TEXTILES; PRE-TREATING BY WASHING ETC >10T/DAY",Huddersfield Dyeing Company Limited,Canal Bank Dyeworks Canal Street Leeds Road West Yorkshire,HD1 6NY,415180,417860,Yorkshire,Wastewater,Cypermethrin,0.005,0.0101,Paper and textiles,Textiles,13,3,12,28,1.30E-05,53.65701562,-1.771785386,Yorkshire and The Humber
QP3538XB,"COATING, PRINTING AND TEXTILES; PRE-TREATING BY WASHING ETC >10T/DAY",W.T.Johnson and Sons (Huddersfield) Ltd,Bankfield Mills Wakefield Road Moldgreen West Yorkshire,HD5 9BB,415560,416260,Yorkshire,Wastewater,Cypermethrin,0.005,0.012,Paper and textiles,Textiles,13,3,12,28,1.30E-05,53.64262357,-1.766115129,Yorkshire and The Humber
BR4977IH,"COATING, PRINTING AND TEXTILES; PRE-TREATING BY WASHING ETC >10T/DAY",Bulmer and Lumb Group Ltd,Buttershaw Textiles ROYDS HALL LANE BUTTERSHAW WEST YORKSHIRE,BD6 2NE,414340,429240,Yorkshire,Wastewater,Cypermethrin,0.005,0.0331,Paper and textiles,Textiles,13,3,12,28,1.30E-05,53.75932288,-1.783972753,Yorkshire and The Humber
VP3137QZ,DISPOSAL OF > 50 T/D NON-HAZARDOUS WASTE (> 100 T/D IF ONLY AD) INVOLVING BIOLOGICAL TREATMENT,Wooltex UK Limited,Woodland Mill Dale Street Longwood Huddersfield Kirklees,HD3 4TG,411170,416440,Yorkshire,Wastewater,Cypermethrin,0.005,0.05,Paper and textiles,Textiles,13,3,12,28,1.30E-05,53.64435259,-1.832511233,Yorkshire and The Humber
BP3530RC,"COATING, PRINTING AND TEXTILES; PRE-TREATING BY WASHING ETC >10T/DAY",Harrison Gardner Dyers and Winders Limited,Royds Hall Lane Site Buttershaw Bradford,BD6 2NE,414300,429150,Yorkshire,Wastewater,Cypermethrin,0.005,0.065,Paper and textiles,Textiles,13,3,12,28,1.30E-05,53.75851506,-1.784583597,Yorkshire and The Humber
BR4705IR,"COATING, PRINTING AND TEXTILES; PRE-TREATING BY WASHING ETC >10T/DAY",Standard Wool (UK) Limited,Eastfield Mills EASTFIELD MILLS WEST YORKSHIRE,WF12 8EH,424900,421400,Yorkshire,Wastewater,Cypermethrin,0.005,0.89,Paper and textiles,Textiles,13,3,12,28,1.30E-05,53.68846268,-1.624431303,Yorkshire and The Humber
BS6025IF,"COATING, PRINTING AND TEXTILES; PRE-TREATING BY WASHING ETC >10T/DAY",Haworth Scouring Company Limited,CASHMERE WORKS BIRKSLAND STREET WEST YORKSHIRE,BD3 9SX,417800,432700,Yorkshire,Wastewater,Cypermethrin,0.005,1.381,Paper and textiles,Textiles,13,3,12,28,1.30E-05,53.79031505,-1.731294248,Yorkshire and The Humber
BP3731ZS,"COATING, PRINTING AND TEXTILES; PRE-TREATING BY WASHING ETC >10T/DAY",Lawton Yarns Limited,Ravens Ing Mills Netherfield Road Dewsbury West Yorkshire,WF13 3JE,422960,420450,Yorkshire,Wastewater,Cypermethrin,0.005,0,Paper and textiles,Textiles,13,3,12,28,1.30E-05,53.68001255,-1.65387688,Yorkshire and The Humber
UP3230LR,Refining Mineral Oil (Secondary operations - oil movements and blending,Phillips 66 Limited,Humber Refinery Eastfield Road North Lincolnshire,DN40 3DW,516340,416480,Lincolnshire and Northamptonshire,Controlled Waters,Fluoranthene,0.1,0.19,Refineries & Fuel,Refineries & Fuel,7,1,13,25,,53.63192486,-0.242087482,Yorkshire and The Humber
UP3230LR,Refining Mineral Oil (Secondary operations - oil movements and blending,Phillips 66 Limited,Humber Refinery Eastfield Road North Lincolnshire,DN40 3DW,516340,416480,Lincolnshire and Northamptonshire,Controlled Waters,"Indeno(1,2,3-cd)pyrene",1,0,Refineries & Fuel,Refineries & Fuel,7,1,13,25,,53.63192486,-0.242087482,Yorkshire and The Humber
UP3230LR,Refining Mineral Oil (Secondary operations - oil movements and blending,Phillips 66 Limited,Humber Refinery Eastfield Road North Lincolnshire,DN40 3DW,516340,416480,Lincolnshire and Northamptonshire,Controlled Waters,Benzo(a)pyrene,1,0,Refineries & Fuel,Refineries & Fuel,7,1,13,25,,53.63192486,-0.242087482,Yorkshire and The Humber
T/81/45102/R,,SEVERN TRENT WATER LTD,Scunthorpe STW Yaddlethorpe,DN17 3PS,487292,405965,East Midlands,Controlled Waters,Fluoranthene,0.1,0.11,Water Industry,Water Industry,3,1,15,29,,53.54308142,-0.684163917,Yorkshire and The Humber
WRA7409,,Yorkshire Water Services Limited,HUDDERSFIELD STW,HD2 1FG,417124,419244,Yorkshire,Controlled Waters,Cypermethrin,0.005,0.38,Water Industry,Water Industry,13,1,15,29,1.30E-05,53.6693955,-1.742295056,Yorkshire and The Humber
E15,,Yorkshire Water Services Limited,Mitchell Laithes WwTW CHP Plant Long Lane Dewsbury West Yorkshire,WF12 8LL,426030,419980,Yorkshire,Controlled Waters,Cypermethrin,0.005,1.1,Water Industry,Water Industry,13,1,15,29,1.30E-05,53.675645,-1.607439464,Yorkshire and The Humber
WRA6925,,Yorkshire Water Services Limited,BRADFORD ESHOLT STW,BD10 0PB,419030,439081,Yorkshire,Controlled Waters,Cypermethrin,0.005,8.34,Water Industry,Water Industry,13,1,15,29,1.30E-05,53.84762302,-1.712232009,Yorkshire and The Humber
WRA6925,,Yorkshire Water Services Limited,BRADFORD ESHOLT STW,BD10 0PB,419030,439081,Yorkshire,Controlled Waters,"Indeno(1,2,3-cd)pyrene",1,0,Water Industry,Water Industry,13,1,15,29,,53.84762302,-1.712232009,Yorkshire and The Humber
WRA7409,,Yorkshire Water Services Limited,HUDDERSFIELD STW,HD2 1FG,417124,419244,Yorkshire,Controlled Waters,"Indeno(1,2,3-cd)pyrene",1,0,Water Industry,Water Industry,13,1,15,29,,53.6693955,-1.742295056,Yorkshire and The Humber
C4954,,Yorkshire Water Services Limited,ALDWARKE STW,S65 1SU,444543,394449,Yorkshire,Controlled Waters,"Indeno(1,2,3-cd)pyrene",1,0,Water Industry,Water Industry,13,1,15,29,,53.44493434,-1.330839947,Yorkshire and The Humber
WRA6924,,Yorkshire Water Services Limited,Knostrop Sewage Treatment Works Knowsthorpe Lane West Yorkshire,LS9 0PJ,432560,431600,Yorkshire,Controlled Waters,"Indeno(1,2,3-cd)pyrene",1,0,Water Industry,Water Industry,13,1,15,29,,53.77971787,-1.507374672,Yorkshire and The Humber
2829(T),,Yorkshire Water Services Limited,SANDALL STW,DN2 4NU,460099,406100,Yorkshire,Controlled Waters,"Indeno(1,2,3-cd)pyrene",1,0,Water Industry,Water Industry,13,1,15,29,,53.54810454,-1.094433343,Yorkshire and The Humber
C3967,,Yorkshire Water Services Limited,CALDER VALE STW,WF1 5PJ,434600,420300,Yorkshire,Controlled Waters,"Indeno(1,2,3-cd)pyrene",1,0,Water Industry,Water Industry,13,1,15,29,,53.67802592,-1.477678237,Yorkshire and The Humber
3334(SS),,Yorkshire Water Services Limited,WOODHOUSE MILL STW,S13 9WG,443351,385867,Yorkshire,Controlled Waters,"Indeno(1,2,3-cd)pyrene",1,0,Water Industry,Water Industry,13,1,15,29,,53.36789873,-1.349961514,Yorkshire and The Humber
27/24/0124,,Yorkshire Water Services Limited,YORK NABURN STW,YO23 2XD,460100,446899,Yorkshire,Controlled Waters,"Indeno(1,2,3-cd)pyrene",1,0,Water Industry,Water Industry,13,1,15,29,,53.91476189,-1.0865058,Yorkshire and The Humber
WRA7510,,Yorkshire Water Services Limited,HALIFAX STW,HX3 0QJ,409200,422400,Yorkshire,Controlled Waters,"Indeno(1,2,3-cd)pyrene",1,0,Water Industry,Water Industry,13,1,15,29,,53.6979597,-1.862136008,Yorkshire and The Humber
WRA7619,,Yorkshire Water Services Limited,Hull WwTW Combustion Plant Hull Road Saltend Hull North Humberside,HU12 8EY,516310,428970,Yorkshire,Controlled Waters,"Indeno(1,2,3-cd)pyrene",1,0,Water Industry,Water Industry,13,1,15,29,,53.74414017,-0.237861566,Yorkshire and The Humber
T/81/45102/R,,SEVERN TRENT WATER LTD,Scunthorpe STW Yaddlethorpe,DN17 3PS,487292,405965,East Midlands,Controlled Waters,"Indeno(1,2,3-cd)pyrene",1,0,Water Industry,Water Industry,3,1,15,29,,53.54308142,-0.684163917,Yorkshire and The Humber
T/81/45102/R,,SEVERN TRENT WATER LTD,Scunthorpe STW Yaddlethorpe,DN17 3PS,487292,405965,East Midlands,Controlled Waters,Benzo(a)pyrene,1,0,Water Industry,Water Industry,3,1,15,29,,53.54308142,-0.684163917,Yorkshire and The Humber
E15,,Yorkshire Water Services Limited,Mitchell Laithes WwTW CHP Plant Long Lane Dewsbury West Yorkshire,WF12 8LL,426030,419980,Yorkshire,Controlled Waters,"Indeno(1,2,3-cd)pyrene",1,0,Water Industry,Water Industry,13,1,15,29,,53.675645,-1.607439464,Yorkshire and The Humber
E25,,Yorkshire Water Services Limited,BLACKBURN MEADOWS STW,S9 1HF,439535,391549,Yorkshire,Controlled Waters,"Indeno(1,2,3-cd)pyrene",1,0,Water Industry,Water Industry,13,1,15,29,,53.41926741,-1.406597264,Yorkshire and The Humber
AW3TS519,,Anglian Water,Pyewipe (Grimsby) STW,,528280,413140,Lincolnshire and Northamptonshire,Controlled Waters,Fluoranthene,0.1,0.15,Water Industry,Water Industry,7,1,15,29,,53.59913483,-0.063003576,Yorkshire and The Humber
AW3TS519,,Anglian Water,Pyewipe (Grimsby) STW,,528280,413140,Lincolnshire and Northamptonshire,Controlled Waters,"Indeno(1,2,3-cd)pyrene",1,0,Water Industry,Water Industry,7,1,15,29,,53.59913483,-0.063003576,Yorkshire and The Humber
AW3TS519,,Anglian Water,Pyewipe (Grimsby) STW,,528280,413140,Lincolnshire and Northamptonshire,Controlled Waters,Benzo(a)pyrene,1,0,Water Industry,Water Industry,7,1,15,29,,53.59913483,-0.063003576,Yorkshire and The Humber
BN2832IK,Animal vegetable and food treating etc vegetable,Britvic Soft Drinks Plc,Beckton Soft Drinks Factory 9 Roding Road London Industrial Estate London,E6 6LF,,,Hertfordshire and North London,Wastewater,"Indeno(1,2,3-cd)pyrene",1,0,Food & Drink,Food & Drink,5,3,6,7,,inf,inf,
BN2832IK,Animal vegetable and food treating etc vegetable,Britvic Soft Drinks Plc,Beckton Soft Drinks Factory 9 Roding Road London Industrial Estate London,E6 6LF,,,Hertfordshire and North London,Wastewater,Benzo(a)pyrene,1,0,Food & Drink,Food & Drink,5,3,6,7,,inf,inf,
BN2832IK,Animal vegetable and food treating etc vegetable,Britvic Soft Drinks Plc,Beckton Soft Drinks Factory 9 Roding Road London Industrial Estate London,E6 6LF,,,Hertfordshire and North London,Wastewater,Cypermethrin,0.005,0,Food & Drink,Food & Drink,5,3,6,7,1.30E-05,inf,inf,
BN2832IK,Animal vegetable and food treating etc vegetable,Britvic Soft Drinks Plc,Beckton Soft Drinks Factory 9 Roding Road London Industrial Estate London,E6 6LF,,,Hertfordshire and North London,Wastewater,Fluoranthene,0.1,0,Food & Drink,Food & Drink,5,3,6,7,,inf,inf,
BN2832IK,Animal vegetable and food treating etc vegetable,Britvic Soft Drinks Plc,Beckton Soft Drinks Factory 9 Roding Road London Industrial Estate London,E6 6LF,,,Hertfordshire and North London,Wastewater,Heptachlor,0.1,0,Food & Drink,Food & Drink,5,3,6,7,,inf,inf,
XP3032MQ,DISPOSAL OF > 50 T/D NON-HAZARDOUS WASTE (> 100 T/D IF ONLY AD) INVOLVING PHYSICO-CHEMICAL TREATMENT ,Suez Recycling and Recovery Lancashire Limited,Clifton Marsh Leachate Treatment Plant CLIFTON MARSH LANDFILL SITE LYTHAM ROAD FRECKLETON LANCASHIRE,PR4 0XE,,,Cumbria and Lancashire,Wastewater,Benzo(a)pyrene,1,0,Landfill,other,0,3,7,30,,inf,inf,
GP3037SJ,"WASTE LANDFILLING; >10 T/D WITH CAPACITY >25,000T EXCLUDING INERT WASTE",Fcc Recycling (Uk) Limited,"Lillyhall Waste Management Centre Joseph Noble Road Lillyhall Industrial Estate,Lillyhall Workington Cumbria",CA14 4JH,,,Cumbria and Lancashire,Wastewater,Heptachlor,0.1,0,Landfill,Non Hazardous Landfill,0,3,7,17,,inf,inf,
